Nom,T√©l√©phone,Site Web,Adresse,Note Google,Nombre d'avis,R√©gion,Latitude,Longitude
DAHOME - Atelier de r√©novation et Architecture d‚Äôint√©rieur √† Paris,01 89 16 90 94,https://www.dahome-renovation.com/,"5 Rue du Dahomey, 75011 Paris, France",5,22,IDF,48.8512598,2.3828548
TCP-RENOVATION-R√©novation appartement Paris et r√©seau architecte int√©rieur,06 58 88 65 86,http://www.tcp-renovation.com/,"17 AVENUE NIEL, 75017 75017 - PARIS 17, France",4.9,68,IDF,48.8802283,2.2947892
Architecte Paris - KIDA,06 95 08 78 87,https://www.kid-a.fr/,"42 Rue Sedaine, 75011 Paris, France",5,41,IDF,48.8570346,2.3751625
Reno I R√©novation appartement & r√©novation d'int√©rieur,01 84 80 70 97,http://www.reno.fr/,"61 Rue Sedaine, 75011 Paris, France",4.8,95,IDF,48.8577965,2.3763687
DESIGN HOME - R√©novation et Travaux d'int√©rieur,07 65 71 57 22,https://www.reno-designhome.com/,"59 Rue de Ponthieu, 75008 Paris, France",5,82,IDF,48.872101,2.304882000000001
Architecte | PARIS - KAROLINA FIDOR STUDIO,06 28 35 85 59,https://lamaisondesarchitectes.com/architectes/karoline-fidor,"43 Rue de l'Ourcq, 75019 Paris, France",5,9,IDF,48.8896248,2.3832481
Architecte Paris - ACF,06 83 71 33 19,https://www.architectesparis.com/,"98 Bd Malesherbes, 75017 Paris, France",5,12,IDF,48.8814628,2.3122343
Perspectives Architecture & Design - Architecte d'int√©rieur - Paris,06 63 58 50 01,http://perspectives-architecturedesign.com/,"261 Rue du Faubourg Saint-Martin, 75010 Paris, France",5,14,IDF,48.8834818,2.3679037
Cr√©ateurs d'int√©rieur,01 48 04 76 36,https://www.createursdinterieur.com/,"9 Pass. Dagorno, 75020 Paris, France",4.8,183,IDF,48.85544729999999,2.4049722
Ouest Home,01 81 29 04 91,https://www.ouest-home.com/,"150 Av. de Wagram, 75017 Paris, France",4.9,55,IDF,48.8864169,2.304557
Paris Architecte d'Int√©rieur S√©bastien Halimi,01 45 27 07 33,https://paris-architecte-interieur.com/,"58 Av. de Versailles, 75016 Paris, France",4.8,65,IDF,48.8479886,2.2739725
Agence BLEU Architecture -Travaux d'Archi,06 19 69 39 72,https://ableu.fr/,"59 R. des Petites √âcuries, 75010 Paris, France",5,5,IDF,48.873899,2.3483712
Bulle Home,09 50 36 07 62,,"25 Rue de la Folie M√©ricourt, 75011 Paris, France",4.6,38,IDF,48.8627157,2.3732181
Atelier JOI - Architecte d'int√©rieur - Paris,01 85 09 60 16,http://atelierjoi.com/,"13 Rue des Perchamps, 75016 Paris, France",5,25,IDF,48.8484501,2.2670164
Studio Ems√© - Architecte d'int√©rieur Paris,06 18 28 85 30,https://www.studioemse.com/,"60 Rue Raymond Losserand, 75014 Paris, France",5,11,IDF,48.8343743,2.3184496
Architecte d'int√©rieur Paris | Elena Kornilova,01 42 93 55 32,https://elenakornilova.com/,"19 Rue Daru, 75008 Paris, France",5,8,IDF,48.8784565,2.3024931
Manuel MARTINEZ - Architecte d'Int√©rieur Paris,01 48 89 72 72,http://www.manuelmartinez.fr/,"11 Bis Rue de l'Amiral Mouchez, 75013 Paris, France",5,37,IDF,48.825402,2.3417218
Frederic Wetzel Architecte,06 72 07 63 02,https://fredarchitecte.com/,"59 Rue du Faubourg Saint-Antoine, 75011 Paris, France",4.8,24,IDF,48.8521126,2.3735204
ABANGO ATELIER ARCHITECTURE,07 81 09 15 60,http://abango-aa.com/,"3 Rue Alexandre Parodi, 75010 Paris, France",5,30,IDF,48.87939660000001,2.3662765
R√©noverie | R√©novation √©nerg√©tique & architecture d'int√©rieur,06 17 38 21 40,https://renoverie.fr/,"203 Rue Saint-Honor√©, 75001 Paris, France",5,35,IDF,48.8642033,2.3312039
La Maison Des Travaux,07 83 98 26 69,https://paris17.lamaisondestravaux.com/,"2 Rue Nollet, 75017 Paris, France",5,82,IDF,48.8848591,2.3246728
"Elvire M, architecture et r√©novation √©nerg√©tique",,http://www.atelier-elvirem.com/,"76 Rue Nollet, 75017 Paris, France",5,10,IDF,48.8874571,2.3207034
"O2B Design Int√©rieur, Architecte d'Int√©rieur Paris 16e",06 22 87 02 42,https://www.o2b-designinterieur.com/,"129 bis Bd Murat, 75016 Paris, France",5,33,IDF,48.8373301,2.2600692
Architecte d'int√©rieur Paris | CASA√â | Charlotte Astruc,07 60 18 30 20,https://astruc-archi.com/,"204 Rue Saint-Maur, 75010 Paris, France",5,14,IDF,48.8727224,2.3712724
QUIET SQUARE Studio - R√©novation,06 76 19 46 57,https://www.quiet-square.com/,"9 Rue des Colonnes, 75002 Paris, France",5,32,IDF,48.8697221,2.3394262
L'Agence BLEU architecte d'int√©rieur √† Paris,06 19 69 39 72,https://ableu.fr/,"39 Av. de la Motte-Picquet, 75007 Paris, France",5,22,IDF,48.8546255,2.3064867
A√Øm Jonathan Architecte,06 98 16 69 23,http://www.aim.paris/,"20 Rue des Sablons, 75016 Paris, France",5,25,IDF,48.865196,2.2828439
RD RETAIL DESIGN - INTERIOR DESIGN PARIS - ARCHITECTE D'INTERIEUR,06 16 14 30 80,http://www.rdretaildesign.com/,"25 Rue de la Grange aux Belles, 75010 Paris, France",5,18,IDF,48.8748444,2.3664958
Le28 Architectes | Architectes Paris,01 40 36 79 32,https://www.levingthuit-architectes.com/,"52 Rue √âdouard-Pailleron, 75019 Paris, France",5,10,IDF,48.8812587,2.3796427
BARDIN ARCHITECTE,01 46 06 82 03,https://www.bardinarchitecte.paris/,"19 Rue Joseph Dijon, 75018 Paris, France",0.0,0,IDF,48.8941494,2.345682
Architecte d'int√©rieur Paris - JCHH,06 66 85 90 17,https://www.jchh.fr/,"48 Rue de la Rochefoucauld, 92100 Boulogne-Billancourt, France",4.8,6,IDF,48.8456206,2.2439714
Agence Avous,01 83 89 56 88,http://www.agenceavous.com/,"94 Rue Compans, 75019 Paris, France",5,23,IDF,48.8798098,2.3907942
LES ATELIERS RENOV | R√©novation appartement Paris & IDF,06 22 08 03 40,https://lesateliersrenov.fr/,"128 Rue La Bo√©tie, 75008 Paris, France",0.0,0,IDF,48.8710475,2.3057669
"Margaux Lemoine, agence d‚Äôarchitecture d‚Äôint√©rieur",06 83 43 25 98,https://margauxlemoine.fr/,"16 Rue Franc≈ìur, 75018 Paris, France",4.9,26,IDF,48.8904713,2.3416973
L. Project | Architectes d'Int√©rieur - Conception & R√©alisation,07 67 74 18 56,https://lproject.paris/,"29 Rue des Volontaires, 75015 Paris, France",5,15,IDF,48.8412877,2.308306
Agence V√©ronique Cotrel,01 88 32 64 80,http://www.verocotrel.fr/,"51 Rue Jean-Jacques Rousseau, 75001 Paris, France",5,39,IDF,48.8640543,2.3428669
Maison Pavan - Architecte d'int√©rieur Paris,,http://www.maisonpavan.com/,"109 Rue du Faubourg du Temple, 75010 Paris, France",5,9,IDF,48.8711452,2.3741116
Homenext | Architecture & R√©novation d'int√©rieur,07 56 96 54 90,http://homenext.co/,"14 Rue de l'Archev√™ch√©, 94220 Charenton-le-Pont, France",5,65,IDF,48.8224404,2.406319
Studio Saint-Andr√© Architecture & Design,06 88 58 38 07,http://www.sophiesaintandre.fr/,"109 Rue du Bac, 75007 Paris, France",5,70,IDF,48.8523094,2.3237339
Architecte d'int√©rieur Paris - Manon Maillard,06 42 41 57 71,https://maillardmanon.com/,"26 Rue de la Folie-Regnault, 75011 Paris, France",5,11,IDF,48.857762,2.3879293
Mh Conception,01 87 66 91 22,http://www.mhconception.com/,"340 Rue des Pyr√©n√©es, 75020 Paris, France",5,10,IDF,48.87392579999999,2.3888753
Studio Castille,09 81 80 62 54,http://www.studiocastille.fr/,"30 Rue P√©tion, 75011 Paris, France",4.8,87,IDF,48.8596808,2.3808788
Atelier Soo - Architecte √† Paris,06 21 65 82 46,https://ateliersoo.fr/,"83 bis Rue de l'Abb√© Groult, 75015 Paris, France",4.5,26,IDF,48.838659,2.2981645
Architecte d'Int√©rieur ParisÔΩúESPRIT PARISIENNE,06 03 45 92 01,https://www.espritparisiennearchitecture.com/,"58 Av. de Wagram, 75017 Paris, France",5,21,IDF,48.8790994,2.2993333
Architecte Int√©rieur Paris,06 87 14 27 58,https://www.architectes-interieur.fr/,"22 bis Rue Ledion, 75014 Paris, France",4.9,42,IDF,48.8270273,2.3161503
Agence KP,06 66 03 16 04,https://www.karineperez.com/,"5 Av. des Chasseurs, 75017 Paris, France",4.8,23,IDF,48.887255,2.30634
"Alohahome | R√©novation d'Appartement, Maison et Menuiserie Sur-Mesure √† Paris",06 88 96 83 09,https://alohahome.fr/,"7 Av. Jean Jaur√®s, 75019 Paris, France",5,20,IDF,48.8833519,2.3716135
DAVID - DIDOT - ARCHITECTES,01 42 06 97 91,http://www.david-didot-architectes.com/,"69 Rue de Bretagne, 75003 Paris, France",5,73,IDF,48.8643951,2.3597288
Architecte d'int√©rieur - Paris d'int√©rieur,06 09 85 07 44,http://www.parisdinterieur.fr/,"28 Rue de Cherbourg, 75015 Paris, France",4.9,45,IDF,48.8308208,2.3035837
Archibien,01 88 32 99 15,https://archibien.com/france/ile-de-france/75-arrondissement-de-paris/75001-paris/architectes/,"Archibien - Station F 58 Rue Eugene Freyssinet, Inc. HEC, 75013 Paris, France",4.8,70,IDF,48.8345154,2.3708193
Atelier Sylvie Cahen - Architecte DPLG & d'Int√©rieur,01 44 49 07 08,http://www.ateliersylviecahen.com/,"19/21 Rue Claude Tillier, 75012 Paris, France",4.8,20,IDF,48.8483897,2.3881456
STUDIO POINT CARR√â Architectes,06 27 67 50 38,http://www.studiopointcarre.com/,"6 Rue des Jeuneurs, 75002 Paris, France",5,30,IDF,48.8689735,2.3471919
L'as de La R√©novation paris - r√©novation appartement paris - plan d‚Äôarchitecte Paris -,07 67 55 41 21,http://las-de-la-renovation.fr/,"32 Rue de la F√©licit√©, 75017 Paris, France",4.8,23,IDF,48.8873538,2.310909
M2 R√©novation appartement paris entreprise construction b√¢timent r√©novation d'int√©rieur maison devis salle de bain cuisine,07 58 69 09 14,http://m2renovation.fr/,"5 Rue Legraverend, 75012 Paris, France",4.9,78,IDF,48.846489,2.3754218
Isabelle Tran | Architecte d'int√©rieur Paris,06 26 42 74 87,https://isabelletran.fr/,"20 Rue de la Cr des Noues, 75020 Paris, France",5,14,IDF,48.8644911,2.4018024
ID55 Architecte d'int√©rieur Paris / R√©novation/ Travaux tout corps d'√©tat,06 12 87 34 62,,"54 Rue des Archives, 75004 Paris, France",5,6,IDF,48.8598513,2.3568617
Studio d'Archi,06 87 16 95 73,http://www.studiodarchi.fr/,"59 R. des Petites √âcuries, 75010 Paris, France",4.6,14,IDF,48.8738869,2.3484228
Benoit Dufour Architecte DPLG,06 13 13 70 55,http://benoitdufourarchitecte.com/,"33 Rue de la Br√®che aux Loups, 75012 Paris, France",5,13,IDF,48.8383248,2.395109
Bertina Minel Architecture- architecte et architecte d‚Äôint√©rieur,06 21 65 35 18,http://www.bertinaminel-architecture.com/,"9 Rue de Savoie, 75006 Paris, France",4.9,20,IDF,48.85415219999999,2.3413675
"Nouvel Espace, design d'int√©rieur Paris",06 59 53 04 02,https://ne-designinterieur.com/,"26 Rue Sainte-F√©licite, 75015 Paris, France",5,9,IDF,48.8389692,2.3040165
"RENOVTALOC¬Æ SAS - Entreprise de r√©novation d'appartements, bureaux et immeuble √† Paris & IDF",07 83 98 88 20,https://www.renovtaloc.fr/,"29 Rue Tronchet, 75008 Paris, France",4.9,72,IDF,48.8728557,2.3260296
HL R√©novations - Ma√Ætre d'oeuvre travaux de r√©novation,06 58 80 21 89,https://www.hlrenovations.com/?utm_source=google&utm_medium=wix_google_business_profile&utm_campaign=1875134475915491932,"59 Av. Aristide Briand, 94240 L'Ha√ø-les-Roses, France",0.0,0,IDF,48.7833875,2.3337196
M & A RENOV PERE & FILS,01 46 36 99 54,https://www.marenov-perefils.fr/,"60 Rue de La Jonqui√®re, 75017 Paris, France",5,95,IDF,48.893966,2.3218943
Int√©grale construction Ma√Ætre d‚Äô≈ìuvre - Tertiaire,06 51 89 05 16,http://integraleconstruction.fr/,"3 Rue de l'Arriv√©e cedex 87, 75015 Paris, France",4.8,27,IDF,48.8434039,2.3228976
QUALITRA MAITRE D‚ÄôOEUVRE - MOE,07 64 05 81 21,https://www.qualitra-moe.com/,"7 Rue du G√©n√©ral Baratier, 75015 Paris, France",5,22,IDF,48.8509211,2.2995557
Working Renov Ô∏è Ô∏è Ô∏è Ô∏è Ô∏è Entreprise r√©novation Paris üèª‚Äç,01 85 53 91 36,https://www.entrepriserenovationparis.fr/,"10 Rue de Penthi√®vre, 75008 Paris, France",4.9,49,IDF,48.8731033,2.3166404
SQUARE RENOVATION,01 80 27 39 70,https://square-renovation.com/?utm_source=google&utm_medium=organic&utm_campaign=gbp,"20 Rue Dupleix, 75015 Paris, France",5,42,IDF,48.85163559999999,2.2972166
ABATEC - R√©novation d'appartement √† PARIS,09 53 22 07 05,https://www.abatec-renovation.fr/,"19 Rue Auguste Chabri√®res, 75015 Paris, France",5,19,IDF,48.83481769999999,2.2895721
Maryne SAINT-GILLES | Architecte d'int√©rieur & Ma√Ætre d‚Äô≈ìuvre √† Paris ‚Ä¢ Optimisation d‚Äôespace ‚Ä¢ Optimisation √©nerg√©tique,06 40 56 43 73,https://www.instagram.com/maryne.saintgilles/,"12 Rue F√©licien David, 75016 Paris, France",4.7,14,IDF,48.8505083,2.2749797
AVOLTIS R√©novation - Paris & √éle-de-France,01 89 19 25 80,https://avoltisrenovation.com/renovation-paris/,"137 Av. Jean Jaur√®s, 75019 Paris, France",4.7,36,IDF,48.88661,2.383736
Ô∏è Damour Habitat : R√©novation Appartement Paris 75 & R√©novation immeuble copros 75,06 60 38 11 74,https://www.renovation-appartement-75.fr/,"12 Rue Blanche, 75009 Paris, France",4.3,63,IDF,48.87759930000001,2.3321107
Ath√©na√Øs Plonka Architecture d‚Äôint√©rieur et Ma√Ætre d ≈ìuvre,06 99 36 06 06,,"7 Rue de la Tour, 75016 Paris, France",4.4,8,IDF,48.85891549999999,2.2835998
BATINE Architecte d'int√©rieur - Maitre d'oeuvre,06 30 86 79 19,https://www.batine.com/,"35 Rue de l'Aigle, 92250 La Garenne-Colombes, France",5,9,IDF,48.90808269999999,2.2507342
Neobat Design,06 72 92 29 45,http://neobat-design.com/,"6 Rue d'Armaill√©, 75017 Paris, France",4.6,11,IDF,48.8774828,2.2921401
Avenir R√©novations Paris 19e,01 86 65 46 27,https://www.avenir-renovations.fr/agence/avenir-renovations-75-paris/,"40 Rue d'Hautpoul, 75019 Paris, France",4.6,21,IDF,48.8835747,2.3879394
SPRG RENOV,06 62 90 20 05,https://sprgrenov.wixsite.com/sprgrenov,"31 Rue des Amandiers, 75020 Paris, France",4.9,11,IDF,48.8640707,2.3890793
Ma√Ætre d‚Äô≈ìuvre Lardy ‚Äì La Charni√®re,06 98 03 73 08,https://lacharniere.fr/,"13 Rue Jacques Cartier, 91510 Lardy, France",4.9,33,IDF,48.528051,2.2887559
Benny Benlolo - Architecte d'int√©rieur,01 77 10 57 53,https://www.architecteinterieurs.com/,"49 Rue de Verneuil, 75007 Paris, France",5,17,IDF,48.8584538,2.3269365
Atelier C+M Paris - Cabinet d'ing√©nierie,01 74 64 55 29,https://www.ateliercplusm.com/,"5 Vla du Bois d'Orme, 75019 Paris, France",4.8,17,IDF,48.8763391,2.3996321
Atelier Besnault & Coffre,01 46 20 51 12,http://www.atelierbesnaultetcoffre.fr/,"11 Rue du P√®re Gu√©rin, 75013 Paris, France",4.8,25,IDF,48.8302691,2.3540765
ATHENA Ma√Ætrise d‚Äô≈íuvre & Expertise,06 25 80 53 26,https://athenaconcept.fr/,"5 Grande Rue, 91630 Leudeville, France",5,30,IDF,48.5658664,2.3270233
RenovMax - Paris 16 / Ouest,07 81 08 54 91,https://renovmax.fr/,"23 Av. L√©opold II, 75016 Paris, France",4.9,17,IDF,48.8525698,2.2712211
Cabinet CreArte,06 80 96 73 74,http://cabinet-crearte.com/contact/,"1 Pl. Paul Verlaine, 92100 Boulogne-Billancourt, France",2,4,IDF,48.8286027,2.240388
"Socorebat Paris (75) | R√©novation et Extension de Maison, Travaux tous corps d'√©tat",09 72 12 39 99,https://www.socorebat-france.fr/ile-de-france/paris/paris/extension-maison,"76 Rue de la Pompe, 75116 Paris, France",3.4,5,IDF,48.8634156,2.2770047
MH INTERIOR - Sabrina Darmon | Architecte d‚Äôint√©rieur Paris 20e,07 70 49 03 44,https://mh-interior.fr/decorateur-ile-de-france/decorateur-architecte-interieur-paris-11e-20e/,"21 Rue de la R√©union, 75020 Paris, France",4.9,19,IDF,48.8536909,2.4027421
JUSTINE FERNANDES ARCHITECTURE,06 69 03 55 21,https://www.jfarchitecture.fr/,"99 Rue Jouffroy d'Abbans, 75017 Paris, France",5,7,IDF,48.8819409,2.3017028
Avenir R√©novations 94 Saint Mand√©,01 84 88 51 62,https://www.avenir-renovations.fr/agence/avenir-renovations-94-saint-mande/,"5 Av. du G√©n√©ral de Gaulle, 94160 Saint-Mand√©, France",4.8,6,IDF,48.8455824,2.4177968
La Maison Des Travaux,01 79 72 87 22,https://antony.lamaisondestravaux.com/,"229 Av. de la Division Leclerc, 92160 Antony, France",4.9,125,IDF,48.73610499999999,2.3017251
Atelier Reness - Architecte d'int√©rieur Paris,06 88 71 01 56,https://www.atelierreness.com/?utm_source=gmb,"17 Chau. de la Muette, 75016 Paris, France",4.6,11,IDF,48.8578529,2.2728534
ROM - ROUX ≈íUVRE MAITRISE,01 42 96 50 60,https://r-o-m.fr/,"81 Rue Lecourbe, 75015 Paris, France",3,2,IDF,48.8431088,2.3048029
Agence Arnold - Des bureaux vivants !,01 45 38 90 71,http://www.arnold.fr/,"7 Vla Aublet, 75017 Paris, France",4.6,18,IDF,48.8828822,2.2946477
R√©nov-A Paris | R√©novation immobili√®re √† Paris,06 33 11 50 75,https://www.renov-a-paris.fr/,"5 Rue de la carbonni√®re, 78200 Fontenay-Mauvoisin, France",5,17,IDF,48.9644449,1.6497034
Avenir R√©novations Thiais,01 59 30 08 03,https://www.avenir-renovations.fr/agence/avenir-renovations-94-thiais/,"28 Av. des P√©pini√®res, 94260 Fresnes, France",5,33,IDF,48.751804,2.339119
Artech Habitat,01 64 48 00 74,http://travaux-de-renovation.fr/,"8 Rue Maurice, 91160 Longjumeau, France",5,31,IDF,48.6940008,2.2886101
NDL Architecture,06 50 79 95 18,https://ndlarchitecture.com/,"18 Rue Andr√© del Sarte, 75018 Paris, France",5,10,IDF,48.8858711,2.345585
Agence Interia - Architecte d'interieur,06 99 38 15 88,https://www.houzz.fr/professionnels/artisan-et-entreprise-generale-de-batiment/agence-interia-pfvwfr-pf~1228867087,"60 Rue de La Jonqui√®re, 75017 Paris, France",4,8,IDF,48.893966,2.3218946
Faire construire sa maison,01 40 56 33 00,https://www.construiresamaison.com/,"45 Rue du Cardinal Lemoine, 75005 Paris, France",3,1,IDF,48.847162,2.3528485
SERBA'NET sarl Travaux & R√©novation,01 47 28 85 48,http://www.serbanet.fr/,"28 Rue du F√©cheray, 92150 Suresnes, France",4.7,58,IDF,48.8736439,2.218582800000001
ATELIER MADAME,06 95 07 89 37,https://ateliermadame.com/,"17 Rue Jean Beausire, 75004 Paris, France",5,4,IDF,48.85472439999999,2.3680035
Atelier Caroline Durst,06 25 76 89 24,http://carolinedurst.com/,"1 Rue Humblot, 75015 Paris, France",5,7,IDF,48.85096859999999,2.2928313
C√©line Lortholary | MH INTERIOR,06 59 34 48 89,https://mh-interior.fr/decorateur-ile-de-france/decorateur-architecte-interieur-paris-75/,"21 Rue de F√©camp, 75012 Paris, France",4.8,19,IDF,48.8353504,2.3987758
in√©e,06 78 07 66 78,http://www.inee.archi/,"3 Rue Titon, 75011 Paris, France",4.6,9,IDF,48.850787,2.386326
Brycollet Agencement,07 67 84 06 49,https://www.brycollet-agencement.fr/,"12 All. du Prunier Hardy, 92220 Bagneux, France",5,2,IDF,48.8030476,2.3114212
Decorenov - Renovation Int√©rieur peinture - Vincennes,01 79 74 23 80,https://www.decorenov-paris.fr/,"31 Rue de Lagny, 94300 Vincennes, France",4.6,108,IDF,48.8490916,2.4225783
AQC (Agence Qualit√© Construction),01 44 51 03 51,https://www.qualiteconstruction.com/,"11 bis Av. Victor Hugo, 75116 Paris, France",4.9,8,IDF,48.8724193,2.2921447
HUSS Construction et R√©novation SARL,09 88 57 89 26,https://www.huss-construction.com/,"3 Rue Maurice D√©m√©nitroux, 94000 Cr√©teil, France",4.3,6,IDF,48.7901134,2.4541786
FELD Architecture,09 54 60 21 49,http://www.feld-architecture.eu/,"21 Rue Rousselet, 75007 Paris, France",5,2,IDF,48.8489718,2.3185553
Monsieur Peinture,07 57 90 29 27,https://www.monsieurpeinture.com/,"137 Rue d'Aboukir, 75002 Paris, France",4.6,273,IDF,48.8691667,2.3513586
Art X Bat,01 42 17 02 60,http://www.artxbat.fr/,"17 Rue Rubens, 75013 Paris, France",2.7,9,IDF,48.8342055,2.3559186
NEVA Architecture Int√©rieure,06 26 25 77 87,https://www.nevainteriordesign.com/,"7 Rue Daniel Stern, 75015 Paris, France",5,5,IDF,48.8512084,2.2939119
A l'Atelier,06 60 94 82 63,http://www.instagram.com/isabellepitrealatelier/,"28 Rue Traversi√®re, 75012 Paris, France",0.0,0,IDF,48.8474754,2.3733521
Mo Team,07 61 47 27 01,http://www.moteam.eu/,"47 Rue Pierre Charron, 75008 Paris, France",4,2,IDF,48.8690119,2.3020762
Architecte d'int√©rieur Paris XIV- Mise en sc√®ne m¬≤ - Catherine Boisdon,06 09 32 24 28,https://www.m2-scene.com/,"17 Rue d'Odessa, 75014 Paris, France",5,13,IDF,48.8420526,2.3247932
Mo///architectes,01 48 96 99 56,https://moarchitectes.com/,"24 Rue de Stalingrad, 93310 Le Pr√©-Saint-Gervais, France",5,3,IDF,48.8871861,2.4010504
LO architectes,06 08 72 61 16,https://lo-architectes.com/,"7 Rue Pouchet, 75017 Paris, France",5,18,IDF,48.8921088,2.31876
Agence MOHA,01 45 05 12 36,http://www.moha-architecture.com/,"104 Rue de Longchamp, 75116 Paris, France",4.5,6,IDF,48.8662748,2.2812437
CALK-M Architectes,01 56 58 56 00,https://calk-m.com/,"8 Bd Jourdan, 75014 Paris, France",3,2,IDF,48.819862,2.3434233
Mon Concept Habitation,09 69 32 22 99,https://www.monconcepthabitation.com/,"105 Rue La Fayette, 75010 Paris, France",4.5,214,IDF,48.8777464,2.3502734
Petovello Marie - Atelier M - Architecte sp√©cialiste en cr√®che,06 72 99 50 76,https://cargocollective.com/mariepetovello,"60 Rue des Batignolles, 75017 Paris, France",0.0,0,IDF,48.88639329999999,2.3189316
B+M Architecture,01 43 14 00 69,http://www.bplusm.fr/,"14 Rue de la Grange Bateli√®re, 75009 Paris, France",0.0,0,IDF,48.87341720000001,2.3415333
studio m | Sylvain Marceau,06 58 87 57 10,https://studio-m-paris.fr/,"Cit√© du Wauxhall, 75010 Paris, France",5,12,IDF,48.8692132,2.3627647
A+M Architecture,06 11 25 98 02,http://www.a-plus-m.com/,"45 Rue de F√©camp, 75012 Paris, France",0.0,0,IDF,48.8365432,2.4009349
Archi-HQE,07 45 22 02 14,https://www.archi-hqe.fr/,"25 Rue de Ponthieu, 75008 Paris, France",5,27,IDF,48.8706045,2.3091347
B√§N architecture - Architecte √† Paris,06 28 62 83 87,http://ban-architecture.com/,"167 Rue du Faubourg Saint-Antoine, 75011 Paris, France",4.3,15,IDF,48.8505968,2.3802907
MVMS Architectes,09 81 16 69 80,http://www.mvms-architectes.com/,"28 Rue Nicola√Ø, 75012 Paris, France",5,6,IDF,48.8363806,2.3950741
23 Ao√ªt Architecture,06 52 45 87 90,http://23aoutarchitecture.com/,"148 Rue de Grenelle, 75007 Paris, France",5,7,IDF,48.8581788,2.3107058
M'CUB architectes,02 97 61 39 20,https://www.mcub.eu/,"84 Rue Edouard Vaillant, 93100 Montreuil, France",4.5,2,IDF,48.8532137,2.4310313
Sylvie Moreau architecte - AdisA - Paris 9,06 66 82 89 62,https://sylviem75-architecte.com/,"30 Rue Pierre Semard, 75009 Paris, France",5,8,IDF,48.8787744,2.3484306
Studio Louismorgan,,http://www.studiolouismorgan.com/,"34 Rue Boursault, 75017 Paris, France",4.7,9,IDF,48.8849502,2.3204357
Xavier Lemoine Architecture d‚ÄôInt√©rieur,07 84 15 01 80,https://www.xavierlemoine.com/,"47 Rue de Prony, 75017 Paris, France",4.6,28,IDF,48.8818665,2.3048241
Mo-ah - Architecture Int√©rieure,06 85 12 60 32,https://www.mo-ah.fr/,"18 Rue L√©cluse, 75017 Paris, France",3.7,3,IDF,48.8844849,2.325373
Agence MOA architecture Paris,04 91 55 65 72,http://moa-architecture.com/,"13 Rue Eva Kotchever, 75018 Paris, France",0.0,0,IDF,48.89735109999999,2.3569021
Agence Glenn Medioni,06 65 17 67 22,http://www.glennmedioni.com/,"34 Bd de Clichy, 75018 Paris, France",4.4,28,IDF,48.8829381,2.3366423
Wilmotte & Associ√©s SAS d‚ÄôArchitecture,01 53 02 22 22,http://www.wilmotte.com/,"68 Rue du Faubourg Saint-Antoine, 75012 Paris, France",4.4,27,IDF,48.8517491,2.3737473
MAO / MOBILE ARCHITECTURAL OFFICE,09 50 49 59 83,http://mobilearchitecturaloffice.com/,"12 Rue de Valenciennes, 75010 Paris, France",2.3,6,IDF,48.8784065,2.354566
L+M ARCHITECTES,01 53 40 96 93,http://lm-architectes.eu/?page_id=2,"4 Pass. du Grand Cerf, 75002 Paris, France",0.0,0,IDF,48.86477430000001,2.3498044
AREA Studio,06 76 18 71 73,http://www.area-studio.eu/,"9 Rue Dautancourt, 75017 Paris, France",5,9,IDF,48.889354,2.3238807
Axel Schoenert architectes,01 44 55 34 80,http://www.as-architecture.com/,"20 Av. de l'Op√©ra, 75001 Paris, France",4.6,30,IDF,48.8658998,2.3346067
RencontreUnArchi,09 82 49 15 49,http://www.rencontreunarchi.com/,"34 Rue du Dragon, 75006 Paris, France",4,106,IDF,48.85292399999999,2.330188
3m¬≥_architecte,06 72 08 83 14,https://3m3-architecte.fr/,"212 Rue Saint-Maur, 75010 Paris, France",5,8,IDF,48.873284,2.3712039
mo,06 47 63 14 11,https://www.studiolehnac.com/?utm_source=google&utm_medium=wix_google_business_profile&utm_campaign=13441465352964725238,"75 Rue de Paradis, 75010 Paris, France",0.0,0,IDF,48.8758333,2.3483321
nea architects,01 42 77 92 32,https://www.nea-architects.net/,"32 Rue Saint-Antoine, 75004 Paris, France",1,2,IDF,48.8540487,2.3652233
Brillet & Moizan Architectes,07 66 37 44 90,https://www.instagram.com/brilletmoizan.architecture/,"35 Av. Jean Jaur√®s, 93310 Le Pr√©-Saint-Gervais, France",5,2,IDF,48.8821702,2.4085834
Soa architectes,01 42 62 18 11,https://www.soa-architectes.fr/,"44 Rue Amelot, 75011 Paris, France",4,8,IDF,48.8586378,2.3685387
Dessine-Moi Un Bureau | MS de Lesseux | Consultante en architecture d'interieur,06 03 44 13 12,https://www.dessinemoiunbureau.com/copie-de-accueil,"114 Bd Saint-Germain, 75006 Paris, France",5,20,IDF,48.852151,2.341218
Atelier M3 Sarl d'Architecture,01 45 05 10 18,https://www.atelier-m3.fr/,"83 Bd du Montparnasse, 75006 Paris, France",4.7,3,IDF,48.8434515,2.3258013
S√©gol√®ne Toussaint Architecte d'Int√©rieur haut de gamme - Paris,06 69 73 68 82,http://segolenetoussaint.fr/,"13 bis Rue de l'√âglise, 92200 Neuilly-sur-Seine, France",0.0,0,IDF,48.88582719999999,2.2639268
mue atelier d'architecture,,http://ateliermue.fr/,"59 Rue du Faubourg du Temple, 75010 Paris, France",0.0,0,IDF,48.8698334,2.371371
2BDM Architectes,01 42 26 76 10,http://www.2bdm.fr/,"60-62 Rue d'Hauteville, 75010 Paris, France",4.7,6,IDF,48.8747396,2.3508327
Elo√Øse Gingeyne - EGGD - Architecte d'int√©rieur - Paris,06 31 85 09 15,https://eloisegingeyne.com/,"Av. Daumesnil, 75012 Paris, France",4.9,21,IDF,48.83797,2.3996855
RM Architecte,01 77 13 68 06,http://www.rm-architecte-paris.com/,"126 Rue du Faubourg Poissonni√®re, 75010 Paris, France",4.4,29,IDF,48.879933,2.3497742
JOD ARCHITECTURE,01 45 23 49 50,https://jodarchitecture.wordpress.com/,"51 Rue de l'√âchiquier, 75010 Paris, France",2.9,44,IDF,48.87182869999999,2.3482618
Iphigenie Soldatos Architecte DPLG,01 49 95 96 84,http://www.iphigeniesoldatos-architecte.com/,"50 Rue d'Orsel, 75018 Paris, France",5,13,IDF,48.8835561,2.3414216
Anthony Fournier-Ba√Øxas Architecte Atelier Parisien,01 42 50 82 35,http://atelierparisien.com/,"15 Rue Portefoin, 75003 Paris, France",5,11,IDF,48.863748,2.3592935
Archi‚ÄôLinea ‚Äì Architecte ma√Ætre d'≈ìuvre & Architecture d‚ÄôInt√©rieur √éle-de-France,06 58 01 91 69,https://www.archilinea.fr/,"3 All. du Clos Tonnerre, 91120 Palaiseau, France",4.6,55,IDF,48.7132915,2.2601268
Bati Monde R√©novation,06 06 76 18 38,http://bati-monde.fr/,"55 Rue Armand Carrel, 93100 Montreuil, France",5,78,IDF,48.85054179999999,2.4183234
Whome - Architecte d'int√©rieur | Courtier en travaux,01 39 57 29 10,https://www.whome.fr/,"39 Rue Pierre Joseph Proudhon, 78800 Houilles, France",4.9,54,IDF,48.933773,2.1989379
Architoi : architecture & r√©novation travaux,,https://www.architoi.com/,"32 Rue Arago, 92800 Puteaux, France",4.6,41,IDF,48.88486899999999,2.2466139
Abdo JBEILY - Architecte DPLG - Ile de France - Val-d'Oise,06 18 23 39 36,http://www.archi-jbeily.com/,"5 Rue Michel Turbelin, 95110 Sannois, France",5,37,IDF,48.970592,2.2671418
ARCHITECTE DPLG EDEN-ARCHI,07 54 20 37 64,http://www.eden-archi.fr/,"210 Av. Charles de Gaulle, 91420 Morangis, France",4.9,69,IDF,48.70539249999999,2.352231
Archi'Ker - Architecte d‚Äôint√©rieur - Ma√Ætre d'≈ìuvre - Am√©nagement - Meuble sur mesure,06 74 42 65 86,http://www.archiker.fr/,"8 Rue Carnot, 91430 Igny, France",4.9,39,IDF,48.7428345,2.2267111
NOK√ú Design ‚Äì Architecte d‚Äôint√©rieur & design graphique / Travaux tout corps d'√©tat √† Clichy - Levallois - Ile-de-France,06 51 27 67 42,https://www.design-noku.com/,"25 Rue Georges Boisseau, 92110 Clichy, France",5,44,IDF,48.9039858,2.3166037
Maison Archi'Cr√©a | R√©novation et Architecture,06 28 03 19 05,https://www.maisonarchicrea.com/,"14 Jardins de la Vall√©e, 92290 Ch√¢tenay-Malabry, France",5,17,IDF,48.7643248,2.2894292
ARCHITEKTUS - Architecture d'int√©rieur et d√©coration dans les Yvelines (78) et Ile de France (75 - 92 - 95),06 03 36 39 82,https://www.architektus.fr/,"57 Av. de l'Abreuvoir, 78160 Marly-le-Roi, France",4.9,35,IDF,48.8731286,2.1014994
A1 Architecture,06 80 26 96 89,https://www.a1architecture.fr/,"37 B Quai Jean Baptiste Cl√©ment, 94140 Alfortville, France",5,47,IDF,48.79023540000001,2.4241577
Archi Renov ‚Äì Entreprise de r√©novation appartement et maison √éle-de-France,06 52 79 80 89,https://archi-renov.com/,"11 Rue de Magdebourg, 75116 Paris, France",5,5,IDF,48.8645361,2.2891986
Maison de l'architecture Ile-de-France,01 42 09 31 81,http://www.maisonarchitecture-idf.org/,"148 Rue du Faubourg Saint-Martin, 75010 Paris, France",4.4,49,IDF,48.87532520000001,2.360099
Hinov StudioÔΩúArchitecte Noisy-le-Grand,06 24 09 26 18,https://hinovstudio.com/,"2 bis Rue des Girofl√©es, 93160 Noisy-le-Grand, France",5,16,IDF,48.8470182,2.5695014
Architecte DPLG - R2studio,06 19 83 58 46,http://www.r2studio.fr/,"20 BIS Rue de Seine, 78670 M√©dan, France",4.9,35,IDF,48.9526522,1.9975788
Archi-Novation,06 03 93 03 21,http://www.archi-novation.com/,"3 BIS Rue Denfert Rochereau, 94170 Le Perreux-sur-Marne, France",5,10,IDF,48.8406381,2.5056219
"Atelier2c (C√©line CLOCHET ) : architecte d'int√©rieur & r√©novation √©nerg√©tique / maison, bureau, appartement",06 77 53 42 35,http://www.atelier2c.fr/,"Rue de la R√©sistance, 92220 Bagneux, France",5,21,IDF,48.806331,2.3155421
Sara Camus Bouanha Architecture Int√©rieure,06 21 76 61 13,https://saracamusbouanha.fr/,"15 Rue des Montiboeufs, 75020 Paris, France",5,24,IDF,48.8664298,2.4049452
Architecte d'int√©rieur / 1001 id√©es / Ile de France,06 81 44 17 17,http://www.1001ideesdedecoration.com/,"14 Rue de l'√âglise, 77390 Y√®bles, France",5,75,IDF,48.6380768,2.771515
R√©novation & Architecture - R√©novation de maison,01 69 31 37 21,https://renovation-architecture.fr/,"69 Rue de Paris, 91120 Palaiseau, France",5,3,IDF,48.7156771,2.2465141
NC Architecture,06 58 54 65 32,https://nc-architecture.com/,"10 Av. Jean Jaur√®s, 93360 Neuilly-Plaisance, France",5,25,IDF,48.8587833,2.5069017
Bati Monde Atelier Bois & M√©tal,06 06 76 18 38,http://bati-monde.fr/,"51 Rue Jacques Verniol, 95370 Montigny-l√®s-Cormeilles, France",5,8,IDF,48.9899497,2.1940413
Second Souffle - Agence de r√©novation et d'architecture d‚Äôint√©rieur,06 73 66 48 16,http://secondsouffle.co/,"29 Rue de l'Orangerie, 78000 Versailles, France",4.7,67,IDF,48.8001766,2.1234389
"Ma√Ætre d'Oeuvre, Bureau d'√©tude AD PROJET DESIGN",01 34 85 58 32,https://www.adprojetdesign.com/,"1 Rue Hippolyte M√®ge-Mouri√®s, 78120 Rambouillet, France",4.7,17,IDF,48.6224893,1.8293998
Agence Les F√©es D√©co,06 10 76 01 62,https://www.lesfeesdeco.com/,"30 Rue Sedaine, 75011 Paris, France",4.9,58,IDF,48.8562594,2.3734943
Les D√©coreuses - Architectes d'int√©rieurs Paris 12√®me,06 59 19 15 25,http://lesdecoreuses.fr/,"7T Av. de Saint-Mand√©, 75012 Paris, France",4.9,32,IDF,48.8457702,2.3966375
"Thomas Jenny, Architecture & D√©coration d‚Äôint√©rieur",06 66 50 73 90,http://www.thomasjenny.com/,"29 Rue du Dr Heulin, 75017 Paris, France",5,21,IDF,48.8906078,2.3235493
Murs & Merveilles,06 76 78 82 22,http://mursetmerveilles.fr/,"24 Rue des Bluets, 75011 Paris, France",4.7,26,IDF,48.8648684,2.3836205
Architecte d'int√©rieur Paris Mio Design,06 82 56 23 87,https://www.miodesign.fr/,"16 Rue du Faubourg Saint-Denis, 75010 Paris, France",5,11,IDF,48.8705819,2.3532677
W and You architecte d'int√©rieur et r√©novation appartement,06 61 02 58 90,https://www.wandyou.com/,"29 Bd Henri IV, 75004 Paris, France",5,7,IDF,48.852116,2.3650567
Archited - Architecte d'int√©rieur Paris,06 59 30 75 08,http://www.archited.fr/,"Rue Brochant, 75017 Paris, France",5,14,IDF,48.8898526,2.3190106
Atelier caam - Camille Verdiel - architecte d'int√©rieur Paris 20,06 95 07 72 73,http://www.ateliercaam.com/,"1 Rue Bretonneau, 75020 Paris, France",5,11,IDF,48.867408,2.4023672
R√©novation Interieur Paris - R√©novation Maison & Appartement,01 83 64 36 56,https://renovation-interieur.paris/?utm_source=google&utm_medium=organic&utm_campaign=gmb-listing,"12 Rue de l'Od√©on, 75006 Paris, France",4.8,24,IDF,48.8509273,2.3384879
Christophe Antunes - architecte d'int√©rieur,06 38 72 19 54,https://www.christopheantunes.com/,"35 Av. Junot, 75018 Paris, France",5,21,IDF,48.8889165,2.3355733
CLAAAC Architecture Int√©rieure,06 03 23 29 45,https://www.claaac.com/,"2 Rue Henri Chevreau, 75020 Paris, France",5,17,IDF,48.8690016,2.3896862
Agence Int√©rieurs | Paris | Architecte d'int√©rieur UFDI 75,06 60 73 24 01,https://agence-interieurs.fr/,"23 Rue Octave Feuillet, 75116 Paris, France",5,3,IDF,48.861748,2.2716505
VS ARCHITECTURE D'INTERIEUR,06 75 15 69 06,https://www.vsinterieur.com/,"11 Rue de Thorigny, 75003 Paris, France",4.9,14,IDF,48.8600212,2.3630731
C√âCILE KOKOCINSKI Architecte D‚Äôinterieur - Paris 18 - Architecte d'int√©rieur UFDI,07 56 86 50 40,https://cecilekokocinski.fr/,"42 Rue Eug√®ne Carri√®re, 75018 Paris, France",5,3,IDF,48.891377,2.33354
"IDEISM Architecte d'int√©rieur et d√©coration, vous accompagne dans votre projet de r√©novation",06 70 57 31 86,http://www.ideism.fr/,"7 Quai de l'Oise, 75019 Paris, France",5,10,IDF,48.8898746,2.3817463
Agence Design d'Int√©rieur,09 81 48 49 56,http://www.designdinterieur.com/,"33 Bd de Courcelles, 75008 Paris, France",4.8,19,IDF,48.8805278,2.3119897
SANTINI Architectes,06 62 56 87 85,http://www.santiniarchitectes.fr/,"42 Av. du Pr√©sident Kennedy, 75016 Paris, France",5,12,IDF,48.855149,2.2838897
Fresh Architectures,01 76 21 51 61,http://www.fresharchitectures.eu/,"64 Rue de Crim√©e, 75019 Paris, France",4.9,8,IDF,48.88130100000001,2.387626
Atelier D√©nu - Architecte,06 22 37 87 84,http://www.de-nu.com/,"11 Rue Sainte-Isaure, 75018 Paris, France",5,7,IDF,48.8935397,2.3438569
KASQ - Votre r√©novation sur mesure,06 64 26 16 61,https://kasq.fr/,"64 Ave Parmentier, 75011 Paris, France",4.8,49,IDF,48.8631039,2.3765056
STUDIO IDA,06 15 43 16 20,https://www.studioidaarchitecture.com/?utm_source=google&utm_medium=wix_google_business_profile&utm_campaign=8443883885647271751,"12 Rue d'Enghien, 75010 Paris, France",5,19,IDF,48.8719021,2.3521909
Renovation Man Paris | Travaux de r√©novation et devis travaux gratuits,09 80 80 63 23,https://www.renovationman.com/?utm_campaign=gmb-idf&utm_content=75&utm_medium=organic&utm_source=gmb,"10 Rue des Messageries, 75010 Paris, France",4.2,305,IDF,48.8763696,2.3499858
Bat & Co,01 40 26 77 56,http://batandco.com/,"118 Rue R√©aumur, 75002 Paris, France",4.8,22,IDF,48.8680105,2.3449422
Belmard B√¢timent - Renovation Appartement Paris,01 70 94 98 06,https://www.belmard-batiment.fr/,"30 Rue Belgrand, 75020 Paris, France",4.8,124,IDF,48.8644425,2.4025799
Maison Courty,06 37 10 09 63,http://maisoncourty.com/,"5 Rue Villebois Mareuil, 94300 Vincennes, France",5,25,IDF,48.846332,2.4339947
"Maison V√©rone, architecture et r√©novation d'int√©rieur",06 22 51 20 73,https://www.maisonverone.com/contacts,"23 Rue de Villiers, 92200 Neuilly-sur-Seine, France",5,5,IDF,48.8872685,2.2825637
Ami studio | Architectes,06 58 89 45 21,https://www.amistudio.fr/?utm_source=google&utm_medium=wix_google_business_profile&utm_campaign=98524000565574494,"26 Rue Borgnis Desbordes, 78000 Versailles, France",5,11,IDF,48.7934926,2.1279978
Maison Signature By K - Cabinet d'architecte - Entreprise de travaux - Boutique de d√©coration,01 75 58 87 59,https://maisonsignaturebyk.com/,"30 Rue de Paris, 78100 Saint-Germain-en-Laye, France",4.8,54,IDF,48.89562110000001,2.0927072
DV Architecte,07 81 39 98 89,http://dv-architecte.fr/,"32 Bd du Mar√©chal Joffre, 92340 Bourg-la-Reine, France",5,19,IDF,48.78507459999999,2.3161168
Paula Bianco Architecte DPLG - Architecture Construction & R√©novation,01 48 59 64 69,http://www.paulabianco.net/,"103 Rue de la Dhuys, 93100 Montreuil, France",5,7,IDF,48.8785371,2.4648767
ARCHITECTE 95 - Uniq Architecture - Ile de France - Val d'Oise,06 59 62 45 26,https://architecte-permis-de-construire.fr/,"Centre D'Affaires, 43 Av. de l'Europe, 95330 Domont, France",5,13,IDF,49.0269527,2.3442156
SVPK ARCHITECTURE - ile de France,06 16 11 02 32,http://www.svpk.fr/,"1 Av. du Ponant, 92390 Villeneuve-la-Garenne, France",5,8,IDF,48.9433583,2.3296012
La Maison Des Travaux Melun 77 ‚Äì R√©novation & Extension de Maison,01 64 41 61 78,https://melun.lamaisondestravaux.com/,"13 Av. Thiers, 77000 Melun, France",4.8,184,IDF,48.5318165,2.6561628
"ARCHITECTE D'INTERIEUR, Ingrid MARMIER sp√©cialiste optimisation & rangement de la maison",07 63 93 96 35,https://interieursuniques.com/,"38 Rue Robert Villoing, 78500 Sartrouville, France",5,42,IDF,48.9424084,2.1778578
RN Architecture,06 62 12 75 64,http://rn-architecture.fr/,"25 Vla Anatole France, 93200 Saint-Denis, France",5,33,IDF,48.91787069999999,2.3393575
TB'Home architecteurs,01 40 95 10 95,https://tb-home.fr/,"13 Av. Morane Saulnier, 78140 V√©lizy-Villacoublay, France",4.9,7,IDF,48.78299149999999,2.2113202
KIBAN ARCHITECTURE | Architecte DPLG - HMNOP - Ile de France | Architecte Paris,01 89 47 21 47,https://kiban-architecture.com/,"4 Rue Alfred Kastler, 94460 Valenton, France",5,6,IDF,48.7502305,2.4567544
architecte,07 56 86 37 08,,"architecte, 93200 Saint-Denis, France",5,22,IDF,48.931536,2.3563056
Envie d'Architecture - Conception passive,01 84 31 31 26,http://www.enviedarchitecture.com/,"42 Rue de l'Innovation, 77550 Moissy-Cramayel, France",5,7,IDF,48.639974,2.573888
Dubo√´lle Architecte | Paris - Val-de-Marne - Essonne,09 52 25 29 39,http://www.aaddarchitecte.com/?utm_source=google&utm_medium=wix_google_business_profile&utm_campaign=2388256153984781279,"16 Rue de Verdun, 94220 Charenton-le-Pont, France",4.6,35,IDF,48.824304,2.408051
ASC Architecte d'int√©rieur et travaux de r√©novation Rueil-Malmaison,06 72 75 93 68,https://agence-sandrinecalmet.fr/,"20 Rue Gustave Flaubert, 92500 Rueil-Malmaison, France",5,17,IDF,48.8692924,2.202542
Architecte Val-d'Oise | Amparo Bellver Blasco,06 27 38 28 00,https://www.abbae.fr/,"9 Rue de l'Ourcq, 95460 √âzanville, France",4.9,21,IDF,49.02637319999999,2.3634666
SERERO Architectes Dplg,01 45 08 14 31,http://www.serero.com/,"14 Rue Anatole France, 94230 Cachan, France",5,11,IDF,48.7969186,2.3235778
MAB ARCHITECTURE - ARCHITECTE,06 66 73 29 74,,"9 Rue Aline, 95130 Franconville, France",5,18,IDF,48.9887205,2.2293565
CHARNY-BRUNET ARCHITECTE,09 88 43 00 07,http://charnybrunetarchitecte.com/,"5bis Av. de Cond√©, 94100 Saint-Maur-des-Foss√©s, France",5,19,IDF,48.8118014,2.4759822
Jo√´l et Nathalie Telcideüü¢Architecte d'int√©rieur - D√©coration Paris & R√©gion Parisienne,06 10 49 22 04,https://www.creatildesign.fr/,"Rue du Pr√© Gentil, 93110 Rosny-sous-Bois, France",4.8,17,IDF,48.8710384,2.4934687
Fixia Architecte 95,09 73 56 86 93,http://www.fixia.fr/,"1 Bis Rue Gallieni, 95160 Montmorency, France",4.6,23,IDF,48.9946342,2.3242558
MYKA Architecture d'interieur,07 58 01 51 41,https://www.mykaarchitectureinterieur.fr/,"1 Av. de la Vieille France 95380, 95380 Louvres, France",5,24,IDF,49.03858109999999,2.5044666
Atelier saisons architecture,06 74 21 68 64,https://www.ateliersaisonsarchitecture.fr/,"7 Rue Andr√© Citro√´n, 92110 Clichy, France",5,11,IDF,48.9067829,2.3166249
Novarchi,06 73 61 46 43,https://novarchi.info/?utm_source=gmb,"1 Rue Paul Bert, 77420 Champs-sur-Marne, France",5,27,IDF,48.8522223,2.6051965
Gianno di Janno - Atelier d'architecture & Audit √©nerg√©tique,,http://www.giannodijanno.com/,"69 Rue du Faubourg Saint-Martin, 75010 Paris, France",5,7,IDF,48.8721129,2.3572069
Aiach Maria architecte dplg / architecte d'int√©rieur,06 14 46 06 62,https://mariaaiach.wixsite.com/monsite,"9 Rue de l'Amiral Roussin, 75015 Paris, France",5,23,IDF,48.8453921,2.2991758
C√©line Parisse Architecte Hmonp (Dplg) & Architecte d'int√©rieur - Boulogne-Billancourt,06 79 15 41 91,http://www.celineparisse.com/,"17 bis Pl. Saint-Germain des Longs Pr√©s, 92100 Boulogne-Billancourt, France",5,12,IDF,48.8275438,2.2484048
Guerrazzi Marika Architecte Dplg,06 45 04 31 10,https://www.architectinfrance.fr/,"129 Av. du G√©n√©ral Leclerc, 75014 Paris, France",4.1,9,IDF,48.8233859,2.3258979
ARCHIFACTORY architectes,06 08 89 27 15,http://www.archifactory.com/,"32 Rue Sorbier, 75020 Paris, France",4.5,8,IDF,48.8661568,2.3921
Architecte DPLG,06 64 91 46 20,,"78 Rue Saint-Louis en l'√éle, 75004 Paris, France",4.8,5,IDF,48.8526562,2.3546356
PASCAL MORY ARCHITECTE DPLG,01 42 46 00 37,http://www.pascalmory.com/,"22 Rue Vaneau, 75007 Paris, France",5,2,IDF,48.8534989,2.3191832
S+R architecte,06 58 77 97 02,https://srarchitecte.eu/,"89 Rue du Rocher, 75008 Paris, France",5,2,IDF,48.8805755,2.3170092
Julien Devos Architecte,06 77 17 95 52,https://juliendevosarchitecte.fr/,"30 All. Vivaldi, 75012 Paris, France",5,1,IDF,48.8417839,2.3907501
Benjamin DAHAN Architecte dplg,06 61 79 48 09,http://www.bdahan.com/,"8 Rue Boileau, 75016 Paris, France",5,1,IDF,48.8472277,2.2658114
architecte dplg,07 56 96 84 92,,"Rue Championnet, 75018 Paris, France",5,1,IDF,48.8956912,2.3401686
CONFIANCE TRAVAUX,06 83 77 49 94,https://confiancetravaux.fr/,"3 Rue de Gen√®ve, 69006 Lyon, France",5,110,LYON,,
Genay Fa√ßades,06 60 09 52 65,https://www.genayfacades.fr/,"12 Chem. de la Blanchisserie, 69250 Neuville-sur-Sa√¥ne, France",5,109,LYON,,
Influences,06 63 61 81 07,http://www.archi-influences.fr/,"27 Pl. Auguste Delorme, 69620 Val d'Oingt, France",5,79,LYON,,
Tessy HARMANT,06 81 34 76 16,http://www.tessyharmant.com/,"143 Av. Barth√©l√©my Buyer, 69005 Lyon, France",5,74,LYON,,
Alexandra Hilvert - D√©coratrice d'int√©rieur Lyon - Architecte d'int√©rieur Lyon,06 70 45 84 35,https://www.alexandra-hilvert.fr/,"61 Rue Pierre Corneille, 69006 Lyon, France",5,71,LYON,,
N Services,04 50 38 73 60,http://www.nservices74.com/?utm_source=gmb,"14 Rue du Bois de la Rose, 74100 Ville-la-Grand, France",5,70,LYON,,
AC Design,09 53 30 48 43,http://www.acdesign.pro/,"29 Av. des Bruy√®res, 69150 D√©cines-Charpieu, France",5,65,LYON,,
JADE Am√©nagements D'int√©rieur,06 74 40 51 09,http://jade-interieur.fr/,"78 Av. de Gen√®ve, 74000 Annecy, France",5,53,LYON,,
Thiers Ma√ßonnerie | Ma√ßon √† Thiers (63),04 73 94 10 44,http://www.thiers-maconnerie.fr/,"Zone artisanale de Matussi√®re, 31 rue du Forez, 63300 Thiers, France",5,49,LYON,,
Agence Alexandre TRIPIER | Architecte d‚ÄôInt√©rieur & Ma√Ætre d'≈íuvre | Grenoble - Rh√¥ne-Alpes,06 85 33 71 13,http://www.alexandretripier.com/,"8 Rte des Bois, 38500 Voiron, France",5,48,LYON,,
illiCO travaux,07 54 36 11 63,https://www.illico-travaux.com/agence/illico-travaux-saint-etienne-ouest-forez/?utm_campaign=gmb-gmb150107220&utm_medium=site-internet-illico-travaux0&utm_source=gmb0,"445 Rte de Bayard, 42580 La Tour-en-Jarez, France",5,48,LYON,,
Little Worker Lyon,,https://littleworker.fr/,"51 Cr de la Libert√©, 69003 Lyon, France",5,47,LYON,,
AJ BATI,06 78 12 59 56,https://aj-bati.fr/,"33 Av. Paul Painlev√©, 01500 Amb√©rieu-en-Bugey, France",5,47,LYON,,
E.G. BAT'- Extension de maisons cl√© en main,06 98 34 13 78,http://construction-maison-granger.com/,"3 Rue Laurent Mourguet, 69740 Genas, France",5,46,LYON,,
Silence-Home,04 15 45 97 91,http://www.silence-home.fr/,"55 Bis Rue de la Barge, 03300 Cusset, France",5,46,LYON,,
Avenir R√©novations Annonay,04 20 98 05 26,https://www.avenir-renovations.fr/agence/avenir-renovations-07-annonay/,"45 Rue Alphonse Daudet, 07100 Annonay, France",5,45,LYON,,
NOVATECH,06 52 77 35 13,https://www.rm-bat.fr/,"50 Chem. de Pommier, 69330 Meyzieu, France",5,44,LYON,,
Derenon Plomberie Chauffage Renovation Peinture,06 25 92 63 95,https://derenon.fr/,"2 Rue Germaine Tillon, 26100 Romans-sur-Is√®re, France",5,44,LYON,,
La Maison Des Travaux,06 65 17 70 99,https://bourg-en-bresse.lamaisondestravaux.com/,"Centre, 01000 Bourg-en-Bresse, France",5,43,LYON,,
Christina Lopez Architecture et d√©coration int√©rieure,06 29 69 01 72,http://www.cldecorationinterieure.com/,"Chem. de Gresine, 73100 Brison-Saint-Innocent, France",5,41,LYON,,
France Verte bureau d'√©tudes thermique RGE - audit √©nerg√©tique Lyon,09 86 08 79 79,https://groupefranceverte.fr/,"22 Av. Barth√©l√©my Thimonnier, 69300 Caluire-et-Cuire, France",5,40,LYON,,
DARITRAVO,06 22 59 59 70,http://daritravo.fr/,"6 Rue Gambetta, 69330 Meyzieu, France",5,40,LYON,,
CJ Inside Architecte d'int√©rieur / Villefranche Sur Sa√¥ne,06 87 03 22 86,https://www.cjinside.fr/,"206 Rue de Belleville, 69400 Villefranche-sur-Sa√¥ne, France",5,40,LYON,,
Pauline Roux dessinatrice en architecture,06 84 09 49 93,http://paulineroux.fr/,"12 Rue de la Croix des Rameaux, 43700 Saint-Germain-Laprade, France",5,40,LYON,,
Agence Julie POCINO | Architecture d‚ÄôInt√©rieur & Ma√Ætrise d'≈íuvre | Grenoble - Alpes,06 83 33 79 21,https://juliepocino.com/,"100 Rue de la Libert√©, 38180 Seyssins, France",5,39,LYON,,
Christophe Sarlandie architecte d'int√©rieur Lyon,07 64 07 90 87,https://christophesarlandie.com/,"52 Rue du Colombier, 69007 Lyon, France",5,38,LYON,,
Happy Confort,04 28 04 01 12,http://www.happyconfort.fr/?utm_source=gmb,"50 Rue Dorian, 42700 Firminy, France",5,38,LYON,,
Art√©ArmonyDesign,06 81 39 63 29,http://www.artearmonydesign.com/,"6 Rue d'Arlande, 07300 Tournon-sur-Rh√¥ne, France",5,38,LYON,,
Architecte Lyon‚é™Gigonzac Architecture,07 78 70 17 32,https://www.gigonzac-architecture.fr/,"14 Rue Perrod, 69004 Lyon, France",5,37,LYON,,
Architecte Clermont-Ferrand - Jony Coelho architecte,06 65 05 66 79,,"22 All. Alan Turing, 63000 Clermont-Ferrand, France",5,37,LYON,,
VINCENT CONSEIL ET RENOVATION,07 69 67 22 54,https://www.vincentconseilrenovation.fr/,"33 Av. des √éles, 74960 Annecy, France",5,37,LYON,,
OZ BAT,06 65 40 50 71,http://www.oz-bat.fr/,"14 bis Rue Pollet, 69250 Neuville-sur-Sa√¥ne, France",5,37,LYON,,
Archek Design et R√©novation,06 18 60 11 12,http://www.archekdesign.fr/,"18 Rue Germain Sommeiller, 74100 Annemasse, France",5,37,LYON,,
B√¢tir Positif | Audit √©nerg√©tique RGE & MAR Lyon (69),09 88 41 50 88,https://batirpositif.fr/?utm_source=google&utm_medium=organic&utm_campaign=gbp,"7 Rue des Mara√Æchers, 69120 Vaulx-en-Velin, France",5,36,LYON,,
KIBER Menuiserie & Sol,07 88 55 96 61,https://www.kebc.fr/,"67 Av. Sadi Carnot, 26000 Valence, France",5,36,LYON,,
RENOVALYON,04 37 22 17 18,https://www.renovalyon.com/,"14 Chem. de Chapoly-Laval, 69230 Saint-Genis-Laval, France",5,36,LYON,,
Maitris√©a (Ma√Ætre d'oeuvre),06 60 46 55 07,https://www.maitrisea.fr/,"58 Pl. des platanes, 38110 Saint-Clair-de-la-Tour, France",5,36,LYON,,
RECOBAT - R√©novation Etude et Conseil en B√¢timent,06 24 09 01 97,https://www.recobati.com/,"31 Av. Lef√®vre, 69120 Vaulx-en-Velin, France",5,36,LYON,,
Raphaelle d√©core pour vous - d√©coration int√©rieur - Bourgoin Jallieu,06 72 64 96 48,https://www.raphaelledecorepourvous.com/,"145 Rte de Succieu, 38300 S√©r√©zin-de-la-Tour, France",5,36,LYON,,
Arch2L - Architecte en r√©novation,06 29 34 60 74,http://ledit-architecture.fr/,"10 Rue Jubin, 69100 Villeurbanne, France",5,35,LYON,,
KILINC Architecture,04 78 04 11 02,http://kilinc-architecture.com/,"7 bis Rue Janin, 69004 Lyon, France",5,35,LYON,,
√âtamine D√©coration ‚Ä¢ Clermont-Ferrand ‚Ä¢ Delphine Lescure ‚Ä¢ Architecte d'int√©rieur et D√©coratrice ‚Ä¢ UFDI 63,06 87 06 04 83,https://www.etaminedecoration.fr/,"17A Rue Pierre Brousse, 63190 Lezoux, France",5,35,LYON,,
Architecte d'int√©rieur Annecy - Lise RASSAT,07 82 06 82 10,https://www.liserassat.com/,"124 Av. de Gen√®ve, 74000 Annecy, France",5,34,LYON,,
Interieur Personnel Xavier Tholy Ma√Ætre d'oeuvre & Coordination de travaux Lyon,06 11 74 44 10,https://www.instagram.com/interieurpersonnel/?hl=fr,"65 Av. de la R√©publique, 69370 Saint-Didier-au-Mont-d'Or, France",5,33,LYON,,
EDIKS d√©co74 - Travaux de R√©novation,04 50 58 29 98,http://ediksdeco74.fr/,"1073 Av. Georges Clemenceau, 74300 Cluses, France",5,33,LYON,,
Notes de Styles - Agence Architecte d'int√©rieur Lyon,07 49 64 75 23,https://www.notesdestyles.com/nos-agences/architecte-dinterieur-rhone/agence-notes-de-styles-lyon/,"33 Rue de la R√©publique, 69002 Lyon, France",5,32,LYON,,
B√©n√©dicte Fr√®re | Maison FRERE - Architecte d'int√©rieur & d√©coratrice Lyon,06 99 71 18 83,https://www.instagram.com/benedicte_frere/,"50 Rue Georges Gouy, 69007 Lyon, France",5,32,LYON,,
AMARENO26 - Ma√Ætre d‚Äô≈ìuvre,07 67 86 55 20,https://www.amareno26.fr/,"15 Chem. des Acacias, 26320 Saint-Marcel-l√®s-Valence, France",5,32,LYON,,
MH INTERIOR - Alison Lanceleur | Architecte d'int√©rieur Valence,06 04 45 06 85,https://mh-interior.fr/decorateur-auvergne-rhone-alpes/decorateur-architecte-interieur-valence-26/,"33 Av. de Verdun, 26000 Valence, France",5,32,LYON,,
Fort Construction R√©novation,06 11 83 93 71,https://www.fortconstructionrenovation.fr/,"33 Rue du Stade, 26600 La Roche-de-Glun, France",5,32,LYON,,
Frasil - Maitrise d'oeuvre et Architecture d'int√©rieur,06 14 12 25 74,https://frasil.fr/,"71 Rue Francis de Pressens√©, 69100 Villeurbanne, France",5,31,LYON,,
L' Atelier,04 71 74 33 67,http://www.latelier-brioude.fr/,"30 Av. de la Gare, 43100 Brioude, France",5,31,LYON,,
Architecte d'Int√©rieur Annecy - Tatiana Bisquer,06 65 44 98 44,https://www.smartconcept-design.fr/,"22 Bd Taine, 74000 Annecy, France",5,30,LYON,,
MH INTERIOR - Nolwenn & Alison | Architectes d‚Äôint√©rieur Bourgoin-Jallieu,06 69 00 03 54,https://mh-interior.fr/decorateur-auvergne-rhone-alpes/decorateur-architecte-interieur-bourgoin-jallieu-38/,"8 Rue Joseph Cugnot, 38300 Bourgoin-Jallieu, France",5,30,LYON,,
Enerdust - Bureau d'√©tudes thermique,0 801 07 07 14,https://enerdust.fr/,"15 Pl. Grenette, 73200 Albertville, France",5,30,LYON,,
Bati'lifting,06 18 74 43 86,https://www.batilifting42.com/?utm_medium=referral&utm_source=gmb&utm_campaign=lnk-gmb,"52 Rue Jean Jaur√®s, 42800 Rive-de-Gier, France",5,30,LYON,,
MIKE GROENKE INT√âRIEURS - Architecte d'int√©rieur & D√©corateur Lyon,06 17 17 27 67,https://www.mike-groenke.com/,"74 Rue Montesquieu, 69007 Lyon, France",5,29,LYON,,
La Maison Des Travaux,07 61 03 83 58,https://lyon3.lamaisondestravaux.com/,"42 Cours Dr Long, 69003 Lyon, France",5,29,LYON,,
L'Esquisse d'Aquila,06 89 47 65 18,http://www.lesquissedaquila.fr/,"97 Chem. du Canet, 38950 Saint-Martin-le-Vinoux, France",5,29,LYON,,
Chemin Amenagement,06 64 88 36 66,https://www.chemin-amenagement.com/,"119 Rte d'Heyrieux, 69800 Saint-Priest, France",5,29,LYON,,
Marie Luquet Conseil Am√©nagement et D√©coration int√©rieure Lyon et environs,06 89 95 10 88,http://www.marieldsg.com/,"16A Chem. du Moulin Carron, 69570 Dardilly, France",5,29,LYON,,
Teezy Concept Int√©rieur,06 62 78 14 14,https://www.teezy-concept-interieur.fr/,"497 Rte de Saint-Andr√©, 01120 Montluel, France",5,29,LYON,,
e-paysages,06 35 32 79 66,http://www.e-paysages.fr/,"Chem. des Bois des Fornets, 74800 La Roche-sur-Foron, France",5,29,LYON,,
MG CREA RENOV',06 23 20 07 04,https://mgcrearenov.wixsite.com/mg38,"30 Av. G√©n√©ral Leclerc, 38200 Vienne, France",5,29,LYON,,
BARYMO - Ma√Ætre d‚Äô≈ìuvre - R√©novation & Construction | Rh√¥ne-Alpes,06 33 34 43 25,https://barymo.fr/,"752 Rue Claires Fontaines, 01150 Saint-Vulbas, France",5,28,LYON,,
Architecte d'Int√©rieur Saint-√âtienneÔΩúAlexie Charvolin,06 40 33 80 93,https://www.bonheurdanslhabitat.fr/,"17 Pl. du Bicentenaire, 42100 Saint-√âtienne, France",5,28,LYON,,
Or Construction & R√©novation - Entreprise r√©novation Annecy,07 67 88 59 46,http://www.or-construction-renovation.fr/,"7 Rue de Narvik, 74000 Annecy, France",5,28,LYON,,
VI2A SARL,04 72 25 87 92,http://www.vi2a-constructions.fr/,"50 Chem. des Bruy√®res, 01360 B√©ligneux, France",5,28,LYON,,
Couleur nude - Studio de d√©coration d'int√©rieur,06 24 05 13 58,https://www.couleurnude.fr/,"299 Chem. de Bellevue, 69280 Marcy-l'√âtoile, France",5,28,LYON,,
Couvreur (69) Henri r√©novation,06 58 17 05 01,http://henri-renovation.com/,"1 Pl. Pierre-Marie Durand, 69210 L'Arbresle, France",5,28,LYON,,
Marjolaine Berthet Interior Design ‚Ä¢ Architecte d'Int√©rieur ‚Ä¢ Lyon,06 70 29 72 92,https://www.marjolaineberthet.fr/,"9 Rue de l'√âp√©e, 69003 Lyon, France",5,27,LYON,,
Symbiose R√©novation / Carole Dureau Architecte D.E,,http://www.symbioserenovation.com/,"10 Av. de la Terrasse, 69310 Oullins-Pierre-B√©nite, France",5,27,LYON,,
Volumes et Cr√©ation,06 64 74 44 39,http://www.volumesetcreation.com/,"25 Rue des Granges, 69890 La Tour-de-Salvagny, France",5,27,LYON,,
2AR Architectes,06 51 39 63 26,https://www.2ar.archi/,"332 Chem. du Montellier, 69390 Charly, France",5,26,LYON,,
ATELIER 423 - Architecte d'Int√©rieur,06 62 38 39 67,https://www.atelier423.fr/,"17 Av. de la Lib√©ration, 42400 Saint-Chamond, France",5,26,LYON,,
Anaka - r√©novation cl√© en main,04 56 22 36 77,https://atelier-anaka.fr/,"9 Rue de la Chaumi√®re, 38500 Voiron, France",5,26,LYON,,
M√©gane Estival/Architecte d'int√©rieur,06 20 10 04 05,https://estivalmegane.fr/,"80 Bd Lavoisier, 63000 Clermont-Ferrand, France",5,26,LYON,,
La Maison Des Travaux,06 60 36 40 75,https://moutiers.lamaisondestravaux.com/,"63 Av. des Thermes, 73600 Salins-Fontaine, France",5,26,LYON,,
MC Management & Construction,06 70 45 21 84,http://www.management-construction.com/,"3100 Av. des Vall√©es, 74300 Thyez, France",5,26,LYON,,
CGM Cath√©bras Architectes Associ√©s,04 77 32 04 04,https://www.cgmarchitectes.fr/,"145 Rue de la Montat, 42100 Saint-√âtienne, France",5,25,LYON,,
Karen RAF - Architecte d'int√©rieur,06 45 51 20 55,https://www.architecte-interieur-decorateur.fr/,"138 Bd de Brou, 01000 Bourg-en-Bresse, France",5,25,LYON,,
Unique Int√©rieur - Architecte d'int√©rieur,04 28 29 04 03,https://unique-interieur.com/,"73 Rue Victor Hugo, 69370 Saint-Didier-au-Mont-d'Or, France",5,25,LYON,,
"C'LID Int√©rieure Elo√Øse PORTMANN- Architecture int√©rieure, conseils et r√©novation",06 44 69 44 06,https://www.clidinterieure.fr/,"6 D50, 69690 Courzieu, France",5,25,LYON,,
Architecte - G√©raldine THOMAS,06 98 81 99 79,http://www.architectegthomas.com/,"22 Rue Anatole France, 01100 Oyonnax, France",5,25,LYON,,
D√©corateur int√©rieur et Peintre en d√©cor Haute-Savoie | Damien Jore,06 19 57 71 39,http://damienjore.fr/,"36 Chem. des Mousserons, 74380 Cranves-Sales, France",5,25,LYON,,
Dam'Nature,06 74 47 87 95,http://www.dam-nature74.fr/,"1204 Rte d'Orange, 74800 La Roche-sur-Foron, France",5,25,LYON,,
Studio Mahaut | Architecture d'int√©rieur Pays de Gex,07 83 01 78 91,http://www.studiomahaut.com/,"70 Rue Louis et Auguste Lumi√®re, 01630 Saint-Genis-Pouilly, France",5,25,LYON,,
GOUNON CONCEPTION - Ma√Ætre d'≈ìuvre,06 25 03 90 86,http://gounon-conception.fr/,"26 Av. Jean Claude Dupau, 07250 Le Pouzin, France",5,25,LYON,,
LB Home Design - Lorette brouty - Architecte d'int√©rieur Lyon,06 42 98 20 21,https://lb-home-design.com/,"190 Rue Cuvier, 69006 Lyon, France",5,24,LYON,,
Casa Studio R√©novation,07 88 85 65 42,https://www.linkedin.com/in/augustin-rocher-364624296?utm_source=share&utm_campaign=share_via&utm_content=profile&utm_medium=ios_app,"34 Quai du Dr Gailleton, 69002 Lyon, France",5,24,LYON,,
KS RENOVATION - GROUPE OBEKA,04 22 97 61 43,https://www.groupe-obeka.fr/renovation-interieure-exterieure.php?utm_medium=referral&utm_source=gmb&utm_campaign=lnk-gmb,"24 Rue Paul et Marc Barbezat, 69150 D√©cines-Charpieu, France",5,24,LYON,,
Gen√®se Architectures Claude Mariano Architecte,07 81 41 28 23,http://www.genesearchitectures.com/?utm_source=google&utm_medium=wix_google_business_profile&utm_campaign=9075890519679420195,"7 Rue de la Gare Espace ChloroFEEL, 69330 Meyzieu, France",5,23,LYON,,
KD RENOVATION INTERIEUR DECINES CHARPIEU,06 51 05 28 12,https://kdfrancerenovation.fr/,"164 Av. Jean Jaur√®s, 69150 D√©cines-Charpieu, France",5,23,LYON,,
Paysagiste pour particuliers et entreprises | Jaca Paysage,06 22 13 15 40,https://jaca-paysage.fr/,"508 Rte de Sain-Bel, 69210 L'Arbresle, France",5,23,LYON,,
ARCANNE ‚Ä¢ Architecture & D√©coration d'Int√©rieur / R√©novation,06 23 82 40 10,https://www.arcanne-designer.com/,"16 Pl. Victor Hugo, 42300 Roanne, France",5,23,LYON,,
CREHABITAT,07 55 93 48 34,https://www.amo-crehabitat.fr/,"28 Rue du Commerce, 63200 Riom, France",5,23,LYON,,
Alb Renov,07 53 56 86 27,https://www.alb-renov.com/,"40 Rue de Bruxelles, 69100 Villeurbanne, France",5,22,LYON,,
Pauline D√©co,07 70 77 73 74,https://www.paulinedeco.com/,"235 Av. Alsace Lorraine, 73000 Chamb√©ry, France",5,22,LYON,,
Atari la compagnie des artisans,06 67 74 12 19,https://www.atari-compagnie-artisans.fr/?utm_source=Google&utm_medium=My%20Business,"14 Rue du Jura, 74160 Saint-Julien-en-Genevois, France",5,22,LYON,,
"Perspectiv' Interieur /By Gwena√´lle CLAUDET, Architecture et d√©coration d'int√©rieur",06 30 39 05 28,https://perspectiv-interieur.com/,"26 Rue Colonel Dumont, 38000 Grenoble, France",5,21,LYON,,
Studio Fiona Scuitti - D√©coration d'int√©rieur & R√©novation depuis 2018,06 49 63 67 02,http://www.madecoratricedinterieur.com/,"88 Rte des Quarts, 74000 Annecy, France",5,21,LYON,,
Audrey Simon architecte d'interieur,06 88 29 69 30,http://www.audreysimon.fr/,"12 Rue de Crussol, 07130 Saint-P√©ray, France",5,21,LYON,,
Bourg Construction,06 15 55 03 00,https://www.facebook.com/122098976996003026?utm_source=gmb,"7 Rue Georges Courteline, 01000 Bourg-en-Bresse, France",5,21,LYON,,
Mon Conseil Travaux,07 68 15 67 01,https://monconseiltravaux.fr/,"22 Rue Antoine Lumi√®re, 69150 D√©cines-Charpieu, France",5,21,LYON,,
La Maison Des Travaux,06 58 63 21 53,https://vienne.lamaisondestravaux.com/,"1 Pl. Edmond Budillon, 38790 Saint-Georges-d'Esp√©ranche, France",5,21,LYON,,
MH INTERIOR - Ir√©n√© Lopez | Architecte d‚Äôint√©rieur Brian√ßon,06 24 82 19 22,https://www.mh-interior.fr/decorateur-paca/decorateur-architecte-dinterieur-briancon-05/,"Rue Chp de Mars, 05100 Brian√ßon, France",5,21,LYON,,
illiCO travaux,07 64 45 21 76,https://www.illico-travaux.com/agence/illico-travaux-saint-marcellin/?utm_campaign=gmb-gmb150107220&utm_medium=site-internet-illico-travaux0&utm_source=gmb0,"5 Pl. Lacombe Maloc, 38160 Saint-Marcellin, France",5,21,LYON,,
Cr√©ateurs d'int√©rieur Lyon,01 48 04 76 36,https://www.architectes-interieur-lyon.com/,"99 Boulevard des Belges, 69006 Lyon, France",5,20,LYON,,
NOESIS Architectes d'int√©rieur,06 26 20 89 62,http://www.archi-noesis.fr/,"20 Av. de Novel, 74000 Annecy, France",5,20,LYON,,
ELDO MAITRISE D'OEUVRE - Maitre d'≈ìuvre pour r√©novation de maisons et suivi de travaux entre VIENNE et ANNONAY,04 83 43 33 52,https://www.eldo-mo.fr/,"4 Impasse du giratoire, 38550 Clonas-sur-Var√®ze, France",5,20,LYON,,
ED BATT | Renovation 69,07 64 24 89 27,https://www.renovation-edbatt.fr/,"19 Rue des Mimosas, 69330 Meyzieu, France",5,20,LYON,,
AMA Construction et R√©novation,06 50 55 63 01,https://ama-renovation.fr/,"42 Chem. du Moulin Carron, 69130 √âcully, France",5,20,LYON,,
Rodriguez p√®re & fils couvreur zingueur √† lyon et ses alentours toiture r√©novation fuite velux 69 rh√¥ne,07 88 98 17 31,http://rodriguezperefils.fr/,"37 Chem. De Chapoly, 69540 Irigny, France",5,20,LYON,,
R&D ARCHITECTES,04 80 16 01 21,http://www.rd-archi.fr/,"557 Rte d'Annemasse, 74890 Brenthonne, France",5,20,LYON,,
ACS-construction,06 71 45 14 98,https://www.acs-construction.fr/,"2 Chem. de Vongy, 74200 Thonon-les-Bains, France",5,20,LYON,,
AC DESIGNER,06 35 31 38 75,https://www.ac-designer.com/,"15 Rue des Plaines, 63800 Cournon-d'Auvergne, France",5,20,LYON,,
ORENO - Clermont ferrand,04 43 55 11 22,https://o-reno.fr/,"3 Rue Eug√®ne R√©naux, 63800 Cournon-d'Auvergne, France",5,20,LYON,,
Avenir R√©novations Saint-Marcellin,04 20 98 19 84,https://www.avenir-renovations.fr/agence/avenir-renovations-38-saint-marcellin/,"1210 Rte de Grange Vieille, 38840 Saint-Hilaire-du-Rosier, France",5,20,LYON,,
esqui - Architecture & R√©novation,06 82 24 09 66,https://esqui.studio/,"77 Rue d'Alsace, 69100 Villeurbanne, France",5,19,LYON,,
Architecte d'int√©rieur Grenoble - Anne Exbrayat,06 71 83 41 89,http://www.annexe-archi.fr/,"11 Rue Casimir Brenier, 38000 Grenoble, France",5,19,LYON,,
"Bulle Int√©rieure | Emilie Cortes, Architecte d‚ÄôInt√©rieur | Vercors, Grenoble & Alpes",06 60 69 17 60,https://bulle-interieure.com/,"391 Rte de Charvet, 38250 Saint-Nizier-du-Moucherotte, France",5,19,LYON,,
AT-HOME G√©raldine Horvath,06 80 04 66 38,https://www.at-home.fr/,"Black Bear Studio & Coworking, 6 Rue Pierre Dupont, 38000 Grenoble, France",5,19,LYON,,
Architecte Clermont-Ferrand - ACF,06 83 71 33 19,https://www.architecteclermontferrand.com/,"19 Av. de l'Agriculture, 63000 Clermont-Ferrand, France",5,19,LYON,,
Les Compagnons du Patrimoine | Entreprise de Couverture,04 20 98 15 85,https://www.couvreur-lyon-69.fr/,"11 bis Rue du Perron, 69600 Oullins, France",5,19,LYON,,
Sc√®nes De Maison,06 74 21 43 92,https://www.scenesdemaison.fr/,"110 Av. de Marlioz, 73100 Aix-les-Bains, France",5,19,LYON,,
Architecte d'int√©rieur Lyon R√©gis Lannoy,06 86 69 78 65,https://www.regislannoy.com/,"43 Quai Saint-Vincent, 69001 Lyon, France",5,18,LYON,,
AM Cr√©ation ‚Äì Architecte d‚Äôint√©rieur & d√©coratrice √† Saint-√âtienne et vall√©e du Gier,07 66 02 36 00,https://www.a-martins.fr/,"284 Rue de la Grande Ecluse, 42740 Saint-Paul-en-Jarez, France",5,18,LYON,,
JM Architecture d'int√©rieur,06 24 50 17 06,https://www.juliemathe.com/,"8 Pl. de la R√©publique, 26000 Valence, France",5,18,LYON,,
PROJET SINGULIER - Architecte d'int√©rieur VALENCE & ROMANS S/ISERE,06 08 95 55 40,https://www.projetsingulier.com/,"140 bis Rue Traversi√®re, 26300 Alixan, France",5,18,LYON,,
Edouard de Vimal architecte,06 10 48 32 51,http://www.edevimalarchitecte.fr/,"60 Rue de la Poste, 69220 Belleville-en-Beaujolais, France",5,18,LYON,,
JOA Design - Architecte d'int√©rieur & Designer,06 37 13 36 05,http://joadesign.fr/,"5 Pl. de Belmont, 38230 Chavanoz, France",5,18,LYON,,
Agent immobilier & architecte d‚Äôint√©rieur - Anastasia Gramzina,06 06 74 87 84,https://anastasiagramzina.com/,"Sq. la Fontaine, 69410 Champagne-au-Mont-d'Or, France",5,18,LYON,,
Magellan Construction,04 37 40 25 95,https://www.magellanconstruction.fr/,"ACTIPARK DE, 662 Rue des Jonch√®res, La Richassi√®re B√¢timent K, 69730 Genay, France",5,18,LYON,,
Bureau d'√©tudes A. LOUCHET E.I.R.L.,09 82 36 76 72,http://www.louchet.com/,"170 Mnt du Ch√¢teau, 73460 Verrens-Arvey, France",5,18,LYON,,
Julien Dayet Int√©rieurs | Architecte d'int√©rieur,09 55 90 08 00,http://www.juliendayet.com/,"25 Rue Jules Verne, 42400 Saint-Chamond, France",5,18,LYON,,
MORPHO Architectes,04 73 67 08 95,http://www.morpho.archi/,"5 Rue des Volcans, 63140 Ch√¢tel-Guyon, France",5,18,LYON,,
HARRI - Design Global - Cabinet d'architecture et agencement d'int√©rieur,06 69 18 23 70,http://www.harri.fr/,"4 Quai Perrache, 69002 Lyon, France",5,17,LYON,,
2CTECH Maitre d'≈ìuvre neuf et r√©novation,06 29 10 26 43,http://www.2ctech.fr/,"5 All. du Canal, 42170 Saint-Just-Saint-Rambert, France",5,17,LYON,,
Edison R√©novation ‚Äì R√©novation int√©rieure √† Tassin-la-Demi-Lune & Lyon,06 29 33 15 32,https://edison-renovation.fr/,"Mnt de Verdun, 69160 Tassin-la-Demi-Lune, France",5,17,LYON,,
At'Home Design,06 64 57 43 31,http://athomedesign.fr/,"Route d'Orbessy, 74150 Saint-Eus√®be, France",5,17,LYON,,
La Maison Des Travaux,06 32 13 21 29,https://montbrison.lamaisondestravaux.com/,"124 Av. du Pont, 42210 Montrond-les-Bains, France",5,17,LYON,,
Nathalie Leclair - Architecture d'int√©rieur - D√©coration,06 82 25 58 41,https://nathalie-leclair.fr/,"ZA la Sagne, 43330 Saint-Ferr√©ol-d'Auroure, France",5,17,LYON,,
Sophie Jacquin architecte,06 72 79 18 22,https://sophiejacquinarchitecte.com/,"15 Rue du Confluent, 42160 Andr√©zieux-Bouth√©on, France",5,17,LYON,,
ATE Audit Energ√©tique,04 75 49 52 06,https://www.ate-auditenergetique.com/?utm_source=gmb,"Le Saint Jospeh, 87 Chem. de Ravaly, 26200 Mont√©limar, France",5,17,LYON,,
Les Architectes Urbains,04 27 82 53 06,https://www.lesarchitectesurbains.fr/,"9 Rue Sala, 69002 Lyon, France",5,16,LYON,,
Ma√´lleArchitecture // Int√©rieurs √©co-responsables √† Lyon,,https://maelle-architecture.fr/,"3 Quai Claude Bernard, 69007 Lyon, France",5,16,LYON,,
"Lisa BRONSZTEJN, Architecte d'int√©rieur",06 33 01 57 97,http://www.lisabronsztejn.com/,"17 Rue d'Ivry, 69004 Lyon, France",5,16,LYON,,
ADGA Architecte - Amandine Dal√®me Gendre,06 63 41 47 28,https://www.adgarchitecte.fr/,"11 Rue Joseph Brissaud, 69780 Mions, France",5,16,LYON,,
Mur√© Paysage,06 24 73 22 54,https://www.mure-paysage.fr/?utm_source=gmb,"17 Rue Bel-Air, 69290 Saint-Genis-les-Olli√®res, France",5,16,LYON,,
Eka√Ø Architecture,04 74 34 80 88,http://www.ekai-architecture.fr/,"32 Av. du G√©n√©ral de Gaulle, 01500 Amb√©rieu-en-Bugey, France",5,16,LYON,,
"Toba, Architecte d‚Äôint√©rieur & D√©corateur Marseille / Aix en provence",06 48 22 00 62,http://www.toba-architecture.com/,"30 Rue de la R√©publique, 13001 Marseille, France",5,23,MARSEILLE,,
Berkail - Architecte d'int√©rieur et r√©novation,07 44 91 85 63,https://berkail.co/,"8 All. L√©on Gambetta, 13001 Marseille, France",5,39,MARSEILLE,,
Favere Frederic Architecte,06 75 54 60 43,https://www.favere-frederic-architecte.fr/,"32 Av. Draio de la Mar, 13620 Carry-le-Rouet, France",5,28,MARSEILLE,,
Mon Chasseur Immo - Architecte D‚Äôint√©rieur - Marion Lanoe,06 78 14 47 08,https://www.lanoemarion.com/,"416 Chem. de la Trevaresse, 13770 Venelles, France",4.9,30,MARSEILLE,,
ESPERLUETTE STUDIO - Architecte et Architecte d'int√©rieur √† Marseille,06 33 54 39 09,https://esperluette-studio.com/,"42 Rue de Locarno, 13005 Marseille, France",5,12,MARSEILLE,,
Mathilde Roqueplan - Architecture et R√©novation,06 89 94 82 89,,"1 Rue Brochier, 13005 Marseille, France",5,2,MARSEILLE,,
Atelier d'Architecture Fade Boulade,06 88 36 63 93,http://www.atelierfadeboulade.com/,"16 Bd Vauban, 13006 Marseille, France",5,27,MARSEILLE,,
Margaux TALPAERT - Architecte d'int√©rieur et D√©coratrice √† Marseille - R√©novation et am√©nagement int√©rieur & ext√©rieur,06 65 43 21 04,https://margauxtalpaert.com/,"Pl. Jean Jaur√®s, 13001 Marseille, France",5,13,MARSEILLE,,
Marion Giovannetti Architecte,06 78 31 23 15,https://mariongiovannetti.com/,"61 Rue du Dr Fiolle, 13006 Marseille, France",5,16,MARSEILLE,,
St√©phanie DEYRIS MOUTTE Architecte DPLG - SDM ARCHITECTE,06 16 63 96 11,,"289 Rue du Luxembourg, 83500 La Seyne-sur-Mer, France",5,10,MARSEILLE,,
LUCZAK Architecte,06 30 85 30 49,https://luczak-architecte.fr/,"23 Rue des Phoc√©ens Cit√©Fab, 13002 Marseille, France",5,33,MARSEILLE,,
AD CONCEPT Architecte d'int√©rieur √† Marseille et R√©novation,04 91 35 58 45,https://www.rb-marseille.fr/,"1 Rte de la Valentine, 13011 Marseille, France",5,34,MARSEILLE,,
ARCHITOPIA - Architectes - Martigues / Marseille / C√¥te Bleue / France,04 42 44 69 84,http://www.architopia.fr/,"22 Rue L√©onard Combes, 13500 Martigues, France",4.9,30,MARSEILLE,,
DISKLOSE ARCHITECTURE ‚Äì Architecte & Ma√Ætre d‚Äô≈ìuvre Marseille - Morgane Adler,07 80 97 23 50,http://disklose-architecture.com/,"91 Boulevard Notre Dame, 13006 Marseille, France",5,7,MARSEILLE,,
R√©mi Jenta ARCHITECTE,06 26 93 04 08,https://www.trouver-mon-architecte.fr/architecte/2243-jenta-remi-architecte-remi-jenta,"Les Beugons Sud, 1b Lot. lou Canier, 13700 Marignane, France",5,11,MARSEILLE,,
√ÜDIS-Architecte d'Int√©rieur Marseille,06 83 56 88 51,https://aedis-concept.com/,"Plus de 10 ans d'activit√©, 24 Rue de l'Olivier, 13005 Marseille, France",4.8,42,MARSEILLE,,
Julien Bricout Architecte,06 14 65 33 23,https://julienbricout.com/,"8 Rue Commandant Mages, 13001 Marseille, France",5,30,MARSEILLE,,
ANO Studio - Ad√®le Boghossian Architecte HMONP,,https://www.instagram.com/anostudio_architecture/,"2 Av. du Commandant Helion de Villeneuve, 13480 Cabri√®s, France",5,4,MARSEILLE,,
R√âEL - Architecte d'int√©rieur Marseille,06 23 92 13 88,https://reel-mrs.fr/,"2 Rue Vian, 13006 Marseille, France",5,8,MARSEILLE,,
Visions Architecture,06 21 68 59 81,https://visionsarchitecture.com/,"9 Bd Eug√®ne Pelletan, 83000 Toulon, France",5,21,MARSEILLE,,
EStz Architecte,,https://www.estzarchitecte.com/,"87 Cr Lieutaud, 13006 Marseille, France",5,3,MARSEILLE,,
Agence d'architecture int√©rieure Z√®bre Bleu,07 56 91 26 25,https://www.agence-zebrebleu.fr/,"32 Av. Saint-Michel du Pigonnet, 13090 Aix-en-Provence, France",5,1,MARSEILLE,,
Alix Carrese Architecte,06 16 44 08 50,,"14 Rue Paradis, 13001 Marseille, France",5,7,MARSEILLE,,
Laure CORDIER ARCHITECTE,06 10 39 65 03,,"20 Place pisavis, 13330 P√©lissanne, France",5,21,MARSEILLE,,
Agence MRC | Architecte d'int√©rieur - Paysagiste | Marseille & Aix,04 84 45 36 17,https://www.mrc-conception.com/,"33 Bd de la Libert√©, 13001 Marseille, France",4.8,44,MARSEILLE,,
Mareigner D√©co - Architecte d'int√©rieur √† Sept√®mes-les-Vallons,06 69 11 95 20,http://mareignerdeco.fr/,"3 Avenue du Dr Edouard Sauze, 13240 Sept√®mes-les-Vallons, France",5,92,MARSEILLE,,
Justine Bertin Architecte d'int√©rieur,06 19 67 55 94,https://www.justinebertin.fr/,"49 Rue de Village, 13006 Marseille, France",5,11,MARSEILLE,,
Aper√ßus Atelier d'Architecture,06 70 81 99 48,https://atelierapercus.fr/,"2 Imp. du Clos des Oliviers, 13600 La Ciotat, France",5,2,MARSEILLE,,
Siloe architecture,06 59 96 75 68,https://www.instagram.com/siloe.architecture/,"97 Rue Jean de Bernardy, 13001 Marseille, France",5,19,MARSEILLE,,
MAJA Architecte d'Int√©rieur AIX EN PROVENCE,06 21 03 94 53,http://www.maja-architecture.fr/,"Rue Principale, 13540 Aix-en-Provence, France",5,19,MARSEILLE,,
Atelier AG - Architecte d'Int√©rieur Marseille 7e,06 21 55 96 30,https://atelierag.fr/architecte-dinterieur-a-marseille/,"Atelier AG chez Now Coworking, 19 Quai de Rive Neuve, 13007 Marseille, France",5,7,MARSEILLE,,
Beeckmans Fr√©d√©ric Architecte DPLG,06 74 04 40 34,,"22 Rue du Plateau, 13620 Carry-le-Rouet, France",5,16,MARSEILLE,,
Atelier JY | Architecte d‚Äôint√©rieur Marseille,06 67 92 50 41,https://calendly.com/agenda-atelierjy/appel-decouverte,"18A Rue Jules Moulet, 13006 Marseille, France",5,2,MARSEILLE,,
Madah - Architecte,06 42 57 33 48,http://www.madah.fr/,"35 Rue Edouard Delanglade, 13006 Marseille, France",5,22,MARSEILLE,,
Lisa Perez Architecte d'Int√©rieur - Atelier de Croze Magnan,06 29 55 73 53,https://atelier-decrozemagnan.com/atelier-marseille/,"5 Rue de la Gorge, 13007 Marseille, France",5,11,MARSEILLE,,
Atelier AG - Architecte d'Int√©rieur √† Marseille,06 21 55 96 30,https://www.atelierag.fr/,"125 Bd de Saint-Marcel, 13011 Marseille, France",4.9,56,MARSEILLE,,
Architecture Originelle - Salon de Provence,06 64 26 50 89,http://www.architecture-originelle.fr/,"139 Bis Chem. des Magatis, 13300 Salon-de-Provence, France",5,12,MARSEILLE,,
"Armonie Conception - Architecte d'int√©rieur √† Salon et Aix en provence dans les Bouches-du-Rh√¥ne, 13",04 42 88 55 16,https://armonie-conception.fr/,"243 Pl. du G√©n√©ral de Gaulle, 13300 Salon-de-Provence, France",5,6,MARSEILLE,,
NICE ROOM - R√©novation Marseille,07 73 79 41 24,,"180 Av. du Prado, 13008 Marseille, France",4.4,9,MARSEILLE,,
Nicolas Corre Architecte d'int√©rieur Toulon,06 89 56 07 69,,"39 Rue Augustin Thierry, 83000 Toulon, France",5,7,MARSEILLE,,
Pascale Birotteau Architecte,09 50 27 26 08,,"1 Imp. de la Pin√®de, 13170 Les Pennes-Mirabeau, France",4.8,8,MARSEILLE,,
Pauline Alary Architecture,06 26 18 46 10,https://www.paulinealaryarchitecture.fr/,"Chem. de Jauvade, 13114 Puyloubier, France",5,35,MARSEILLE,,
Maison Tchenio - Architectes d'int√©rieur Aix-en-Provence,06 16 79 38 33,http://www.maisontchenio.com/,"17 Av. Sainte-Victoire, 13100 Aix-en-Provence, France",5,18,MARSEILLE,,
PROJET SINGULIER - Architecte d'int√©rieur √† Marseille,06 08 95 55 40,https://www.projetsingulier.com/,"6 Av. de la Grognarde, 13011 Marseille, France",5,5,MARSEILLE,,
Meryll COHEN,06 11 79 47 89,http://www.meryllcohen.com/,"44 avenue de Saint Barnab√©, Parc de Provence, Parc Provence, 46 Av. de Saint-Barnab√©, 13012 Marseille, France",5,7,MARSEILLE,,
Ferr√© Alexandra,06 24 83 57 64,https://www.alexandraferre.fr/,"95 Rue Victor Baltard, 13290 Aix-en-Provence, France",5,21,MARSEILLE,,
Studio Miha - Make It Happen Architecture,06 50 89 47 57,https://www.studio-miha.com/,"9 Rue Clovis Hugues, 13003 Marseille, France",5,4,MARSEILLE,,
Atelier RM - Architecte PACA : Cassis -C√¥te d'Azur & Worldwide,07 82 64 66 33,http://www.atelier-r-m.com/,"21 Av. de la Viguerie, 13260 Cassis, France",5,23,MARSEILLE,,
Tarlet Architectes,06 84 82 84 37,http://www.tarletarchitectes.fr/,"13 Rue Laurent Fauchier, 13100 Aix-en-Provence, France",4.5,6,MARSEILLE,,
JULIEN COMBES ARCHITECTE TOULON - ARCHITECTURE & DESIGN,,http://jca.archi/,"3bis Rue Z√©non Pons, 83000 Toulon, France",5,6,MARSEILLE,,
[ Projets -m ] Conseils Conception Ma√Ætrise d'oeuvre pour l'Architecture,,http://projets-m.com/,"8 Rue Raymond Filippi, 13090 Aix-en-Provence, France",4.6,26,MARSEILLE,,
L√©a Perez Architecte,07 66 82 51 15,https://www.lp-architecte.com/,"320F Chem. des Fumades, 13760 Saint-Cannat, France",5,4,MARSEILLE,,
Pommier de Santi Architecte,09 83 48 29 19,https://m.facebook.com/pds.architecte/?locale2=fr_FR,"11 Pl. Pierre Puget, 83000 Toulon, France",5,3,MARSEILLE,,
Claire Foissy Architecte,06 25 94 22 46,http://clairefoissy.com/,"23 Rue des Phoc√©ens, 13002 Marseille, France",5,8,MARSEILLE,,
ATELIER ARTEMIS - Architecture l Design,06 22 09 93 66,https://www.atelierartemis.fr/,"23 Cr Pierre Puget, 13006 Marseille, France",5,21,MARSEILLE,,
Architecte - M√©lina BRASCHI,06 18 07 09 73,https://melina-braschi-architecte.com/,"1 Pl. du Carex, 83500 La Seyne-sur-Mer, France",5,9,MARSEILLE,,
Caroline DUJARDIN Architecture d‚Äôint√©rieur,06 07 28 25 59,https://www.carolinedujardinarchitecture.fr/,"8 Rue Pierre Eydin, 13260 Cassis, France",5,21,MARSEILLE,,
BRUINE architecture,,https://www.architecture.bruine.co/,"38 Rue Marx Dormoy, 13004 Marseille, France",5,5,MARSEILLE,,
OLITIM ma√Ætre d'≈ìuvre,06 51 94 95 21,https://www.olitim.fr/,"107 Av. des Logissons, 13770 Venelles, France",5,26,MARSEILLE,,
ECR83- Ma√Ætre d'≈ìuvre / Construction de maison / R√©novation immobili√®re / Extension de maison / Ma√Ætrise d‚Äô≈ìuvre - VAR,06 82 36 10 03,https://ecr83.fr/,"Lotissement LES CLAIETTES, 292 Imp. des Citronniers, 83260 La Crau, France",4.9,15,MARSEILLE,,
"Sefic Expert maitre d'≈ìuvre en R√©novation et construction de villa ,suivis de chantier sur Aix en Provence et expertise",01 88 24 83 73,https://www.sassefic.fr/,"1581 Av. Paul Jullien, 13100 Le Tholonet, France",4,10,MARSEILLE,,
Philippe Serre Architecture et Ma√ßonnerie,04 26 85 38 95,http://www.serrephilippe.fr/,"16 Rue Gutenberg, 13300 Salon-de-Provence, France",4.6,30,MARSEILLE,,
CAMO | Ma√Ætre d'≈ìuvre | Contractant g√©n√©ral | Expertise technique en b√¢timent,06 22 18 43 49,http://www.camo-var.fr/,"18 All. des Grignons, 83400 Hy√®res, France",5,11,MARSEILLE,,
LBAT R√©novation (ma√ßonnerie g√©n√©rale) Istres,06 52 58 02 25,https://www.lbat-renovation.fr/,"22 All. des Ramiers, 13800 Istres, France",4.9,19,MARSEILLE,,
"PBI : Maitre d'≈ìuvre, suivi de chantier, Permis de construire, D√©claration pr√©alable",04 94 29 02 19,https://www.pbingenierie.fr/,"554 Av. du Souvenir Fran√ßais, 83330 Le Beausset, France",5,1,MARSEILLE,,
illiCO travaux,04 42 39 73 43,https://www.illico-travaux.com/agence/illico-travaux-aix-en-provence/?utm_campaign=gmb-gmb150107220&utm_medium=site-internet-illico-travaux0&utm_source=gmb0,"4 Cr Marcel Bremond, 13290 Aix-en-Provence, France",4.9,104,MARSEILLE,,
GAMOE,06 71 73 89 85,https://www.gamoe.fr/,"1175 Rte d'Avignon, 13090 Aix-en-Provence, France",5,8,MARSEILLE,,
SB HOME (Maitrise d‚Äôoeuvre/R√©novation/Construction),04 42 12 36 05,http://www.sb-home.fr/,"315 mont√©e, Chem. d'Eguilles, 13510 √âguilles, France",4.5,22,MARSEILLE,,
MJ R√âNOVATION,07 60 55 32 44,https://www.mj-renovation83.com/,"20a Rue C√©zanne, 83000 Toulon, France",5,22,MARSEILLE,,
Avenir R√©novations 83 Toulon,04 81 68 28 94,https://www.avenir-renovations.fr/agence/avenir-renovations-83-toulon/,"180 Trav. Richard, 83200 Toulon, France",4,24,MARSEILLE,,
Ma√Ætris√©nergies - Bureau d'√©tudes - Ma√Ætre d'≈ìuvre - MonAccompagnateurR√©nov',04 90 92 39 84,http://www.maitrisenergies.com/,"7 Chem. de l'Oratoire, 13160 Ch√¢teaurenard, France",4.9,31,MARSEILLE,,
INDEX CONSTRUCTION Ma√Ætre d'oeuvre en maison individuelle,06 50 85 88 12,,"5 bis Chem. de la Baume, 13740 Le Rove, France",4.8,22,MARSEILLE,,
Efficience Habitation Maitre d'oeuvre,06 50 42 12 60,https://www.efficiencehabitation.fr/,"17 Rue Jaum√©, 13220 Ch√¢teauneuf-les-Martigues, France",5,2,MARSEILLE,,
illiCO travaux,04 42 39 73 43,https://www.illico-travaux.com/agence/illico-travaux-pennes-mirabeau/?utm_campaign=gmb-gmb150107220&utm_medium=site-internet-illico-travaux0&utm_source=gmb0,"6 Chem. de la Pourranque, 13170 Les Pennes-Mirabeau, France",5,29,MARSEILLE,,
SAS KRAFT Ma√Ætre d'≈ìuvre Construction R√©novation PACA,04 94 20 11 73,https://betkraft.fr/,"1051 Bd Louis Bernard, 83250 La Londe-les-Maures, France",5,2,MARSEILLE,,
Progineer,07 83 76 21 56,https://progineer.fr/,"565 Av. du Prado, 13008 Marseille, France",5,2,MARSEILLE,,
WAK,06 36 38 96 76,https://www.wak-moe.fr/,"28 Rue Jean Roque, 13006 Marseille, France",5,12,MARSEILLE,,
Innotravaux - Entreprise de r√©novation,06 65 09 69 40,http://www.innotravaux.com/,"37 Rue Saint-S√©bastien, 13006 Marseille, France",5,19,MARSEILLE,,
La Maison Des Travaux,06 46 19 04 87,https://salon-de-provence.lamaisondestravaux.com/,"Centre, 13300 Salon-de-Provence, France",4.9,26,MARSEILLE,,
R.simone Construction,04 91 28 31 53,http://www.rsimoneconstruction.com/,"12 Rue Edouard Mosse, 13013 Marseille, France",4.8,25,MARSEILLE,,
Edifice Project,06 10 59 73 92,https://www.edifice-project.fr/,"3 Rue Henri et Antoine Maurras, 13016 Marseille, France",5,89,MARSEILLE,,
B√¢timent Construction R√©novation Etude,07 81 34 45 48,https://www.welinkbuilders.fr/constructeur-maison-individuelle/maitre-d-oeuvre/13700-marignane-france/batiment-construction-renovation-etude-440,"Av. de Logos, 13700 Marignane, France",,0,MARSEILLE,,
"La Maison Des Travaux : R√©novation, Extension, Salle de bain",04 94 29 02 19,https://sanary-sur-mer.lamaisondestravaux.com/,"554 Av. du Souvenir Fran√ßais, 83330 Le Beausset, France",5,21,MARSEILLE,,
COGEBAT,04 12 02 22 22,http://www.cogebat.pro/,"1040 Av. Jean Perrin, 13290 Aix-en-Provence, France",4.8,16,MARSEILLE,,
J-C Cordiez Architecte Expert-b√¢timent,04 42 68 00 01,http://cordiez-architecte.expert/,"25 Chem. des Platanes, 13100 Aix-en-Provence, France",4.6,47,MARSEILLE,,
Avenir R√©novations Marseille 02,04 81 68 19 96,https://www.avenir-renovations.fr/agence/avenir-renovations-13-marseille-2e-arrondissement/,"171 B, Chem. de la Madrague-Ville, 13002 Marseille, France",4.9,20,MARSEILLE,,
Daville Solutions B√¢timent : Construction/ R√©novation/ Ma√Ætre d‚Äô≈ìuvre / Expert en b√¢timent/ Architecture,06 36 95 37 75,http://daville.fr/,"1138 Bd Jean Moulin, 83700 Saint-Rapha√´l, France",5,25,MARSEILLE,,
Becor Ing√©nierie Construction,04 42 03 03 04,,"18 bis Av. de Verdun, 13400 Aubagne, France",5,2,MARSEILLE,,
Maisons Concept,06 01 25 33 22,https://www.maisonsconcept.fr/,"13 Trav. des Alvergnes, 13013 Marseille, France",5,12,MARSEILLE,,
SCR-CONCEPT : Maitre d'oeuvre Montpellier,06 61 96 23 13,https://scr-concept.fr/,"24 Av. Monteroni d'Arbia, 34920 Le Cr√®s, France",5,11,MARSEILLE,,
PROJET BAT - Julien Blanc - Maitre d'oeuvre,06 09 76 28 85,https://www.bati-projet-sud.fr/,"Rue de la Reine Jeanne, 04100 Manosque, France",5,2,MARSEILLE,,
ArchiDesign & MOE,06 44 85 81 02,https://archidesigns.fr/,"64 Av. d'Haifa, 13008 Marseille, France",4.9,29,MARSEILLE,,
Atelier M Architecte,06 75 22 41 53,https://atelier-m.fr/,"413 Cr de la R√©publique, 84120 Pertuis, France",4.6,11,MARSEILLE,,
CM Architectes - Daill√© - Quessada - Ruini,04 42 08 37 47,https://www.atelier-cmarchitectes.fr/,"267 Chem. du Puits de Brunet, 13600 La Ciotat, France",5,30,MARSEILLE,,
Nathalie GUERRI Architecte d'int√©rieur,06 85 12 86 36,https://www.nathalieguerriarchi.fr/,"1808 Av. Guillaume Dulac, 13600 La Ciotat, France",4.9,16,MARSEILLE,,
Architect-designed VILLA Sleeps 6/7. 150 m from beaches,,,"83150 Bandol, France",,0,MARSEILLE,,
hept'Arts Architecture,09 72 33 10 98,https://www.heptarts-architecture.com/,"38 Rue Virgile Marron, 13005 Marseille, France",5,46,MARSEILLE,,
Atelier Spadaro - Architecte d'int√©rieur | Marseille,06 11 55 15 42,https://www.atelierspadaro.com/,"Endoume, 13007 Marseille, France",5,10,MARSEILLE,,
Notes de Styles - Architecte d'int√©rieur et d√©corateur Marseille,06 11 34 75 37,https://www.notesdestyles.com/nos-agences/architecte-dinterieur-bouches-du-rhone/agence-notes-de-styles-marseille/,"96 Rue Paradis, 13006 Marseille, France",4.9,66,MARSEILLE,,
Cr√©ateurs d'int√©rieur Marseille,,https://www.architectes-interieur-marseille.com/,"23 Rue des Phoc√©ens, 13002 Marseille, France",4.6,11,MARSEILLE,,
"Marilyn, D√©coratrice et architecte d‚Äôint√©rieur √† Marseille ‚Äì Projet d√©co cl√© en main.",06 98 83 16 37,https://www.monconseillerdecorateur.fr/,"51 Av. Roland Garros, 13009 Marseille, France",4.6,50,MARSEILLE,,
Patrice Pane Architecture Int√©rieure,06 29 53 56 07,http://www.patricepane.com/,"6 Av. de la Corse, 13007 Marseille, France",5,6,MARSEILLE,,
Studio Molow - Architecte d'int√©rieur - D√©coratrice Marseille,07 60 49 49 58,http://www.studiomolow.com/,"3 Rue Langeron, 13006 Marseille, France",4.9,17,MARSEILLE,,
Meditera Studio - Architecte d'int√©rieur Marseille,06 59 63 06 49,,"221 Rue d'Endoume, 13007 Marseille, France",5,6,MARSEILLE,,
ARCHISA - Architecte d'int√©rieur sur Marseille,07 64 84 41 67,https://www.archisa.fr/,"1 Rue Antoine Pons, 13004 Marseille, France",4.6,21,MARSEILLE,,
VR Architecte d'int√©rieur Marseille,06 27 42 47 19,http://vrarchitectedinterieur.fr/,"103 Av. Fr√©d√©ric Mistral, 13380 Plan-de-Cuques, France",5,9,MARSEILLE,,
J√©r√©my Azzaro Architecte,06 69 02 33 18,http://www.azzaroarchitecte.fr/,"51 Bd Camille Flammarion, 13001 Marseille, France",4.6,15,MARSEILLE,,
Clara ORSAT - Architecture int√©rieure & D√©coration,06 33 79 34 53,http://www.claraorsat.fr/,"12 All. du Vert Parc, 13009 Marseille, France",4.9,13,MARSEILLE,,
Atelier d'Architecture ARCHI¬≤ - Jimmy RICHARD architecte d.p.l.g.,04 91 93 55 53,,"148 Traverse de la Martine, Parc Tertiaire de la Verrerie, 13011 Marseille, France",5,3,MARSEILLE,,
T3 Architecture,09 53 82 79 83,https://t3architecture.fr/,"238 Rue Paradis, 13006 Marseille, France",5,4,MARSEILLE,,
Terrasse Paradis - Concepteur d'ext√©rieur unique,06 76 99 82 06,https://www.terrasse-paradis.com/,"35 Rue Edouard Delanglade, 13006 Marseille, France",4.9,29,MARSEILLE,,
B√†ti-B√†ti Architecture,06 68 62 71 10,https://www.batibati-architecture.com/,"22 Bd de l'Ind√©pendance, 13012 Marseille, France",5,8,MARSEILLE,,
AJ architecture - Anna Johansen,06 50 79 52 11,http://aj-architecture.fr/,"22 Rue Marx Dormoy, 13004 Marseille, France",5,4,MARSEILLE,,
Lucio DI MARTINO Architecte,04 91 82 19 59,http://www.di-martino.fr/,"11 Rue Borde, 13008 Marseille, France",4.4,7,MARSEILLE,,
ADesign Audrey Demat Architecte d'int√©rieur,07 81 35 82 59,http://ad-design-archi.fr/,"121 Boulevard Paul Claudel, R√©s le Parc Fleuri, 13009 Marseille, France",4.9,12,MARSEILLE,,
331 Corniche Architectes,04 96 20 31 10,http://www.331-corniche-architectes.com/,"331 Cor Pr√©sident John Fitzgerald Kennedy, 13007 Marseille, France",4.5,10,MARSEILLE,,
WAD - WE ARE DESIGN | ARCHITECTE D'INT√âRIEUR,,,"5 Rue de la Prison, 13002 Marseille, France",5,20,MARSEILLE,,
LA PROVEN√áALE DE RENOVATION,07 71 22 91 21,http://www.laprovencalederenovation.com/,"9 Bd Aguillon, 13009 Marseille, France",5,62,MARSEILLE,,
ISOEDRE ARCHITECTURE,04 86 25 79 09,https://www.agence-fa.archi/,"359 Bd Mireille Lauze, 13011 Marseille, France",3.9,7,MARSEILLE,,
Marien Gaillard Architecture,07 82 57 73 73,http://mariengaillard.com/,"35 Rue des 3 Fr√®res Barth√©l√©my, 13006 Marseille, France",5,7,MARSEILLE,,
LArchitecte - coiffeur,,https://barberlarchitecte.com/rdv-en-ligne,"16 Pl. Pelabon, 13013 Marseille, France",5,307,MARSEILLE,,
Pascal Camliti Architecte,06 61 53 65 75,https://www.architecte-paca.com/,"68 Av. de Saint-Julien, 13012 Marseille, France",4.6,19,MARSEILLE,,
ARCHITECTE HORIZON,06 61 85 17 67,https://marinecaro.com/,"40 Blvd Fr√©d√©ric Mistral, 30400 Villeneuve-l√®s-Avignon, France",5,67,MARSEILLE,,
Marine Caro Architecte,06 61 85 17 67,http://marinecaro.com/,"7 Imp. Guillaume Ernest Gr√®ve, 84000 Avignon, France",5,69,MARSEILLE,,
Agence d'Architecture - ARCHITEK,06 79 49 41 91,,"3735 Rte d'Eguilles, 13090 Aix-en-Provence, France",4.9,37,MARSEILLE,,
Syya-architectes,,http://syya-architectes.site/,"35 Rue des 3 Fr√®res Barth√©l√©my, 13006 Marseille, France",5,1,MARSEILLE,,
Architecte d'int√©rieur ENS≈å DESIGN,06 30 61 85 45,https://ensodesign.fr/,"Rue Chabrier, 13100 Aix-en-Provence, France",5,4,MARSEILLE,,
Atelier Architecture Croisette : Cabinet Architecte Mougins,04 82 29 22 19,https://atelierarchitecturecroisette.fr/,"1870 Rte de la Roquette, 06250 Mougins, France",5,7,MARSEILLE,,
"MoGa architecture et urbanisme, architecte Luberon",06 20 77 70 00,http://mogaarchitecture.fr/,"117 Rue Jacquard, 84120 Pertuis, France",5,13,MARSEILLE,,
INSPIRATIONS D'INTERIEURS Architecture Maitrise d'≈ìuvre & D√©coration en Provence,04 90 08 93 51,http://www.inspirationsinterieurs.com/,"153 Rue Sainte-Claire, 84120 Pertuis, France",5,20,MARSEILLE,,
Laure Galippe _ STUDIO GALA _ Architecture d'interieur & D√©coration,06 11 92 07 14,http://www.studiogala.fr/,"1620 Rte des Milles, 13510 √âguilles, France",5,3,MARSEILLE,,
Architecture.20 - Architecte Permis de Construire & R√©novation,06 58 19 30 51,https://architecture20.com/,"219 Imp. des Figuiers, 83520 Roquebrune-sur-Argens, France",5,25,MARSEILLE,,
MR DESIGN - Maryline Sanderson - Architecte d'Int√©rieur,06 11 55 77 26,http://mrdesign.fr/,"44 Imp. du Paradis, 13100 Aix-en-Provence, France",5,21,MARSEILLE,,
ACK Architectes,07 60 96 73 20,https://www.ackarchitectes.fr/,"37 Av. Fortun√© Ferrini, 13090 Aix-en-Provence, France",5,2,MARSEILLE,,
A. Van Der Camp Architecte DPLG,04 94 74 07 76,https://www.architectes.org/architectes-pour-tous/arnaud-van-der-camp-architecte-dplg-eurl,"276 Rue de Gu√©rin, 83140 Six-Fours-les-Plages, France",5,23,MARSEILLE,,
Orso Architectes,09 55 93 42 94,https://www.orso-architectes.com/,"L'ATELIER, 28 Bd Fran√ßois et Emile Zola, 13100 Aix-en-Provence, France",5,8,MARSEILLE,,
SOCCA Architecte,06 76 05 38 70,,"774 Av. Mar√©chal de Lattre de Tassigny, 83140 Six-Fours-les-Plages, France",5,10,MARSEILLE,,
Harout OHANIAN | Architecte √† Aix-en-Provence,06 50 46 37 81,https://www.architecte-aix-avignon.fr/,"Domaine de la Constance, 535 Rue de Valcros, 13090 Aix-en-Provence, France",4.8,17,MARSEILLE,,
Agence Ingrid Coadic ‚Ä¢ Architecture Int√©rieure et D√©coration ‚Ä¢ C√¥te Bleue - Aix-en-Provence,06 10 39 76 70,https://agence.ingridcoadic.fr/,"26 Av. de la C√¥te Bleue, 13960 Sausset-les-Pins, France",5,47,MARSEILLE,,
VAST ARCHITECTURE,06 74 98 21 10,https://www.vast-architecture.com/,"5 Rue d'Arcole, 13006 Marseille, France",5,1,MARSEILLE,,
MILEN√Ä ARCHITECTURE,06 26 69 20 16,,"55 Bd Rougier, 13004 Marseille, France",5,12,MARSEILLE,,
Terriblement D√©co - agence d'architecture et de d√©coration d'int√©rieur,06 03 58 11 17,https://www.terriblement-deco.fr/,"230 Imp. des Chardons, 13860 Peyrolles-en-Provence, France",5,10,MARSEILLE,,
ACDC Architecture,04 94 78 23 88,https://www.acdcarchitecture.com/?utm_source=gmb,"131 Av. de la Maximinoise 1er etage, 83470 Saint-Maximin-la-Sainte-Baume, France",4.8,50,MARSEILLE,,
Tifany Delgrange Architectures,06 17 50 36 73,http://www.tifanydelgrange-architectures.fr/,"311 Chem. Noir, 13100 Aix-en-Provence, France",5,8,MARSEILLE,,
ASA Architectes et Associ√©s,04 42 07 41 68,https://www.architectes-asa.fr/,"1 Av. de l'Homme √Ä la Fen√™tre, 13220 Ch√¢teauneuf-les-Martigues, France",4.4,20,MARSEILLE,,
Atelier d‚ÄôArchitecture AA,06 24 75 64 94,https://www.pujol-archi.com/,"A Les lauriers, 195 Av. des Siffleuses, 13090 Aix-en-Provence, France",5,4,MARSEILLE,,
TERRE D'ARCHITECTE,04 90 26 68 60,https://terre-architecte.com/fr/,"ESPACE 3 R, 155 Rte de Carpentras BP 30123, 84800 L'Isle-sur-la-Sorgue, France",5,22,MARSEILLE,,
Architecture & R√©novation,06 17 07 29 31,https://www.architecture-renovation.fr/,"231 Rue Malbec, 33800 Bordeaux, France",5,22,BORDEAUX,,
"Atelier Ose Architecture - Architecte √† Bordeaux, Gironde",07 75 66 85 83,https://www.atelier-ose.eu/,"106 Rue du Tondu, 33000 Bordeaux, France",5,16,BORDEAUX,,
Erh√© Architecture,09 83 98 55 94,https://www.erhe-architecture.com/,"187 Cr de la Marne, 33800 Bordeaux, France",5,51,BORDEAUX,,
Swing Architectes Travaux & R√©novation,06 95 60 60 33,https://swingarchi.fr/renovation/renovation-maison/bordeaux/?utm_source=google&utm_medium=gbp,"23 Cr Louis Fargue, 33300 Bordeaux, France",5,17,BORDEAUX,,
Studio Jenna Harris | Architecte Bordeaux,06 19 29 10 98,,"118 Rue de B√®gles, 33800 Bordeaux, France",5,4,BORDEAUX,,
CR√àME - Agence d'architecture d'int√©rieur,06 61 14 58 81,http://www.creme-studio.fr/,"39 Cr de la Martinique, 33300 Bordeaux, France",5,34,BORDEAUX,,
B√î M. ARCHITECTE D'INTERIEUR BORDEAUX,06 51 18 38 81,http://www.bo-m.fr/,"49 Rue Ferbeyre, 33200 Bordeaux, France",5,29,BORDEAUX,,
Architecte d'int√©rieur Bordeaux - Nuances & Perspectives,05 56 24 31 54,https://www.nuancesetperspectives.com/,"275 Av. d'Ar√®s, 33000 Bordeaux, France",5,20,BORDEAUX,,
"Testard Architecte | R√©novation, Sur√©l√©vation, Extension & construction neuve Bordeaux",06 38 31 58 36,https://testard-architecte.fr/,"Rue Jules Michelet, 33200 Bordeaux, France",5,6,BORDEAUX,,
Studio tomette | Architecte,06 68 01 95 00,https://www.instagram.com/studiotomette/,"10 Rue Maurice, 33300 Bordeaux, France",5,16,BORDEAUX,,
Architecte d'Interieur Bordeaux : Carole Heinrich Architecte d'Interieur √† Bordeaux Gironde,06 43 12 39 45,https://caroleheinrich.com/,"9 Rue des Orangers, 33200 Bordeaux, France",5,12,BORDEAUX,,
"AUTOMNE DESIGN | Architecte d'int√©rieur, Ma√Ætre d'Oeuvre et D√©coration √† Bordeaux",07 63 58 61 76,http://www.automne-design.com/,"Rue de Saint- Gen√®s, 33000 Bordeaux, France",5,17,BORDEAUX,,
Hom(m)e Design Architecture,06 82 27 88 12,http://www.hommedesign.fr/,"6 Rue Montmejean, 33100 Bordeaux, France",5,4,BORDEAUX,,
Agence Soul Sens - Architecte d'int√©rieur,06 71 60 11 18,http://www.soulsens.com/,"9 Rue Mar√©chal Gallieni, 33200 Bordeaux, France",5,35,BORDEAUX,,
ATELIER LESPAGNE -ARCHITECTE-,06 98 28 29 88,https://www.atelierlespagne.com/,"2 Rue Abadie, 33130 B√®gles, France",5,12,BORDEAUX,,
"Architecte d'int√©rieur et d√©coratrice - Marion COETTE , Bordeaux",06 87 42 13 27,http://marioncoette.com/,"38 Rte de Toulouse, 33800 Bordeaux, France",5,27,BORDEAUX,,
Architecte d'int√©rieur Almo Studio,06 45 48 43 04,https://www.almostudio.com/,"5 Rue de Moulis, 33000 Bordeaux, France",5,20,BORDEAUX,,
Eraiki.studio - Architectes √† Bordeaux,06 12 98 23 18,https://eraikistudio.com/,"21 Rue Saumenude, 33800 Bordeaux, France",5,5,BORDEAUX,,
Ornella Pasquier | Architecte d'int√©rieur,06 82 42 96 83,https://www.op-architecte.com/,"7 Bd Antoine Gautier, 33000 Bordeaux, France",5,12,BORDEAUX,,
Archidot - Architecte - Malorie Bertolini,06 24 34 25 48,https://archidot.fr/,"11 Rue Calvimont, 33100 Bordeaux, France",5,11,BORDEAUX,,
Studio 3i : Architecte d'int√©rieur & D√©coratrice √† Bordeaux,06 30 32 59 76,http://studio3i.fr/,"Rue de Cond√©, 33000 Bordeaux, France",5,17,BORDEAUX,,
ATELIER PLAZA ARCHITECTURE,07 83 65 34 65,,"49 Cr Georges Clemenceau, 33000 Bordeaux, France",5,12,BORDEAUX,,
PEG ARCHITECTE,06 63 95 00 36,https://www.peg-architecte.com/,"110 Rue de Brach, 33000 Bordeaux, France",5,5,BORDEAUX,,
"La maison M, Architecte d'int√©rieur engag√© √† Bordeaux",06 99 79 81 54,https://www.lamaisonm.com/,"9 Rue Condorcet, 33300 Bordeaux, France",5,8,BORDEAUX,,
Asn√© Architecture,06 84 85 99 05,https://www.asne-architecture.com/,"43 Rue du Palais Gallien, 33000 Bordeaux, France",5,4,BORDEAUX,,
Notes de Styles - Agence Architecte d'int√©rieur Bordeaux,06 25 73 36 58,https://www.notesdestyles.com/nos-agences/architecte-dinterieur-en-gironde/architecte-dinterieur-bordeaux/,"9 Rue de Cond√©, 33000 Bordeaux, France",5,46,BORDEAUX,,
Architecte d'int√©rieur - Vaissi√© Studio,06 95 88 46 04,https://www.vaissiestudio.com/,"70 Cr d'Alsace-et-Lorraine, 33000 Bordeaux, France",5,8,BORDEAUX,,
"Saj√∫ma, atelier d'architecture et de recherche",06 60 88 42 83,https://www.ateliersajuma.com/,"9 Cr du Chapeau-Rouge, 33000 Bordeaux, France",5,3,BORDEAUX,,
felaa architectes,05 57 88 45 41,http://www.felaa.fr/,"44 Rue Chevalier, 33000 Bordeaux, France",5,11,BORDEAUX,,
Cr√©ateurs d'int√©rieur Bordeaux,,https://www.architecte-interieur-bordeaux.com/,"Avenue de l'hippodrome, All√©e de Technoclub, Bat B, 33170 Gradignan, France",5,4,BORDEAUX,,
Anne-Sylvie GERAT I Architecte d'int√©rieur I Plan 2D 3D I D√©coratrice d'int√©rieur I Bordeaux I Paris I Soulac-sur-mer I,06 20 42 00 43,https://asgerat.fr/,"9 Rue de Cond√©, 33000 Bordeaux, France",5,54,BORDEAUX,,
OCMA - Olivier Celsi Maison d'Architecture,07 60 23 32 06,http://oliviercelsi.com/,"95 Rue du Palais Gallien, 33000 Bordeaux, France",5,2,BORDEAUX,,
[ Aspa√Ø ] Architectes,06 70 81 68 30,https://aspai-architectes.com/,"62 Rue Goya, 33000 Bordeaux, France",5,1,BORDEAUX,,
Atelier Revoir I Architectes,06 25 42 67 48,https://atelier-revoir.fr/,"16 Rue Maucoudinat, 33000 Bordeaux, France",5,6,BORDEAUX,,
Sylvaine Guillou Architecte d'int√©rieur,06 82 31 41 96,https://www.sylvaine-guillou.com/,"Sq. Jean de la Fontaine, 33110 Le Bouscat, France",5,15,BORDEAUX,,
Romain CAILLET Architecte - Mana Architecture,06 68 85 61 12,https://www.cailletromain-architecte.com/,"27 Rue Maxime Lalanne, 33800 Bordeaux, France",5,7,BORDEAUX,,
Architecte d'int√©rieur Bordeaux & france enti√®re | Alexia Bequin,06 30 64 92 61,https://www.alexiabequin.com/,"Rue Fondaud√®ge, 33000 Bordeaux, France",5,6,BORDEAUX,,
Studio d'Architecture Theresa Brunvoll-Cochet,05 56 38 81 32,https://www.theresabrunvollcochet.fr/,"43 Rue Fondaud√®ge, 33000 Bordeaux, France",5,1,BORDEAUX,,
Ugo Le Corre Architecte,07 60 33 64 28,https://ulca.fr/,"24 Rue Ferbos, 33800 Bordeaux, France",5,6,BORDEAUX,,
Sylvie Bourg√®s HB architecture,06 32 15 00 09,https://www.hb-architecture.fr/fr/,"89 Av. Lucien Lerousseau, 33130 B√®gles, France",5,21,BORDEAUX,,
Sauger Architectes,06 08 40 02 85,http://www.sauger-architectes.com/,"87 Quai des Queyries, 33100 Bordeaux, France",5,7,BORDEAUX,,
BENOIT PAULEAU MAITRE D'OEUVRE,07 83 43 19 49,https://www.bpauleau.fr/,"99 bis Cr Victor Hugo, 33130 B√®gles, France",5,23,BORDEAUX,,
Morph√©e - Ma√Ætre d'oeuvre √† Bordeaux et sur le Bassin d'Arcachon I R√©novation I Extension I Sur√©l√©vation,09 70 66 98 02,https://www.morphee.fr/,"86bis Rue Arago, 33300 Bordeaux, France",5,20,BORDEAUX,,
Popcorn Ma√Ætrise d'≈ìuvre,06 59 65 32 40,https://www.popcornmaitrisedoeuvre.com/,"65 Rue Mathieu, 33000 Bordeaux, France",5,5,BORDEAUX,,
Ma√Ætre d'oeuvre 33: Terit Ivan,06 81 48 84 07,https://ivanteritmoe-17.webself.net/,"2 ter Chem. de Cr√©on, 33270 Bouliac, France",5,2,BORDEAUX,,
MENZEL ‚Ä¢ Maitre d'oeuvre,05 56 64 40 30,http://www.menzel-maitredoeuvre.fr/,"Za La Rivi√®re, Rue Denis Papin, 33850 L√©ognan, France",5,30,BORDEAUX,,
Ma√Ætre d'≈ìuvre - Jean-Fran√ßois Berry,06 83 58 85 03,https://www.etsberry.com/,"374D Av. du Mar√©chal de Lattre de Tassigny, 33600 Pessac, France",5,2,BORDEAUX,,
T&MO - Travaux et Maitrise d'Oeuvre,05 57 35 96 05,,"70 Av. du Pr√©sident Robert Schuman, 33110 Le Bouscat, France",5,7,BORDEAUX,,
Majure - Ma√Ætre d'Oeuvre,05 35 54 18 63,http://www.majure.fr/,"91 Av. Pasteur, 33600 Pessac, France",5,6,BORDEAUX,,
ARKELAB,06 07 88 99 63,https://www.arkelab.fr/,"10 Rue Charles Puyo, 33300 Bordeaux, France",5,6,BORDEAUX,,
Pilotage Construction Renovation EURL,05 56 06 67 72,https://www.maitre-oeuvre-bordeaux.fr/,"10 Av. des Griffons, 33560 Carbon-Blanc, France",5,1,BORDEAUX,,
Atelier Mor√©ha,,http://moreha.fr/,"30 Rue Joseph Bonnet, 33100 Bordeaux, France",5,3,BORDEAUX,,
Ma R√©novation Travaux | Entreprise g√©n√©rale √† Bordeaux,06 35 50 81 33,https://marenovationtravaux.fr/,"38 Rue Roullet, 33800 Bordeaux, France",5,68,BORDEAUX,,
MSC R√©novation,07 62 65 14 60,https://www.msc-renovation.fr/,"17 Rue Louisette, 33110 Le Bouscat, France",5,4,BORDEAUX,,
Olivier JACQUET - Architecte DPLG Maitre d‚ÄôOeuvre,06 12 72 05 43,,"11 All. des Bahamas, 33600 Pessac, France",5,4,BORDEAUX,,
Compagnie architecture,,http://compagnie-archi.fr/,"88 Rue Lecocq, 33000 Bordeaux, France",5,2,BORDEAUX,,
H ARCHITECTES,06 71 13 12 53,http://h-architectes.com/,"64 Chem. du Sartre, 33850 L√©ognan, France",5,5,BORDEAUX,,
HOME : Ecole d'Architecture d'int√©rieur pertinente,05 54 54 61 82,https://ecole-home.com/,"5 All. de Tourny, 33000 Bordeaux, France",5,124,BORDEAUX,,
Martins Architecture,05 56 81 52 37,http://www.martinsarchitecture.com/,"363 Av. Thiers, 33100 Bordeaux, France",5,8,BORDEAUX,,
Architectures Marc Ballay,05 57 87 25 86,http://www.architecturesmarcballay.com/,"57 Cr Journu Auber, 33000 Bordeaux, France",5,3,BORDEAUX,,
Atelier Ark,06 62 04 85 64,http://www.atelierark.com/,"6 All. Charles Perrault, 33600 Pessac, France",5,66,BORDEAUX,,
Maison VI - Architecte d'int√©rieur,06 01 30 05 01,https://www.maison-six.fr/,"34 Rue William Chaumet, 33160 Saint-M√©dard-en-Jalles, France",5,3,BORDEAUX,,
Malorie Bertolini architecte,06 24 34 25 48,https://archidot.fr/,"32 Chem. de Rozet, 33360 Lignan-de-Bordeaux, France",5,1,BORDEAUX,,
Marie Le Pors Architecte,06 74 15 63 96,https://architecte-marie-le-pors.fr/,"15 Rue des √âcus, 33110 Le Bouscat, France",5,14,BORDEAUX,,
Architecte d'Int√©rieur GirondeÔΩúDavid Bonamy Dumont,06 89 02 89 48,https://www.instagram.com/davidbdumont/,"23 Rue de l'Oeuille, 33410 Cadillac-sur-Garonne, France",5,25,BORDEAUX,,
David Matias Architecte,06 37 84 95 84,https://www.facebook.com/profile.php?id=100086329062870,"2 Ham. des Bergeys, 33980 Audenge, France",5,25,BORDEAUX,,
MARTORANO Architecture - Autorisation Urbanisme - Permis de construire - Merignac,05 35 54 22 40,https://martoranoarchitect.editorx.io/monsite,"12 Av. du Mar√©chal Leclerc, 33700 M√©rignac, France",5,20,BORDEAUX,,
Architecte d'Int√©rieur Le BouscatÔΩúDavid Bonamy Dumont,06 89 02 89 48,https://www.instagram.com/david_bonamy_dumont/,"21 Av. Sadi Carnot, 33110 Le Bouscat, France",5,4,BORDEAUX,,
Atelier d'Architecture LLOVET,05 57 63 52 93,https://llovet-architecte.fr/,"50 Rue du Port, 33260 La Teste-de-Buch, France",5,11,BORDEAUX,,
Seva Architecture,06 99 25 20 40,https://www.seva.archi/,"village de, 9 Av. des Gen√™ts, 33950 L√®ge-Cap-Ferret, France",5,6,BORDEAUX,,
STYLEA - Architecte d'int√©rieur,06 60 63 89 50,http://www.stylea-architecture.com/,"37 All. du Champ de Foire, 33770 Salles, France",5,30,BORDEAUX,,
Links Architecture,06 30 58 29 75,http://www.links-architecture.com/,"22T All. des 2 √âcluses, 33470 Gujan-Mestras, France",5,13,BORDEAUX,,
"My DP - Maitrise d'Oeuvre, Permis de Construire, D√©claration Pr√©alable, Cl√© en main",07 87 88 40 79,https://mydp.fr/,"102 Rue Pierre Renaudel, 33130 B√®gles, France",5,12,BORDEAUX,,
La Maison Ben Simon,07 80 97 42 83,http://lamaisonbensimon.com/?utm_source=google&utm_medium=wix_google_business_profile&utm_campaign=6400377263144797987,"10 Av. Jean Monnet, 33140 Villenave-d'Ornon, France",5,3,BORDEAUX,,
Atelier Alios Architectes,06 51 67 47 63,https://atelieralios.fr/,"A l'Ouest Coworking, 1 Rue Edmond About, 33680 Lacanau, France",5,6,BORDEAUX,,
DEA - DEBORD Elodie Architecte,07 62 49 62 98,,"Hameau Montesquieu, 33750 Baron, France",5,8,BORDEAUX,,
KOYA Conception - Architecte d'int√©rieur,06 37 93 50 88,http://koya-conception.fr/,"17 Rue des Cavailles, 33310 Lormont, France",5,12,BORDEAUX,,
Maison Danglade,06 51 97 50 23,https://maisondanglade.com/,"77 Rue Fondaud√®ge, 33000 Bordeaux, France",5,15,BORDEAUX,,
Justine Reverchon Architecte,,https://www.justinereverchonarchitecte.archi/,"4 Av. Pr√©sident Poincare, 33400 Talence, France",5,13,BORDEAUX,,
SOHO AQUITAINE ARCHITECTURE,05 56 90 15 55,https://www.soho-aquitaine.com/,"15 Av. Fran√ßois Mitterrand, 33700 M√©rignac, France",5,1,BORDEAUX,,
D√©coratrice et architecte d‚Äôint√©rieur √† Bordeaux | Claire Steiner,06 21 03 23 31,https://www.clairesteiner.fr/,"place Nansouty, 33800 Bordeaux, France",5,17,BORDEAUX,,
Studio Jeanne Int√©rieurs,06 62 87 09 96,http://www.studio-jeanne.com/,"29 Rue Jeanne, 33200 Bordeaux, France",5,51,BORDEAUX,,
"Constance Gard√®s, Architecte d'int√©rieur",06 70 98 78 64,https://www.constancegardes.com/,"46 Rue Victor Billon, 33110 Le Bouscat, France",5,10,BORDEAUX,,
Le studio d'Issana - D√©coration - Design d'espace - Gestion de projets,07 65 53 76 85,https://www.lestudiodissana.fr/,"53 Rue de Son-Tay, 33800 Bordeaux, France",5,23,BORDEAUX,,
Flore Huguet Int√©rieurs - Bordeaux & environs,06 33 61 11 53,https://www.florehuguet-interieurs.com/,"93 Cr le Rouzic, 33100 Bordeaux, France",5,27,BORDEAUX,,
"Architecte d'int√©rieur et d√©coratrice - Aur√©lie Rousselin, B√®gles",06 27 58 78 87,http://www.aurelierousselin.fr/,"115 Rue Albert Thomas, 33130 B√®gles, France",5,16,BORDEAUX,,
Architecte d'int√©rieur - Jade MINERY,06 85 21 80 75,https://jademinery.fr/,"Tourny, 33000 Bordeaux, France",5,10,BORDEAUX,,
PATUREL - Agence d'architecture d'int√©rieur - Caroline & Margaux,07 65 85 69 09,,"143 Rue Malbec, 33800 Bordeaux, France",5,7,BORDEAUX,,
Interiordust ‚Äì Architecte d‚Äôint√©rieur & r√©novation Bordeaux Bassin d‚ÄôArcachon,06 69 61 24 40,http://www.interiordust.fr/,"135 Rue des Tourterelles, 33127 Saint-Jean-d'Illac, France",5,24,BORDEAUX,,
Architecte d'int√©rieur / Laura Gimenez / R√©novation / Am√©nagement int√©rieur / Conception / Suivi de chantier,06 88 12 75 07,https://www.laura-architecte-interieur.com/,"1 Rue Edmond About, 33680 Lacanau, France",5,5,BORDEAUX,,
Harmonie Moitry - Architecte d'int√©rieur √† Bordeaux,06 33 76 26 38,http://www.bienvenues.fr/,"39 Rue des Bouviers, 33800 Bordeaux, France",5,1,BORDEAUX,,
Origine Structures - Bureau d'√©tudes bois b√©ton m√©tal,06 50 30 68 62,http://www.be-origine.com/,"4 Rue de Candale, 33000 Bordeaux, France",5,61,BORDEAUX,,
ODETEC - Bureau d'√©tudes techniques Ing√©nierie,05 35 54 57 06,https://odetec.fr/,"4 Rue Montfaucon, 33800 Bordeaux, France",5,2,BORDEAUX,,
BD Fluides - Bureau d'√âtudes Thermiques et Fluides,,https://bdfluides.fr/,"18 Rue Gratiolet, 33000 Bordeaux, France",5,1,BORDEAUX,,
ABETEC - Bureau d'√©tudes Structure,06 58 03 65 23,https://www.abetec.fr/,"4 All. Bel air, 33370 Artigues-pr√®s-Bordeaux, France",5,1,BORDEAUX,,
NRGYS - Bureau d'√©tudes thermique et fluides,02 28 01 46 19,https://www.nrgys.fr/,"Immeuble Le Fiducia, 58 Rue Jean Duvert, 33290 Blanquefort, France",5,8,BORDEAUX,,
R√™ve Architecture,07 49 50 49 70,https://reve-architecture.fr/,"75 Cr de Luze, 33300 Bordeaux, France",5,3,BORDEAUX,,
Caroline Guign√© Architecte,07 62 00 42 12,https://www.carolineguignearchitecte.com/,"95 Rue du Palais Gallien, 33000 Bordeaux, France",5,4,BORDEAUX,,
Baudrimont Lacote Architectes,,http://www.bla-agence.com/,"18 Rue de la Pr√©vot√©, 33000 Bordeaux, France",5,1,BORDEAUX,,
CLIC ARCHITECTES,06 95 25 02 15,http://clic-architectes.fr/,"34 Rue Bouqui√®re, 33000 Bordeaux, France",5,8,BORDEAUX,,
DRILLON GAROND ARCHITECTURE,05 57 91 85 23,http://www.dg-architecture.fr/,"69 Rue Henri IV, 33000 Bordeaux, France",5,2,BORDEAUX,,
Matthieu de BOUSSAC ARCHITECTES,07 69 95 02 85,http://www.deboussac-architecte.fr/,"19 Rue Reinette, 33100 Bordeaux, France",5,2,BORDEAUX,,
encausse durand architectes,05 54 78 18 11,https://www.encaussedurand.com/,"74 Rue Georges Bonnac, 33000 Bordeaux, France",5,7,BORDEAUX,,
Architecture Patrimoine,05 56 08 50 35,http://www.architecturepatrimoine.fr/,"60 Rue Hoche, 33200 Bordeaux, France",5,1,BORDEAUX,,
Romain Perdrix Architecte,06 79 36 90 22,https://www.romainperdrixarchi.com/,"86 Rue Rosa Bonheur, 33000 Bordeaux, France",4.9,9,BORDEAUX,,
MH INTERIOR - Nadine Durand | Architecte d‚Äôint√©rieur Bordeaux,06 20 58 48 91,https://mh-interior.fr/decorateur-nouvelle-aquitaine/decorateur-architecte-interieur-bordeaux-33/,"31 Rue de Preignac, 33800 Bordeaux, France",4.9,29,BORDEAUX,,
FABRIQUE D'ESPACE - Architecte d'int√©rieur et d√©coratrice Bordeaux,06 65 23 76 30,http://www.fabriquedespace.fr/,"29 Rue Reinette, 33100 Bordeaux, France",4.9,19,BORDEAUX,,
Lameynardie & Lameynardie Architecture d'int√©rieur,05 56 58 97 10,https://www.agencelameynardie.com/,"36 Rue Cassignard, 33200 Bordeaux, France",4.9,15,BORDEAUX,,
Armelle Canchon Architecte,07 77 46 16 10,http://armellecanchon.archi/,"3 Rue Mirabeau, 33400 Talence, France",4.9,26,BORDEAUX,,
Concept plan 3D - Construction - R√©novation/Extension/Sur√©l√©vation - permis de construire,06 73 16 64 66,https://concept-plan-3d.fr/,"16 Rue Louis Bl√©riot, 33560 Carbon-Blanc, France",4.9,40,BORDEAUX,,
"Forhome Travaux Entreprise d'artisans‚úÖR√©novation Salle de bain, Maison, Appartement & Courtier en travaux, gironde 33",06 62 05 77 29,https://www.forhome-renovation-sdb.fr/,"87 Av. Roger Coh√©, 33600 Pessac, France",4.9,26,BORDEAUX,,
Julie Milleret Architecte,07 69 12 67 76,http://juliemilleret.com/,"80 Rue de Lacanau, 33200 Bordeaux, France",4.9,13,BORDEAUX,,
E.DP Lacoste -Architecte d'int√©rieur & Economiste de la construction,06 64 22 44 63,http://edplacoste.com/,"39 Rue Delphin Loche, 33130 B√®gles, France",4.9,12,BORDEAUX,,
Samantha Labrousse - Architecte d'int√©rieur,06 81 66 32 48,https://slabroussearchitecte.com/,"16 Rue de l'Hermite Bat A, 33520 Bruges, France",4.9,31,BORDEAUX,,
Camille AROLDI D√©coratrice et Architecte d'Int√©rieur,06 74 13 85 02,http://avi-homestaging.com/,"1 Rue Belle √âtoile, 33800 Bordeaux, France",4.9,35,BORDEAUX,,
2R Architecture,05 58 78 49 29,,"413 Av. du Lac, 40160 Parentis-en-Born, France",4.9,10,BORDEAUX,,
Design by C&C - Camille Doutreuwe Architecte d'int√©rieur,06 81 47 66 12,https://www.design-by-cc.fr/,"115 Rue Jules Ferry, 33200 Bordeaux, France",4.9,15,BORDEAUX,,
Delphine Guyart Design - d√©coration et architecture int√©rieure,06 75 83 67 93,http://www.delphineguyart.com/,"26 chemin de touty, 33370 Pompignac, France",4.9,23,BORDEAUX,,
ArchiReno,05 54 54 59 18,https://archireno.fr/,"9 Rue de Cond√©, 33000 Bordeaux, France",4.9,20,BORDEAUX,,
COTRABAT - Ma√Ætre d'oeuvre Constructeur de Maisons et Villas d'Architecte √† Bordeaux en Gironde,06 20 38 62 39,http://www.cotrabat.fr/,"51 Chem. du Port de l'Homme, 33360 Latresne, France",4.8,12,BORDEAUX,,
Maison Travaux & R√©novation,06 48 99 40 03,http://www.maison-travaux-renovation.co/,"64 Rue Servandoni, 33000 Bordeaux, France",4.8,82,BORDEAUX,,
Baulieu Ma√Ætrise d'Oeuvre,06 50 99 64 64,https://baulieu-maitrise-d-oeuvre.fr/,"12 lotissement, 33360 Latresne, France",4.8,10,BORDEAUX,,
CD2 CONCEPT - Ma√Ætre d'Oeuvre (Bordeaux),06 14 82 51 24,https://cd2concept.com/,"1 Av. de M√©lac, 33370 Tresses, France",4.8,27,BORDEAUX,,
L'Habitat du Sud-Ouest - Ma√Ætre d'oeuvre,06 11 78 03 83,http://www.habitatdusudouest.com/,"2 Pl. Marcel Vayssi√®re, 33650 Martillac, France",4.8,45,BORDEAUX,,
MOG Architectes,05 56 48 53 72,https://mog.archi/,"8 Rue Esprit des Lois, 33000 Bordeaux, France",4.8,4,BORDEAUX,,
TLM Architecture,09 54 83 55 53,http://www.tlmarchitecture.fr/contact.html,"156 Cr du G√©n√©ral de Gaulle, 33170 Gradignan, France",4.8,30,BORDEAUX,,
"La Maison Des Travaux Le Bouscat - Extension, r√©novation int√©rieure et ext√©rieure",05 33 09 56 39,https://lebouscat.lamaisondestravaux.com/,"33/35 Rue du Mar√©chal Leclerc, 33290 Blanquefort, France",4.8,61,BORDEAUX,,
De Boysson Design,06 22 19 94 24,https://www.deboyssondesign.com/,"27 Rue Naujac, 33000 Bordeaux, France",4.8,21,BORDEAUX,,
Havane Studio,,http://www.havanestudio.fr/,"32 Rue de la Prte Dijeaux, 33000 Bordeaux, France",4.8,11,BORDEAUX,,
Bureau d'√©tudes - Arcadis,05 56 13 16 16,https://www.arcadis.com/fr-fr?utm_source=google&utm_medium=organic&utm_campaign=gmb&utm_content=Bordeaux,"Euratlantique Ilot Quai 8.2, 31 Rue d'Armagnac B√¢t. E1, 33800 Bordeaux, France",4.8,4,BORDEAUX,,
Margot Chayot Architecte d'int√©rieur | AUTOMNE DESIGN,06 09 70 21 07,https://www.margotchayot.com/,"Pl. de la Victoire, 33000 Bordeaux, France",4.7,14,BORDEAUX,,
Moca atelier d'architecture,05 56 05 50 97,https://www.moca-architecture.com/,"27Bis Rue du Breteil, 33320 Eysines, France",4.7,7,BORDEAUX,,
Maison Conseil,06 14 97 69 20,https://www.maisonconseil33.com/?utm_campaign=1459312720082658994&utm_medium=wix_google_business_profile&utm_source=google,"4 Rue Henri de Ch√¢telier, 33600 Pessac, France",4.7,14,BORDEAUX,,
Barokel-Malka Agn√®s Architecte et Architecte d'int√©rieur,05 56 91 82 65,https://www.malkabarokelarchitecte.com/,"11 Rue Jules Steeg, 33800 Bordeaux, France",4.7,12,BORDEAUX,,
Fabre / de Marien Architectes,05 57 87 13 81,http://www.fabredemarien.com/,"8 Cit√© Montagut, 33300 Bordeaux, France",4.7,7,BORDEAUX,,
"In Situ Maitrise d'Oeuvre - Bureau d'√©tude, architecture et r√©novation immobili√®re",05 24 72 46 69,http://www.insitumaitrisedoeuvre.fr/,"29 Pl. des Martyrs de la R√©sistance, 33000 Bordeaux, France",4.6,9,BORDEAUX,,
Fort & Salier - Architectes,05 56 01 05 29,http://www.fort-salier-architectes.com/,"167 Rue Fondaud√®ge, 33000 Bordeaux, France",4.6,16,BORDEAUX,,
Atelier Rodrigue Mussard- Maitre d'oeuvre-Maitrise d'oeuvre-Construction-R√©novation-Sur√©l√©vation-Extension,06 20 11 20 01,http://rodriguemussard.com/,"31 Chem. du Nid de l'Agasse, 33610 Cestas, France",4.6,9,BORDEAUX,,
Expression architecte d‚Äôint√©rieur,06 08 05 10 73,http://www.expression-architecte-interieur.fr/,"19 Rue Fr√®re, 33000 Bordeaux, France",4.6,9,BORDEAUX,,
Oph√©lie Dohy architecte d'int√©rieur,,http://www.ophelie-dohy.com/,"10 Rue de Vincennes, 33000 Bordeaux, France",4.6,20,BORDEAUX,,
"Maisons Rh√®a - Maitre d'oeuvre - construction de maison, r√©novation, agrandissement, Bordeaux",05 25 61 02 65,https://www.maisons-rhea.com/,"11 All. de Tourny, 33000 Bordeaux, France",4.5,34,BORDEAUX,,
Villa Cap Ouest - Ma√Ætrise d‚Äô≈ìuvre & R√©novation,06 31 91 66 25,https://www.villacap-ouest.fr/,"45 Rue de Premarchand, 33140 Cadaujac, France",4.5,44,BORDEAUX,,
Peyrou Habitat + Ma√Ætre d'≈ìuvre,07 81 45 73 64,https://www.peyrou-habitat.fr/,"26 All. de Migelane, 33650 Saucats, France",4.5,2,BORDEAUX,,
Rodde Aragues Architectes,05 57 22 90 35,http://www.ra-architectes.com/,"33 Cr de Luze, 33300 Bordeaux, France",4.5,8,BORDEAUX,,
Avenir R√©novations Bordeaux,05 33 52 28 26,https://www.avenir-renovations.fr/agence/avenir-renovations-33-bordeaux/,"5 All. de Tourny, 33000 Bordeaux, France",4.3,38,BORDEAUX,,
S+M Architectes,05 56 39 12 21,http://www.smarchitectes.com/,"9 Rue Lana, 33300 Bordeaux, France",4.3,16,BORDEAUX,,
Cityzen Architectes,05 56 30 37 81,http://cityzen-architectes.com/,"175 All. des Palanques, 33127 Saint-Jean-d'Illac, France",4.3,13,BORDEAUX,,
Mt Architecture,,https://www.mtarchitecture.fr/,"10 Rue des Liserons, 33200 Bordeaux, France",4.2,5,BORDEAUX,,
D-Side architecture et urbanisme,09 54 78 97 05,https://www.d-sidearchitecture.fr/,"25 Rue de Tremeuge, 33400 Talence, France",4.2,11,BORDEAUX,,
BPM Architectes,05 56 44 50 16,http://www.bpm-architectes.com/,"26 Rue Peyronnet, 33800 Bordeaux, France",4.2,9,BORDEAUX,,
Cabinet BIEC,09 81 13 95 17,https://www.biec.fr/,"21 bis Cr Pasteur, 33000 Bordeaux, France",4.1,39,BORDEAUX,,
Kego Architectes,06 69 46 90 27,http://www.kego-architectes.com/,"Quai des Chartrons Hangar 15, 33000 Bordeaux, France",4.1,14,BORDEAUX,,
LE BRIS-ROL architectes,05 56 87 81 03,https://www.lebrisrolarchitectes.com/,"129 Rue Jules Guesde, 33270 Floirac, France",4.1,7,BORDEAUX,,
MORE Architecture,05 47 29 32 82,http://www.more-architecture.fr/,"174 Rue Fondaud√®ge, 33000 Bordeaux, France",4,2,BORDEAUX,,
Barokel Malka cabinet d'architecture,05 56 91 82 65,https://www.malkabarokelarchitecte.com/,"13 Rue Jules Steeg, 33800 Bordeaux, France",4,18,BORDEAUX,,
Bulle Architectes,05 47 30 75 16,http://bullearchitectes.com/,"31 Rue Bobillot, 33800 Bordeaux, France",4,4,BORDEAUX,,
DESIGN ARCHITECTURE,05 56 57 70 04,http://www.renovation-agencement.com/?utm_source=gmb,"275 Av. du Mar√©chal de Lattre de Tassigny, 33200 Bordeaux, France",3.3,3,BORDEAUX,,
Architecte Bordeaux Concept,06 20 38 62 39,https://www.architecte-bordeaux-concept.fr/,"2 Cr du 30 Juillet, 33000 Bordeaux, France",,0,BORDEAUX,,
Atmo Expertise Maitre d'Oeuvre,06 48 52 41 23,http://www.atmo-expertise.fr/,"7 All√©es de Chartres, 33000 Bordeaux, France",,0,BORDEAUX,,
Ma√Ætre d'oeuvre en Gironde,06 20 38 62 39,http://maitre-oeuvre-gironde.com/,"51 Chem. du Port de l'Homme, 33360 Latresne, France",,0,BORDEAUX,,
IN FINE - Ma√Ætre d'Oeuvre Bordeaux,06 24 11 57 51,,"23 Rue Edmond Michelet, 33000 Bordeaux, France",,0,BORDEAUX,,
"DOM√âOTHERM - Bureau d'√©tudes thermiques, √©nerg√©tiques et environnementales",06 22 02 41 69,https://domeotherm.com/,"14 Imp. Savorgnan de Brazza, 85180 Les Sables-d'Olonne, France",5,73,NANTES,,
Anne Lem√©e Gendreau Architectenligne.com,09 51 53 49 79,http://www.architectenligne.com/,"6 Chem. de Ceinture, 85340 L'√éle-d'Olonne, France",5,62,NANTES,,
meta - architecte,07 85 75 54 16,https://www.meta-meta.fr/,"4 Pl. Rhin et Danube, 44500 La Baule-Escoublac, France",5,51,NANTES,,
CUST'HOME - Ma√Ætre d'Oeuvre,02 51 82 85 19,https://www.custhome.fr/,"3 Place Ste Elisabeth, 44000 Nantes, France",5,43,NANTES,,
Alice Belime Architecture & Design d'int√©rieur - R√©novation √† Redon,07 83 57 50 01,https://www.alicebelime.com/,"3 Rue des Bandes de Rieux, 56350 Rieux, France",5,32,NANTES,,
JC&PROJECT ARCHITECTURE,06 37 59 90 55,https://www.jc-project.net/,"11 Rue du Clos de Bauvais, 49080 Bouchemaine, France",5,32,NANTES,,
ANOVA STRUCTURES - Bureau d'√©tudes,02 40 68 97 94,https://www.anovastructures.fr/,"86 Rte Cl√©mence Lefeuvre, 44450 Saint-Julien-de-Concelles, France",5,31,NANTES,,
Maison Jaden - Ma√Ætre d'oeuvre,02 55 99 62 28,https://maison-jaden.com/,"1 Rue de l'√âtoile du Matin, 44600 Saint-Nazaire, France",5,30,NANTES,,
"Architecte d'Int√©rieur - Agence Citron Carr√© - Sp√©cialiste CHR, Tertiaire & Retail - Nantes",07 88 47 92 81,https://www.citroncarre.fr/,"18 bis Rue de la Brissaudi√®re, 44690 La Haie-Fouassi√®re, France",5,28,NANTES,,
Exode Architecture,(514) 286-4269,https://www.exodearchitecture.com/,"4455 Autoroute 440 suite 295, Laval, QC H7P 4W6, Canada",5,28,NANTES,,
mfa - m√©laine ferr√© architecture,02 85 52 67 11,http://www.mfa.archi/,"5 Pl. du Bon Pasteur, 44000 Nantes, France",5,27,NANTES,,
NIDUM - Architecture & Ma√Ætrise d'oeuvre,06 17 14 75 66,https://nidum.fr/,"98 Rue Jean Fraix, 44400 Rez√©, France",5,26,NANTES,,
Regard Int√©rieur - Architecte d'int√©rieur et d√©coratrice,06 21 23 37 00,https://regardinterieur.fr/,"12 Rue Gruget, 49100 Angers, France",5,24,NANTES,,
"Bonne Pioche, Ma√Ætre d'Oeuvre en Loire-Atlantique",07 85 22 73 72,https://www.bonnepioche-mo.com/,"83 Grand Rue, 44118 La Chevroli√®re, France",5,23,NANTES,,
100 m2 - Francky PETITEAU Ma√Ætre d'oeuvre,07 83 30 24 15,https://www.septimealamaison.fr/meilleur-maitre-oeuvre-nantes/,"32 Rue Henri Cochard, 44000 Nantes, France",5,21,NANTES,,
O'Conception - Ma√Ætre d'≈ìuvre - Agence Littoral en Vend√©e,02 51 31 31 30,https://www.oconception.fr/,"11 Rue Eric Tabarly, 85340 Les Sables-d'Olonne, France",5,21,NANTES,,
Architecte / Nantes / Pornic / MAYA Architectures,06 60 21 90 77,https://www.studio-maya.fr/,"7 All. Susan Brownell Anthony, 44200 Nantes, France",5,20,NANTES,,
Guillaume Routhiau Architecte d'int√©rieur Angers,06 17 21 26 84,http://www.guillaumerouthiau.com/,"23 Rue M√©nage, 49100 Angers, France",5,18,NANTES,,
TRILATERAL - Architecte La Baule,09 70 70 17 99,https://www.trilateral-architecte.fr/,"4 Pl. Rhin et Danube, 44500 La Baule-Escoublac, France",5,17,NANTES,,
COCOTES - Ma√Ætre d'oeuvre - r√©novation - extension - am√©nagement int√©rieur,06 30 48 00 16,https://www.cocotes.fr/,"8 Pl. de l'√âglise, 44390 Casson, France",5,17,NANTES,,
"Mo Archi - Architecture d'int√©rieur & Design global, Ma√Ætrise d'≈ìuvre.",07 69 52 58 57,https://www.moarchi.fr/,"13 Rue des Vieux M√©tiers, 85150 Saint-Georges-de-Pointindoux, France",5,17,NANTES,,
ACST - Architecte Vend√©e,06 24 50 35 21,http://www.acst-architecture.com/,"6 Rue de Nantes, 85300 Challans, France",5,16,NANTES,,
CASA architecte - EI Anthony Corbel,06 08 36 17 33,https://www.casa-architecte.com/,"6 Av. Denis Papin, 49100 Angers, France",5,16,NANTES,,
Jean-Yves Gommerel ma√Ætre d'oeuvre b√¢timent en Mayenne,02 43 64 27 95,http://www.gommerel-habitat-passif.com/,"10 Rue Beausoleil, 53360 Orign√©, France",5,16,NANTES,,
agence | dpA - delphine picot #Architecte #Nantes,07 87 84 42 51,http://www.agence-dpa.fr/,"2bis Pl. Paul Emile Ladmirault, 44000 Nantes, France",5,15,NANTES,,
Architecture Int√©rieure - Am√©lie GUILLEMINOT,06 60 60 49 79,http://amelieguilleminot.com/,"Rue Lucien Bagrin, 44100 Nantes, France",5,14,NANTES,,
Figura architecture,02 40 75 58 08,http://www.figura.studio/,"16 Rue des Carm√©lites, 44000 Nantes, France",5,13,NANTES,,
Domoko - Ma√Ætre d'oeuvre - R√©novation - Nantes,06 47 27 77 87,http://www.domoko.fr/,"13 Rue de la Californie, 44400 Rez√©, France",5,13,NANTES,,
Bureau d'√©tudes Huchet,02 40 06 26 65,,"19 Rue du Ch√¢teau, 44115 Haute-Goulaine, France",5,13,NANTES,,
BATIMIUM Sas - Maitrise d'Oeuvre & Expertise b√¢timent - Les Sables d'Olonne / Nantes,02 51 95 28 44,http://batimium.fr/,"1 Rue Charles Peguy, 85180 Les Sables-d'Olonne, France",5,13,NANTES,,
"Decodheure - Architecture d'int√©rieur, Designer √† Nantes.",06 48 94 31 73,http://decodheure.com/,"1 Rue de Constantine, 44100 Nantes, France",5,12,NANTES,,
Modus Architecture,09 52 81 29 27,http://www.modus-architecture.com/,"17 Rue Saint-Jacques, 44190 Clisson, France",5,12,NANTES,,
CODES - Architecte d'int√©rieur √† Nantes,06 10 56 64 00,https://www.codesarchitecture.com/,"37 Bd des Belges, 44300 Nantes, France",5,12,NANTES,,
JUA Architecture,07 87 65 77 34,https://www.jua-architecture.com/,"29 bis Rte du Champ de Foire, 44860 Saint-Aignan-Grandlieu, France",5,12,NANTES,,
"Atelier Ose Architecture - Architecte √† La Roche-sur-Yon, Vend√©e",07 75 66 85 83,https://www.atelier-ose.eu/,"10 Rue du Commandant Raynal, 85000 La Roche-sur-Yon, France",5,12,NANTES,,
TRIHOM - Maitrise d'≈ìuvre,06 52 93 01 08,http://www.trihom.eu/,"14 Rue Gambetta, 44000 Nantes, France",5,11,NANTES,,
Moka Ma√Ætre d'Oeuvre,02 51 32 36 57,https://moka-mo.fr/,"27 Rue Jacques Daguerre, 85180 Les Sables-d'Olonne, France",5,11,NANTES,,
A EXPERTISES ET ARCHITECTURES,06 62 50 57 65,https://aexpertisesarchitectures.fr/?from_source=GBP,"89 bis Rue des Carterons, 44400 Rez√©, France",5,10,NANTES,,
"Morgane Morazzini, Architecte d'int√©rieur √† Nantes",06 60 12 38 48,https://morganemorazzini.com/,"4 Rue Max Linder, 44100 Nantes, France",5,10,NANTES,,
Ma D√©co et Vous I D√©coratrice / Architecte d'int√©rieur & Designer,06 50 77 68 34,https://www.houzz.fr/professionnels/decorateur-et-styliste-d-interieur/ma-deco-et-vous-pfvwfr-pf~790062532?,"Av. de Verdun, 72200 La Fl√®che, France",5,10,NANTES,,
Ma√Ætre d'oeuvre Origines construction,06 48 37 79 97,http://www.origines-construction.fr/,"106 Av. Chanzy, 53000 Laval, France",5,10,NANTES,,
Architecte La Baule DPLG/DESA : Amrein Vassileff,06 14 67 24 33,https://www.amreinvassileffarchitectes.fr/,"34 Av. Louis Lajarrige, 44500 La Baule-Escoublac, France",5,9,NANTES,,
CRESPIN MAITRISE D'OEUVRE,06 08 97 27 73,https://www.crespin-mo.fr/,"16 Rue Lechat, 44400 Rez√©, France",5,9,NANTES,,
Bureau d'√âtudes Thermique & Environnement - Bio B.E,06 22 50 08 77,http://www.biobe.fr/,"9 Imp. de la Foss√© Moreau, 44115 Haute-Goulaine, France",5,9,NANTES,,
SL20 ARCHITECTURE,06 71 86 12 80,http://www.sl20.fr/,"Passage de l'Empire, 3 Pl. Napol√©on, 85000 La Roche-sur-Yon, France",5,9,NANTES,,
ANDRE - Ma√Ætre d'oeuvre,07 83 15 68 50,http://www.laurent-andre.fr/,"74 Imp. des Marions, 85600 Montaigu-Vend√©e, France",5,9,NANTES,,
p√∂m architectes,06 70 58 83 60,http://www.pom-architectes.com/,"14 Rue Merc≈ìur, 44000 Nantes, France",5,8,NANTES,,
ARCHI'MAKER - Architecte,09 75 20 73 15,https://www.archi-maker.com/,"3 all√©e de la Paix, 44810 Heric, France",5,8,NANTES,,
Atelier Aponi - Architectes,07 88 60 87 74,https://www.atelier-aponi.com/,"6 Pl. de l'√âglise Madame, 44760 Les Moutiers-en-Retz, France",5,8,NANTES,,
STUDIO PAU√àME I Architecte d'int√©rieur et d√©coratrice √† Nantes et Loire-Atlantique,06 04 42 66 07,http://www.pauemestudio.com/,"103 All. de la Ferblanterie, 44240 Suc√©-sur-Erdre, France",5,8,NANTES,,
JV Concept - Architecture & R√©novation Globale,02 40 40 58 03,http://www.jv-concept.fr/,"7 Rue de la Maladrie, 44120 Vertou, France",5,8,NANTES,,
Barbara Biedermann | Architecture d'int√©rieur √† Nantes,06 12 33 48 21,http://www.bbiedermann.fr/,"9 Rue du Chapeau Rouge, 44000 Nantes, France",5,7,NANTES,,
DR√Ç | DAMIEN ROCHER ARCHITECTE,02 40 27 02 36,https://damienrocherarchitecte.com/,"13 avenue du pain b√©nit, 44250 Saint-Brevin-les-Pins, France",5,7,NANTES,,
Architecte d'int√©rieur - Cyril Brifault,06 59 98 04 57,http://www.cbarchi.fr/,"6 Chem. du Clos Gaux, 44300 Nantes, France",5,7,NANTES,,
EP DESIGN-design d'espace et architecture int√©rieure,06 21 90 35 90,https://www.ep-design.fr/,"83 Rue de Trementines, 49300 Cholet, France",5,7,NANTES,,
InTempo - Claire Lombard - architecture int√©rieure / design,06 66 82 67 75,http://www.intempo-cl.com/,"35 Rue du Paradis, 49300 Cholet, France",5,7,NANTES,,
Bureau d'√©tudes M3e,09 82 33 26 68,http://www.expertise-m3e.fr/,"38 Rue du 11 Novembre, 72210, 72210 La Suze-sur-Sarthe, France",5,7,NANTES,,
SOON ARCHITECTURE,09 83 32 32 62,http://soonarchitecture.fr/,"42 B Rue Four√©, 44000 Nantes, France",5,6,NANTES,,
Christine VIGNAUD Architecte DPLG,06 85 12 28 29,,"3 Rue Jean de la Fontaine, 44000 Nantes, France",5,6,NANTES,,
Pens√©e Habitat - Ma√Ætre d'oeuvre,02 59 10 12 13,https://pensee-habitat.com/,"4 L'Esp√©rance, 44460 Avessac, France",5,6,NANTES,,
Gauthier Concept A.M.O - Maitrise d'oeuvre - Plans - Pilotage travaux,06 86 87 10 88,http://instagram.com/gauthier.concept.amo/,"67 bis Rue de la Chauss√©e, 44210 Pornic, France",5,6,NANTES,,
Serieys & Barbotin Architectes,02 51 05 13 43,https://www.sbarchitectes.com/,"140 Bd d'Angleterre, 85000 La Roche-sur-Yon, France",5,6,NANTES,,
AG architecture d'int√©rieur (Godefroy Ang√©lique),07 79 42 08 23,https://www.agarchitectureinterieur.fr/,"23 Rue de l'Orangerie, 49300 Cholet, France",5,6,NANTES,,
Ecologis Design - Ma√Ætre d'≈ìuvre,06 41 77 18 01,http://ecologis-design.fr/,"8 Rue Notre Dame, 49110 Montrevault-sur-√àvre, France",5,6,NANTES,,
Atelier Biloba - architecte Felicie HUMEAU,02 41 27 12 58,http://www.atelierbiloba.com/,"7 Rue de la Pr√©fecture, 49100 Angers, France",5,6,NANTES,,
Cobalt - Architecte d'int√©rieur,06 27 02 20 28,https://www.cobalt-design.com/,"6 Rue Lebasque, 49000 Angers, France",5,6,NANTES,,
HB Architectures,02 41 43 88 70,http://www.hbarchitectures.fr/,"5 Rue Garnier, 49100 Angers, France",5,6,NANTES,,
HEOL architecture.s,06 32 95 64 41,https://www.instagram.com/heol_architectures/,"28 Bd Benoni Goullin, 44200 Nantes, France",5,5,NANTES,,
Studio T√©r√© architecture,06 80 63 50 23,https://studio-tere.fr/,"43 Rue Bougainville, 44100 Nantes, France",5,5,NANTES,,
Om Architectures - Justine LEBEAU Architecte HMONP,07 49 15 49 75,,"36 Av. Albert de Mun, 44600 Saint-Nazaire, France",5,5,NANTES,,
Bertin Bichet Architectes,02 40 15 68 42,http://www.bertinbichet.com/,"11 Rue du Port, 44600 Saint-Nazaire, France",5,5,NANTES,,
SARL Joao DA SILVA - Ma√Ætre d'≈íuvre,06 87 96 61 35,https://www.joaodasilva-maitredoeuvre.fr/,"8 Chem. de la Butte, 44160 Besn√©, France",5,5,NANTES,,
POUTIER Architectures & ma√Ætrise d'≈ìuvre - La Baule,02 40 11 39 95,http://www.poutier-architectures.com/,"45 Av. Louis Lajarrige, 44500 La Baule-Escoublac, France",5,5,NANTES,,
GUILLAUMET - BEAUFORT Architectes devient ATELIER BEAUFORT ARCHITECTURE,07 69 82 76 92,https://www.guillaumetbeaufortarchi.fr/,"Le Ham. du Golf, 44210 Pornic, France",5,5,NANTES,,
atelier d'architecture CARTOUCHE,02 85 52 84 97,http://www.cartouche.archi/,"33B rue de l'a√©rodrome coworking, 44400 Rez√©, France",5,5,NANTES,,
CTE Nantes Bureau d'√©tudes structure (b√©ton/pierre/ma√ßonnerie/bois/m√©tal) - diagnostic/faisabilit√©/conception/exe/expertise,06 87 14 68 48,https://www.cte-sa.com/fr/contact,"10 Rdpt de la Corbinerie, 44400 Rez√©, France",5,5,NANTES,,
"Cromlech architecture, architecte Saint Herblain Nantes Saint-Nazaire",06 63 24 10 83,https://cromlech-architecture.fr/,"122 Rue du Dr Boub√©e, 44800 Saint-Herblain, France",5,5,NANTES,,
tom A' - Thomas Grimault Architecte,06 48 60 21 37,https://www.toma-architecture.com/,"25 Rue du Bon Grain, 44850 Lign√©, France",5,5,NANTES,,
Pli Architecture,06 13 59 29 92,http://www.pli-architecture.com/,"21 Bd de Castelnau, 85100 Les Sables-d'Olonne, France",5,5,NANTES,,
A Propos Architecture,02 41 75 29 80,http://www.apropos-architecture.com/,"42 Av. du Mar√©chal Foch, 49300 Cholet, France",5,5,NANTES,,
PSMO - Pascal Suteau Ma√Ætre d'Oeuvre,06 23 05 66 04,https://www.psmo.fr/,"7 Rue de l'Abb√© Dup√©, 49122 Le May-sur-√àvre, France",5,5,NANTES,,
Loire MDO Ma√Ætre d'≈ìuvre,06 75 20 95 83,http://loire-mdo.com/,"49 Rue Beaurepaire, 49400 Saumur, France",5,5,NANTES,,
AAPM Atelier d'Architecture,02 37 28 57 79,https://www.aapm-architecte-72.fr/,"72 Av. nationale, 72230 Arnage, France",5,5,NANTES,,
"Lundi 5, Architecte d'int√©rieur",02 43 56 94 26,http://www.lundi5.com/,"44 Quai B√©atrix de Gavre, 53000 Laval, France",5,5,NANTES,,
Maison 27 bis - Architecte Int√©rieur & D√©coratrice Nantes,06 58 30 84 15,https://www.maison27bis.com/,"54 Rue des Hauts Pav√©s, 44000 Nantes, France",5,4,NANTES,,
Exopus Travaux - Ma√Ætre d'Oeuvre √† Nantes,06 17 25 65 21,https://exopustravaux.fr/,"34 Rue de la Marri√®re, 44300 Nantes, France",5,4,NANTES,,
Atelier AS ARCHITECTES,06 62 00 88 17,https://www.instagram.com/atelier_as_architectes/,"29 Rue Crucy, 44000 Nantes, France",5,4,NANTES,,
Alain Thoury - Architecte DE,02 40 60 08 38,http://www.alain-thoury.com/,"28 All. Madeleine, 44500 La Baule-Escoublac, France",5,4,NANTES,,
Alexandre Philippe Architecte,06 74 69 57 46,http://www.alexandre-philippe-architecte.fr/,"10 Av. Fausto Coppi, 44300 Nantes, France",5,4,NANTES,,
Studio Ibijau Architecture,06 37 57 73 80,https://www.ibijau-architecture.com/?utm_source=google&utm_medium=wix_google_business_profile&utm_campaign=12304713060040282055,"35 Rue de la Garouere, 44120 Vertou, France",5,4,NANTES,,
ENOA architecture int√©rieure I Nantes I La Baule I Pornichet,06 36 85 04 94,https://www.enoa-architecture.fr/,"28 Bd Benoni Goullin, 44200 Nantes, France",5,4,NANTES,,
Marie Charlet Architecte,06 08 72 25 82,https://www.charlet-architecte.fr/,"85 Rue du Petit Village, 44800 Saint-Herblain, France",5,4,NANTES,,
Pierre Angebault Architecte,07 81 99 09 44,https://www.agence-paar.fr/,"2B Rue du Bosquet, 44880 Sautron, France",5,4,NANTES,,
Effin√©o Bureau d'√©tudes,02 28 10 96 43,http://www.be-effineo.fr/,"50 Rue des Couvreurs Local 13, 85800 Saint-Gilles-Croix-de-Vie, France",5,4,NANTES,,
MC ARCHITECTURE Agence Cholet,09 81 45 16 58,https://mc-architecture.fr/contact/,"12 Rue Alphonse Daudet, 49360 Maul√©vrier, France",5,4,NANTES,,
Bel'Angers - Ma√Ætre d'oeuvre,02 41 87 50 50,https://www.bel-angers.fr/,"RDC, 51 Rue des Chaffauds, 49000 Angers, France",5,4,NANTES,,
Atelier du Lieu - Architecte d'int√©rieur,07 44 43 72 99,https://atelierdulieu.fr/,"36 Bd du Roi Ren√©, 49100 Angers, France",5,4,NANTES,,
Elo√Øse Groussolle studio d'architecture d'int√©rieur √† Angers,06 77 73 03 13,http://www.eloisegroussolle.com/,"9 Rue Leloyer, 49000 Angers, France",5,4,NANTES,,
M-ARCHITECTURE,(514) 755-7227,https://m-architecture.ca/?utm_medium=referral&utm_source=gmb&utm_campaign=lnk-gmb,"7436 Rue St-Hubert, Montr√©al, QC H2R 2N3, Canada",5,4,NANTES,,
mo architectures,06 17 17 01 14,http://moarchitectures.com/,"28 bis All. Marines, 40130 Capbreton, France",5,4,NANTES,,
Atelier Marin Architecture,,http://ateliermarinarchitecture.fr/,"46 Rue du Dolmen, 44600 Saint-Nazaire, France",5,3,NANTES,,
OFFGRID architecture,09 82 47 45 51,https://www.offgrid-architecture.com/,"18 Rue Jacques Cartier, 44600 Saint-Nazaire, France",5,3,NANTES,,
Quattro Architectes,02 40 35 57 83,https://www.quattroarchi.fr/,"40 bis Rue de la Mirette, 44400 Rez√©, France",5,3,NANTES,,
Gonzo Architectes,07 70 93 79 41,http://www.gonzo-architectes.com/,"4 Bd Victor Hugo, 44000 Nantes, France",5,3,NANTES,,
ATPS - Bureau d'√©tudes thermique acoustique et environnement,02 49 44 76 81,http://www.bet-atps.fr/,"34 Rue Jules Verne, 44700 Orvault, France",5,3,NANTES,,
Styl2Vie - Ma√Ætre d'oeuvre - Accompagnement Travaux,06 59 99 23 48,https://styl2vie.com/,"15 Ruffole, 44190 Boussay, France",5,3,NANTES,,
ANP Architecte - Nicolas PARNAUDEAU - Bouguenais,06 99 62 53 82,https://anparchitecte.fr/,"19A Rue du Moulin, 44340 Bouguenais, France",5,3,NANTES,,
LM architecte,06 33 30 32 27,http://lmarchitecte.com/,"36 Rte des Sablons, 44830 Bouaye, France",5,3,NANTES,,
Maxime Bannier Architecte,06 74 70 08 21,https://www.maximebannier.fr/,"12 Av. Pasteur, 44800 Saint-Herblain, France",5,3,NANTES,,
Atelier Architecture Duranteau-Pidoux,02 51 32 17 36,https://atelierarchitectureduranteaupidoux.site-solocal.com/,"2 Av. Jean Jaur√®s, 85100 Les Sables-d'Olonne, France",5,3,NANTES,,
Vallee Architecture Sarl,02 51 90 73 20,,"33 All. Alain Gautier, 85340 Les Sables-d'Olonne, France",5,3,NANTES,,
"Bureau d'√©tudes, Structures m√©talliques - SERI 85",02 51 44 90 81,https://seri-85.fr/,"22 Imp. Jeanne Dieulafoy, 85000 La Roche-sur-Yon, France",5,3,NANTES,,
Souffle - Atelier d'architecture,06 10 95 14 30,,"89 Av. du G√©n√©ral Patton, 49000 Angers, France",5,3,NANTES,,
Ma√Ætre d'≈ìuvre Angers | Atelier Skapa | Construction & R√©novation,02 41 60 84 85,https://atelierskapa.fr/,"184 Av. Pasteur, 49100 Angers, France",5,3,NANTES,,
Architecture Accessible,06 20 41 77 19,https://www.architecture-accessible.fr/,"3 Rue Ch√¢teaubriand, 53100 Mayenne, France",5,3,NANTES,,
cf.architecture,02 43 68 82 88,http://www.cfarchitecture.fr/,"1 Rue des Forges, 53410 Port-Brillet, France",5,3,NANTES,,
CHARLES MONH√âE ARCHITECTE,02 33 26 64 14,https://www.archivue.net/architecte/charles-monhee-architecte/,"3 Rue du Boulevard, 61000 Alen√ßon, France",5,3,NANTES,,
Bureau d'√©tudes thermique et fluides Archim√®de,02 40 75 95 50,http://www.archimede-ingenierie.fr/,"22 Rue des Olivettes, 44000 Nantes, France",5,2,NANTES,,
"L+R Architecture Saint-Nazaire, La Baule",06 77 08 81 36,https://www.lr-architecture.fr/,"9 Rue Sophie-Tatischeff, 44600 Saint-Nazaire, France",5,2,NANTES,,
Dml Architecture,06 81 64 78 46,https://dmlarchitecture.houzzsite.com/,"27 Rue Georges Boutin, 44400 Rez√©, France",5,2,NANTES,,
ECTS - Bureau d'√©tudes structure charpente,,,"010 B Av. du Mar√©chal de Lattre de Tassigny, 44400 Rez√©, France",5,2,NANTES,,
"Nergik Nantes - Bureau d'√©tudes fluides, CVC, thermique et HQE",,,"10 Av. du Mar√©chal de Lattre de Tassigny, 44400 Rez√©, France",5,2,NANTES,,
Forest Debarre - Architecte Patrimoine,,,"211 Bd Auguste Peneau, 44300 Nantes, France",5,2,NANTES,,
Eric Piton Architectures,,,"21 Av. de la Martelli√®re, 44230 Saint-S√©bastien-sur-Loire, France",5,2,NANTES,,
Baudet Thibault - Architecture Int√©rieur,,,"21 Bd Pasteur, 44100 Nantes, France",5,2,NANTES,,
Avril Architecture et Design,,,"4 Rue de Savenay, 44000 Nantes, France",5,2,NANTES,,
Bureau d'√©tudes EXE,,,"10 Chemin du Vigneau, Parc Solaris, 44800 Saint-Herblain, France",5,2,NANTES,,
Cabinet d'Architecte - Challans - Fen√™tre sur Cour - Architecte - Vend√©e,,,"4 Place abb√© Grelier, 85300 Challans, France",5,2,NANTES,,
Novam Ing√©nierie Challans - Bureau d'√©tudes TCE,,,"P√¥le Activ‚ÄôOc√©an, 5 Rue Copernic, 85300 Challans, France",5,2,NANTES,,
Ouest Architecture Urbanisme - O.a.u.,,,"9 Av. Carnot, 85100 Les Sables-d'Olonne, France",5,2,NANTES,,
Bureau d'√©tudes SIROT-MICHEL,,,"20 Rue du Lieutenant Maurice Anger, 85100 Les Sables-d'Olonne, France",5,2,NANTES,,
ADN Architecture d'Int√©rieur,,,"2 Rue Benjamin Franklin, 85000 La Roche-sur-Yon, France",5,2,NANTES,,
Architecture Blanchard Marsault Pondevie SARL,,,"16 Rue Jean Jaur√®s B, 85000 La Roche-sur-Yon, France",5,2,NANTES,,
Quattro Architectes,,,"Parc Activit√©s de Beaupuy, 85000 La Roche-sur-Yon, France",5,2,NANTES,,
DBC - Ma√Ætre d'Oeuvre,,,"31 Rue de la Penissi√®re, 85530 La Bruffi√®re, France",5,2,NANTES,,
Rdb Architectes SARL,,,"189 Rue Volney, 49000 Angers, France",5,2,NANTES,,
"Agence A+, Architecte d'int√©rieur et maitre d'oeuvre",,,"39 Rue Gambetta, 72000 Le Mans, France",5,2,NANTES,,
IE Architecture - vincent hemery,,,"20 Rue des Loges, 53000 Laval, France",5,2,NANTES,,
Agence d'Architecture Antoine Gicquel,,,"7 Rue Victor Boissel, 53000 Laval, France",5,2,NANTES,,
Mar'enove+ | Ma√Ætre d'≈ìuvre en r√©novation en Mayenne et Grand Ouest.,,,"98 Bd Jean Jaur√®s, 53000 Laval, France",5,2,NANTES,,
METHO architectes,,,"102 Rte de Rennes, 44300 Nantes, France",5,1,NANTES,,
Mar√©emo Ma√Ætre d'≈ìuvre - Maison - R√©novation - Extension,,,"11 Rue du Pav√© de Beaulieu, 44350 Gu√©rande, France",5,1,NANTES,,
Serba Saint-Nazaire - Bureau d'√©tudes structure,,,"68 Av. du G√©n√©ral de Gaulle, 44600 Saint-Nazaire, France",5,1,NANTES,,
Atelier Gru - Architecture,,,"9 Rue de Bellevue, 44210 Pornic, France",5,1,NANTES,,
XIII architecture,,,"28 All. Georges Benezet, 44400 Rez√©, France",5,1,NANTES,,
Atelier D Architecture Elodie Servel,,,"6 Quai L√©on S√©cher, 44400 Rez√©, France",5,1,NANTES,,
Mo-ah - Architecte Int√©rieur- r√©novation,,,"101 Rue de la Massonni√®re, 44120 Vertou, France",5,1,NANTES,,
Novam Ing√©nierie Nantes - Bureau d'√©tudes TCE,,,"10b Av. du Mar√©chal de Lattre de Tassigny, 44000 Rez√©, France",5,1,NANTES,,
BEAM - Bureau d'√©tudes en architecture m√©tallique,,,"32 All. des Cinq Continents, 44120 Vertou, France",5,1,NANTES,,
Groupe Blain Conception - Ma√Ætre d'oeuvre,,,"Rue de la Toscane, 44240 La Chapelle-sur-Erdre, France",5,1,NANTES,,
Rural architecture,,,"4 Rue de Bellevue, 44850 Mouzeil, France",5,1,NANTES,,
Agence Citt√© Claes architecture - Architectes & Urbanistes,,,"6 Rue Gustave Eiffel, 44800 Saint-Herblain, France",5,1,NANTES,,
line architecture - vincent de bourmont architecte - urbaniste,,,"14 Rue des Merisiers, 44800 Saint-Herblain, France",5,1,NANTES,,
LD 44 Maitrise d'oeuvre,,,"8 Pl. du Cap Sizun, 44800 Saint-Herblain, France",5,1,NANTES,,
Z√âNITH Architecture & Ing√©nierie,,,"1 Rue du Charron, 44800 Saint-Herblain, France",5,1,NANTES,,
"Nergik Challans - Bureau d'√©tudes fluides, CVC, thermique et HQE",,,"4 Pl. Henri Fayol, 85300 Challans, France",5,1,NANTES,,
LM - Ma√Ætrise d'oeuvre & Architecture,,,"5 Bd de l'√éle Vertime, 85100 Les Sables-d'Olonne, France",5,1,NANTES,,
Agence Seb Architecture,,,"24 Prom. de l'Amiral Lafargue, 85100 Les Sables-d'Olonne, France",5,1,NANTES,,
Debo projets - Architecte d'int√©rieur,,,"5 Rue des Halles, 85000 La Roche-sur-Yon, France",5,1,NANTES,,
6K - Ma√Ætre d'oeuvre en Vend√©e,,,"27 Rue Benjamin Franklin, 85000 La Roche-sur-Yon, France",5,1,NANTES,,
SARL INSO - Agence d'Architecture,,,"88 Rue de la Vend√©e, 49300 Cholet, France",5,1,NANTES,,
Atelier CLF - Architecture int√©rieure √©coresponsable,,,"23 Rue des Vendelli√®res, 49250 La M√©nitr√©, France",5,1,NANTES,,
BETHEA Ma√Ætre d'oeuvre | Franck Voisin Agence de Bourgueil,,,"28 Rue du Commerce, 37140 Bourgueil, France",5,1,NANTES,,
Ma√Ætre d'≈íuvre Architecte DURAND THIBAULT,,,"16 bis Rue de la Croix de Fer, 49700 Dou√©-en-Anjou, France",5,1,NANTES,,
CORNILLE ARCHITECTE DPLG,,,"6 Grand Rue, 49350 Gennes-Val-de-Loire, France",5,1,NANTES,,
Ares Architecture,,,"Le, 2 rue Gladiateurs Entresol, 72000 Le Mans, France",5,1,NANTES,,
Atelier 2A Architectes,,,"17 Rue de la Barillerie, 72100 Le Mans, France",5,1,NANTES,,
AAUE - Atelier Architecture Urbanisme et Environnement,,,"37 Rue Chanzy, 72100 Le Mans, France",5,1,NANTES,,
IN3 Int√©grale Ing√©nierie Internationale Bureau D'√©tudes Ing√©nieries Ma√Ætrise d'oeuvre,,,"67 Bd Winston Churchill, 72100 Le Mans, France",5,1,NANTES,,
Soci√©t√© d'architecture Jean-Claude Le Lay,,,"126 Av. de l'Atlantique, 53000 Laval, France",5,1,NANTES,,
Adeline Marcadet - AM Architecture,,,"1 Rue du Mans, 53470 Martign√©-sur-Mayenne, France",5,1,NANTES,,
Mathilde Design Architecte d'int√©rieur,,,"18 Rue de la Planchonnais, 44980 Sainte-Luce-sur-Loire, France",4.9,34,NANTES,,
R√©novation & Architecture Nantes ‚Äì MAD,,,"4003 Rue d'Anjou, 49270 Or√©e d'Anjou, France",4.9,33,NANTES,,
3A SURGET - Agence d'Architectes Associ√©s,,,"1 Rue des Min√©es, 44640 Cheix-en-Retz, France",4.9,19,NANTES,,
Agence CABA - Ma√Ætre d'≈ìuvre Angers 49,,,"461 Rue Saint-L√©onard, 49000 Angers, France",4.9,18,NANTES,,
ATELIER P.L.D. ARCHITECTEÔΩúARCHITECTE ANGERS,,,"15 Rue Coste et Bellonte, 49000 Angers, France",4.9,17,NANTES,,
AP ATELIER D'ARCHITECTURE,,,"24 Rue de Bois de C√®ne, 85300 Challans, France",4.9,15,NANTES,,
Bethea Ma√Ætre D'oeuvre,,,"19 Rue du Portail Louis, 49400 Saumur, France",4.9,15,NANTES,,
DOMEVA Pays de la Loire - Bureau d'√©tudes et Ma√Ætre d'≈íuvre en accessibilit√©,,,"4 Rue Alfred de Vigny, 85600 Montaigu-Vend√©e, France",4.9,14,NANTES,,
DIALOG Architectes - Georgia et Aur√©lien Crozet,,,"4 Rue de la Paix, 44340 Bouguenais, France",4.9,13,NANTES,,
HMP.ma√Ætre d'≈ìuvre,,,"4 Rue Fulton, 49000 Angers, France",4.9,13,NANTES,,
Chlo√© Billy Architecte d'int√©rieur,,,"6 Rue des Capucins, 49100 Angers, France",4.9,12,NANTES,,
C√©lie Evanno - Architecte d'int√©rieur Nantes,,,"25 Bis Rue du Largeau, 44230 Saint-S√©bastien-sur-Loire, France",4.9,10,NANTES,,
Le D A 3 Faces Architecte int√©rieur Les Sables d‚ÄôOlonne,,,"6 Rue des √âcoliers, 85100 Les Sables-d'Olonne, France",4.9,10,NANTES,,
AMOE LEMAISTRE - Cabinet de Maitrise d'≈íuvre B√¢timent - Neuf et R√©novation,,,"71 Av. F√©lix Vincent, 44700 Orvault, France",4.9,9,NANTES,,
architecte d'int√©rieur C2 - Concepteur d'espaces,,,"25 Rue de Carquefou, 44470 Thouar√©-sur-Loire, France",4.9,9,NANTES,,
O'Conception - Ma√Ætre d'≈ìuvre - Vend√©e,,,"69 Bd des Deux Moulins, 85170 Le Poir√©-sur-Vie, France",4.8,68,NANTES,,
LMO - Ma√Ætre d'Oeuvre,,,"26 Rue Aristide Briand, 44390 Nort-sur-Erdre, France",4.8,62,NANTES,,
NRGYS - Bureau d'√©tudes thermique et fluides,,,"5 Av. des Amethystes, 44300 Nantes, France",4.8,26,NANTES,,
Samuel Mamet Architecte D.P.L.G.,,,"40 Bis Rue des √âcoles, 44120 Vertou, France",4.8,25,NANTES,,
Agathe Cuvelier ‚Äì Architecte & D√©coratrice d‚Äôint√©rieur Nantes,,,"23 bis Rue de l'Ouche de Versailles, 44000 Nantes, France",4.8,25,NANTES,,
Cr√©ative Home - Architecte d'int√©rieur √† Nantes,,,"293 Grande Rue, 44240 Suc√©-sur-Erdre, France",4.8,25,NANTES,,
ID House Concept - Ma√Ætre d'oeuvre construction maison individuelle Vend√©e,,,"15 Gd Rue Saint-Blaise, 85500 Les Herbiers, France",4.8,22,NANTES,,
H√©l√®ne Szereda Architecte,,,"25 Rue Lenepveu, 49100 Angers, France",4.8,22,NANTES,,
Sarl Perspective - Ma√Ætre d'oeuvre Angers 49,,,"12 Rue du Petit Louet, 49610 Saint-Melaine-sur-Aubance, France",4.8,22,NANTES,,
Pharea - Saint Nazaire - Bureau d'√©tudes ing√©nierie m√©canique,,,"9 Av. Barbara, 44570 Trignac, France",4.8,18,NANTES,,
Les Ateliers de C√©cile Architecte d‚ÄôInt CFAI,,,"6 Rue Edison, 49000 Angers, France",4.8,17,NANTES,,
Architecte St√©phane Chabrol,,,"P√¥le activ' ocean - Parc d'activit√© Tertiaire II, 6 Pl. Albert Einstein, 85300 Challans, France",4.8,14,NANTES,,
Le Jour d'un Projet - Architecte d'int√©rieur - Vend√©e,,,"4 Rue du G√¢tineau, 85270 Saint-Hilaire-de-Riez, France",4.8,13,NANTES,,
44 Travaux - Ma√Ætre d'oeuvre,,,"5 Pl. Charles Moreau, 44400 Rez√©, France",4.8,6,NANTES,,
Edeis ing√©nierie Nantes - Bureau d'√©tudes,,,"18 Rue de la Petite Sensive, 44312 Nantes, France",4.8,6,NANTES,,
AUDEVARD ARCHITECTURE,,,"36 Rue Xavier Bichat, 72000 Le Mans, France",4.8,6,NANTES,,
ArchiJoyeux | L‚Äôatelier d'architecture qui soigne les liens et les lieux.,,,"Le Jardin ü™¥, 36 Av. Albert de Mun, 44600 Saint-Nazaire, France",4.8,5,NANTES,,
SL20 ARCHITECTURE,,,"2 Allee Jean Gourbeil, 44250 Saint-Brevin-les-Pins, France",4.8,5,NANTES,,
Muriel Vigier architecture int√©rieure et ma√Ætrise d'oeuvre,,,"Rue de la Baugerie, 44230 Saint-S√©bastien-sur-Loire, France",4.8,5,NANTES,,
SOLAB Nantes - Bureau d'√©tudes ing√©nierie technique et environnementale acoustique SSI et cuisine,,,"12 Chem. du Vigneau, 44800 Saint-Herblain, France",4.8,5,NANTES,,
Fr√©d√©ric Jaunet - Architecte d'int√©rieur - Designer,,,"Studio de Cr√©ativit√© Appliqu√©e : SCRATCH, 21 Rue Voltaire, 44000 Nantes, France",4.8,4,NANTES,,
Serba Nantes - Bureau d'√©tudes structure,,,"10 b Av. du Mar√©chal de Lattre de Tassigny, 44400 Rez√©, France",4.8,4,NANTES,,
Fan_Architecture - Architecte √† Orvault,,,"8 Rue des Dahlias, 44700 Orvault, France",4.8,4,NANTES,,
Philippe Vallecillo Architecture,,,"35 Rue du Paradis, 49300 Cholet, France",4.8,4,NANTES,,
G.A.I.M.E.hh G√©obiologie et Architecte d'Int√©rieur,,,"61 Rue de la Jouardais, 44640 Le Pellerin, France",4.8,4,NANTES,,
Top√¥me Architecture SARL,,,"15 bis Rue Gambetta, 85100 Les Sables-d'Olonne, France",4.8,4,NANTES,,
MBMO - Ma√Ætre d'≈ìuvre en Vend√©e,,,"36 Bd Mourain du Patis, 85300 Challans, France",4.7,154,NANTES,,
MBMO - Ma√Ætre d'≈ìuvre en Vend√©e,,,"38 Rue S√©raphin Buton Le chateau d'olonne, 85180 Les Sables-d'Olonne, France",4.7,96,NANTES,,
LM - Ma√Ætrise d'oeuvre & Architecture,,,"455 Rue de l'Oc√©an, 85440 Talmont-Saint-Hilaire, France",4.7,39,NANTES,,
Architecte Nantes A2 Architecture SARL : Conception R√©alisation Maison Contemporaine Nantes,06 07 74 30 67,http://www.a2architecture.fr/,"2 Rue Sergent Bobillot, 44000 Nantes, France",4.7,19,NANTES,,
Cub Architecture,,,"128 Rue Georges Charpak, 44115 Haute-Goulaine, France",4.7,17,NANTES,,
Candan Ma√Ætre d'oeuvre en Vend√©e,,,"33 Rue du Mar√©chal Foch, 85000 La Roche-sur-Yon, France",4.7,16,NANTES,,
TEKTOLAB Architectes,,,"9 Ven. du Serpentin, 44119 Treilli√®res, France",4.7,15,NANTES,,
Innen Architecture - Architecte d'int√©rieur - Angers,,,"2 Sq. Lafayette, 49000 Angers, France",4.7,12,NANTES,,
Patrimoine et Architecture,,,"2 Rue du G√©n√©ral de Gaulle, 85140 Essarts-en-Bocage, France",4.7,9,NANTES,,
Bisson Fortin architecture,,,"2555 Boul. le Corbusier, Laval, QC H7S 2H2, Canada",4.7,9,NANTES,,
Edeis Ing√©nierie Montoir - Bureau d'√©tudes,,,"ICARE A, ZAC de Cadr√©an, Bd de Cadr√©an CS 13049, 44550 Montoir-de-Bretagne, France",4.7,6,NANTES,,
Tr√©ma Agence d'Architecture,,,"29 Rue des Marais, 72100 Le Mans, France",4.7,6,NANTES,,
Thomas Pointiere Architecte d'int√©rieur,,,"13 Bd de l'Oc√©an, 44500 La Baule-Escoublac, France",4.7,3,NANTES,,
studio ms architecture,,,"36 Rue Alexandre Olivier, 44220 Cou√´ron, France",4.7,3,NANTES,,
Brossier Architecte - Architrio,,,"91 Rue de Rouen, 49400 Saumur, France",4.7,3,NANTES,,
Atelier d‚ÄôArchitecture Dutertre Aud√©on,,,"108 Rue Paul Poiroux, 85340 Les Sables-d'Olonne, France",4.6,26,NANTES,,
POUTIER Architectures & ma√Ætrise d'≈ìuvre - Saint-Nazaire,,,"34 Bd de l'Universit√©, 44600 Saint-Nazaire, France",4.6,23,NANTES,,
2d Architectes d'int√©rieur,,,"3 bis Rue du Mar√©chal Lyautey, 85000 La Roche-sur-Yon, France",4.6,19,NANTES,,
ATELIER GOODTIME Architecte d'int√©rieur,,,"24 Rue de Quiobert, 44740 Batz-sur-Mer, France",4.6,16,NANTES,,
MB Conception - Ma√Ætre d'≈ìuvre,,,"3 Rue Sirius, 85700 Pouzauges, France",4.6,16,NANTES,,
HOME & ME - Ma√Ætre d'≈ìuvre,,,"9 Bd Eug√®ne Orieux, 44000 Nantes, France",4.6,14,NANTES,,
DTBE - Bureau d'√©tudes thermiques,,,"4 Rue de Leinster, 44240 La Chapelle-sur-Erdre, France",4.6,13,NANTES,,
Periot Architecture Durable,,,"4 Rue de la Passerelle, 85100 Les Sables-d'Olonne, France",4.6,11,NANTES,,
Maison r√©gionale de l'architecture des Pays de la Loire,,,"28 Rue Four√©, 44000 Nantes, France",4.6,10,NANTES,,
IAM DESIGN - Architectes Int√©rieur √† Nantes,,,"38 Bd Gabriel Guist'Hau, 44000 Nantes, France",4.6,9,NANTES,,
Nl2c ma√Ætre d'≈ìuvre en r√©novation int√©rieure,,,"26 Rue Aristide Briand, 53100 Mayenne, France",4.6,9,NANTES,,
Architecture Olivier Charrier AOC,,,"31 Rue du Vieux Bagneux, 49400 Saumur, France",4.6,7,NANTES,,
Benoit Polet Architecte d'int√©rieur,,,"12 Rue Montyon, 44100 Nantes, France",4.6,5,NANTES,,
Laurent Vie Architecture,,,"30 Av. Besnardi√®re, 49100 Angers, France",4.6,5,NANTES,,
Atelier d'Architecture Cordier-Daviau : construction et r√©novation de maison,,,"2 Rte de Cholet, 49610 M√ªrs-Erign√©, France",4.5,47,NANTES,,
Demeures Nantaises - ma√Ætre d'≈ìuvre,,,"98 bis Rue du Stade, 44220 Cou√´ron, France",4.5,35,NANTES,,
Vines Construction - Ma√Ætre d'≈ìuvre,,,"19 Rue du Petit Prince, 44360 Vigneux-de-Bretagne, France",4.5,16,NANTES,,
M&LOIRE - cabinet de maitrise d'oeuvre - R√©novation Construction,,,"2 Rue Ren√© Panhard, 44700 Orvault, France",4.5,11,NANTES,,
MJH Architecture,,,"130 Rue des Ponts de Ce, 49000 Angers, France",4.5,10,NANTES,,
Sol√©cit√© | Scop d'architecture,,,"1 Pl. J.B. Daviais, 44400 Rez√©, France",4.5,8,NANTES,,
Architecture Fardin,,,"Za Ecuy√®re, 20 Rue de Terre Neuve, 49300 Cholet, France",4.5,4,NANTES,,
MUR architectes,,,"13 Rue de l'H√©ronni√®re, 44000 Nantes, France",4.5,2,NANTES,,
MXC ARCHITECTES,,,"25 Rue du Calvaire, 44000 Nantes, France",4.5,2,NANTES,,
Sandra Troffigu√© Architecte,,,"6 Rue du Dr Auguste Guilmin, 44210 Pornic, France",4.5,2,NANTES,,
Atelier Samuel RIOT Architecte,,,"2 Rue de l'Espalion, 44800 Saint-Herblain, France",4.5,2,NANTES,,
ESSENTIEL Architectes,,,"P√¥le Activ Oc√©an, 27 Rue Pierre-Gilles de Gennes, 85300 Challans, France",4.5,2,NANTES,,
MBMO - Ma√Ætre d'≈ìuvre en Vend√©e,,,"11 Rue Gutenberg, 85000 La Roche-sur-Yon, France",4.4,103,NANTES,,
"Maison de l'Architecture, des Territoires et du Paysage",,,"312 Av. Ren√© Gasnier, 49100 Angers, France",4.4,30,NANTES,,
Pascale Minier architectes,,,"4 Rue B√©ranger, 49100 Angers, France",4.4,27,NANTES,,
Agence Gr√©goire Architectes,,,"46 Rue Paul Bouyx, 49300 Cholet, France",4.4,7,NANTES,,
DUCOS GRELIER architectes associ√©s,,,"32 Rue du Carteron, 49300 Cholet, France",4.3,24,NANTES,,
ABR Architectes,,,"145 Rue de la Chalou√®re, 49100 Angers, France",4.3,16,NANTES,,
"St√©phane Marinho, ma√Ætre d'oeuvre",,,"60 Rue des Sables, 44210 Pornic, France",4.3,15,NANTES,,
Pierre CANET - Ma√Ætre d'oeuvre Agenceur - Architecte interieur,,,"12 Rue du Trait√© de Paris, 44210 Pornic, France",4.3,12,NANTES,,
Kabane architecture,,,"8 Av. des Th√©baudi√®res, 44800 Saint-Herblain, France",4.3,11,NANTES,,
Atelier Du Large Architecture,,,"10 Rue Gambetta, 85100 Les Sables-d'Olonne, France",4.3,10,NANTES,,
Yann Qu√©r√© ARCHITECTE,,,"28 Rue de Verdun, 44210 Pornic, France",4.3,9,NANTES,,
A3 Architecture Ch√©reau et Associ√©s,,,"20 Chem. de la Malle, 53000 Laval, France",4.3,7,NANTES,,
ARLAB Architectes,,,"6 Pl. du Commando, 44600 Saint-Nazaire, France",4.3,6,NANTES,,
Atelier d'architecture Roulin,,,"18 Rue de la Paix, 44360 Saint-√âtienne-de-Montluc, France",4.3,6,NANTES,,
Pelleau et Associes Architectes,,,"30 Rue Moli√®re, 85000 La Roche-sur-Yon, France",4.3,6,NANTES,,
Thellier Architecture,,,"10 Av. Paul Prosper Guilhem, 49070 Beaucouz√©, France",4.3,6,NANTES,,
LEDRU ARCHITECTES,,,"13 Rue de la Barillerie, 72100 Le Mans, France",4.3,6,NANTES,,
OCE Challans - Bureau d'√©tudes Environnement et am√©nagement,,,"P√¥le Activ'Oc√©an, 12 Pl. Galil√©e, 85300 Challans, France",4.3,4,NANTES,,
Bouilly- Nicoux Agence d'architecture,,,"Cdl, 33 Rue du Cardinal Louis-Marie Bill√©, 53000 Laval, France",4.3,4,NANTES,,
Aude Architecture,,,"17 Rue de la Morici√®re, 44140 Le Bignon, France",4.2,10,NANTES,,
Interfaces Architecture,,,"405 Rte de Clisson, 44230 Saint-S√©bastien-sur-Loire, France",4.2,10,NANTES,,
9005 Architectes,,,"8 bis Rue d'Anjou, 44600 Saint-Nazaire, France",4.2,9,NANTES,,
Quadra Architectes,,,"2 Rue du Wattman, 44700 Orvault, France",4.2,9,NANTES,,
Architecte Angers Cordier Daviau : construction et r√©novation de maison,,,"18 Bd Ayrault, 49100 Angers, France",4.2,5,NANTES,,
Art & Bat - Architecte d'interieur,,,"25 Quai des Mariniers, 49350 Gennes-Val-de-Loire, France",4.2,5,NANTES,,
2LM Constructions - Ma√Ætre d'≈ìuvre √† Laval (53),,,"1 Rue du Bas des Bois, 53000 Laval, France",4.1,24,NANTES,,
Denis Ma√Ætre d'Oeuvre,,,"18 Pl. Saint-Martin, 44521 Oudon, France",4.1,7,NANTES,,
Serba Challans - Bureau d'√©tudes structure,,,"4 Pl. Henri Fayol, 85300 Challans, France",4,18,NANTES,,
Agence Olivier Dugast Architecte,,,"11 Rue du Mar√©chal Foch, 85000 La Roche-sur-Yon, France",4,9,NANTES,,
LGMO Ma√Ætre d'≈íuvre en Vend√©e,,,"13 Rue du Mar√©chal Joffre, 85000 La Roche-sur-Yon, France",4,5,NANTES,,
REALIS architecture,,,"b√¢timent E, 2 Rue Henri Guillaumet Parc du, 44700 Orvault, France",4,4,NANTES,,
C√©cile BALAT Architecte DPLG,,,"17 Chem. des Boiri√®res, 44340 Bouguenais, France",4,4,NANTES,,
III¬∑V Architecture (historiquement Lionel Vi√© & Associ√©s),,,"23 Rue Guillier de la Touche, 49100 Angers, France",4,3,NANTES,,
Chenet Design & Architecture,,,"45 Quai Emile Cormerais, 44800 Saint-Herblain, France",4,1,NANTES,,
"Brard, Forny et associ√©s, architectes urbanistes",,,"et des Arts, 6 Rue de la Paix, 44600 Saint-Nazaire, France",3.9,12,NANTES,,
Eric Le Gal Architecte DPLG,,,"66 Rue de la Paix, 44600 Saint-Nazaire, France",3.7,3,NANTES,,
Gallien Lauzel Architecte,,,"1 Av. de Mesore, 44500 La Baule-Escoublac, France",3.7,3,NANTES,,
RS Architecture,,,"14 L'Ouzini√®re, 44360 Saint-√âtienne-de-Montluc, France",3.7,3,NANTES,,
H-OM-E Ma√Ætre d'≈ìuvre,,,"Rue Jacques Moindreau, 85310 La Chaize-le-Vicomte, France",3.6,9,NANTES,,
SARL Frederic LESAGE Architecte,,,"5 Av. F√©lix Vincent, 44700 Orvault, France",3.4,5,NANTES,,
Fran√ßoise Gervot Architecture DPLG,,,"12 Rue du Refuge, 44000 Nantes, France",3.3,3,NANTES,,
Mervane Architectes,,,"7 Bd Amp√®re, 44470 Carquefou, France",3,10,NANTES,,
ANTAK Architectes du patrimoine,,,"15 Rue des √âtats, 44000 Nantes, France",3,4,NANTES,,
AM Architecture,,,"1 Rue du 8 Mai 1945, 44340 Bouguenais, France",3,3,NANTES,,
Kaibily Architectes,,,"Espace Centre Europe, 5 Rue du Tertre, 44470 Carquefou, France",3,2,NANTES,,
Jahan Architectes,,,"60 Rue Faidherbe, 49000 Angers, France",3,2,NANTES,,
AMBL Architecture,,,"140 Av. des Fusill√©s, 49400 Saumur, France",2.8,4,NANTES,,
ATELIER M ARCHITECTES,,,"1 Av. de l'Angevini√®re, 44800 Saint-Herblain, France",2,4,NANTES,,
M+A - Atelier d'architecture,,,"11 Rue Claude Guillon Verne, 44100 Nantes, France",,,NANTES,,
Studio T√©r√© - architecte - Saint-nazaire,,,"87 Chem. de Porc√©, 44600 Saint-Nazaire, France",,,NANTES,,
Julien Rondot Architecte,,,"78 Rue Jules Guesde, 44600 Saint-Nazaire, France",,,NANTES,,
Ark Studio & Partners - Emmanuel No√´l Architecte DPLG,,,"14 Av. d'Ouessant, 44500 La Baule-Escoublac, France",,,NANTES,,
Mittler Mor√©lot Isabelle - Architecte,,,"4 Av. Alexandre Dumas, 44500 La Baule-Escoublac, France",,,NANTES,,
Philippe Robert Architecte,,,"2 All. des Sorbiers, 44500 La Baule-Escoublac, France",,,NANTES,,
YAH Architecture,,,"42 Bd de Linz, 44210 Pornic, France",,,NANTES,,
Atelier d'architecture Normand,,,"34 Bd Jean Monnet, 44400 Rez√©, France",,,NANTES,,
Atelier architecture Nathalie Normand,,,"34 Bd Jean Monnet, 44400 Rez√©, France",,,NANTES,,
Atelier Domos - Magaye N'DIAYE Architecte D.P.L.G,,,"52 Rue Jean Baptiste Vigier, 44400 Rez√©, France",,,NANTES,,
AO-architecture,,,"Unit√© d'habitation, 241, 44400 Rez√©, France",,,NANTES,,
KARST architecture & patrimoine,,,"7 Rue de la F√©d√©ration, 44100 Nantes, France",,,NANTES,,
MAURET ARCHITECTE,,,"11 Rue Marceau, 44000 Nantes, France",,,NANTES,,
Isabelle Aubert Architecture,,,"31 Rue des Lilas, 44700 Orvault, France",,,NANTES,,
Pep's Architecture,,,"8 Rue Alessandro Volta, 44470 Carquefou, France",,,NANTES,,
Pep's Architecture,,,"17 Rue du Nouveau B√™le Bureau N¬∞1, 44470 Carquefou, France",,,NANTES,,
Rubix - Architecte d'int√©rieur √† Nantes l Am√©nagement et r√©novation,,,"3 Rue du Sacr√© C≈ìur, 44300 Nantes, France",,,NANTES,,
Atelier Ronan Prineau_architectes,,,"16 Rue Alain Barbe Torte, 44300 Nantes, France",,,NANTES,,
Atelier AAM Architecture,,,"Le, Sillon de Bretagne, 8 Av. des Th√©baudi√®res, 44800 Saint-Herblain, France",,,NANTES,,
AK≈åM / SARL d'Architecture,,,"Rue Alfred Nobel, 44800 Saint-Herblain, France",,,NANTES,,
GA√èA INTERIEURS - Architecte d'int√©rieur,,,"11 Rue de la Lionni√®re, 44220 Cou√´ron, France",,,NANTES,,
Labo@m Agnieszka Marciniszyn - Architecte (Coueron - 44),,,"36 Rue Alexandre Olivier, 44220 Cou√´ron, France",,,NANTES,,
AAP atelier architecture Poilane,,,"25 Rue Aristide Bertreux, 44640 Le Pellerin, France",,,NANTES,,
sarl Dupont Micka√´l Ma√Ætre d'oeuvre,,,"69 Rue de Saint-Jean de Monts, 85300 Challans, France",,,NANTES,,
Cibl√©es ( Collectif d'architecture ),,,"1 bis Prom. de l'Amiral Lafargue, 85100 Les Sables-d'Olonne, France",,,NANTES,,
Guiet & Mercier ma√Ætre d'oeuvre,,,"2 bis Rue le Corbusier, 85180 Les Sables-d'Olonne, France",,,NANTES,,
A.A.R.P. PATRICIA JAUNET - Architecte du Patrimoine et DPLG,,,"700 La Boule du Bois, 85190 Aizenay, France",,,NANTES,,
Unit√© d√©partementale de l‚Äôarchitecture et du patrimoine de la Vend√©e (UDAP),,,"31 Rue Delille, 85000 La Roche-sur-Yon, France",,,NANTES,,
Durand Architectes,,,"5 Rue Littr√©, 85000 La Roche-sur-Yon, France",,,NANTES,,
Eidos Studio d'Architecture,,,"29 Rue Dr Charles Coignard, 49300 Cholet, France",,,NANTES,,
Edeis Ing√©nierie Cholet - Bureau d'√©tudes,,,"7 Bd de Touraine, 49300 Cholet, France",,,NANTES,,
JAHAN ARCHITECTES,,,"57B Rue d'Orl√©ans, 49400 Saumur, France",,,NANTES,,
Service Territorial de l'Architecture et du Patrimoine de la Sarthe,,,"19 Bd Paixhans, 72000 Le Mans, France",,,NANTES,,
c2v Architectes,,,"30 Rue de la Mission, 72100 Le Mans, France",,,NANTES,,
PHARO'ouest Architectes et Urbanistes,,,"63 Bd Marie et Alexandre Oyon, 72000 Le Mans, France",,,NANTES,,
Service territorial de l'architecture et du patrimoine (S.T.A.P.),,,"16 Pl. Jean Moulin, 53000 Laval, France",,,NANTES,,
Lumy Archi - Atelier d‚Äòarchitecture,,,"les grandes haies, 53440 La Bazoge-Montpin√ßon, France",,,NANTES,,
Bureau d'Architecte(s) Mobile,,,"La Buchardi√®re, 53440 Aron, France",,,NANTES,,
Centre d'interpr√©tation de l'Architecture et du Patrimoine,,,"9 Rue Fouquet de la Varenne, 53270 Sainte-Suzanne-et-Chammes, France",,,NANTES,,
